<?xml version="1.0" encoding="UTF-8"?>
<kml xmlns="http://www.opengis.net/kml/2.2"><Document><name>Meta 2 — antiga META_02 (Bacia B)</name><description>Rede total em cinza e trechos selecionados destacados por meta. Os envelopes regulares são somente para apresentação; os polígonos originais devem ser usados para seleção analítica.</description><Style id="rede_total"><LineStyle><color>ffe1d5cb</color><width>1.2</width></LineStyle></Style><Style id="bacia_a"><LineStyle><color>ff1654c3</color><width>2.5</width></LineStyle><PolyStyle><color>191654c3</color></PolyStyle></Style><Style id="bacia_b"><LineStyle><color>ff7b7f08</color><width>2.5</width></LineStyle><PolyStyle><color>197b7f08</color></PolyStyle></Style><Style id="dissipador"><LineStyle><color>ffaf1ca2</color><width>5</width></LineStyle></Style><Style id="originais"><LineStyle><color>ff475569</color><width>2</width></LineStyle><PolyStyle><color>10475569</color></PolyStyle></Style><Style id="apresentacao"><LineStyle><color>ff334155</color><width>2.5</width></LineStyle><PolyStyle><color>40334155</color></PolyStyle></Style><Style id="meta_01_tronco"><LineStyle><color>ff1654c3</color><width>4</width></LineStyle></Style><Style id="meta_01_coletor"><LineStyle><color>ff1654c3</color><width>2.5</width></LineStyle></Style><Style id="meta_02_tronco"><LineStyle><color>ff7b7f08</color><width>4</width></LineStyle></Style><Style id="meta_02_coletor"><LineStyle><color>ff7b7f08</color><width>2.5</width></LineStyle></Style><Style id="meta_03_tronco"><LineStyle><color>ffc1426f</color><width>4</width></LineStyle></Style><Style id="meta_03_coletor"><LineStyle><color>ffc1426f</color><width>2.5</width></LineStyle></Style><Folder><name>Trechos selecionados por meta</name><Folder><name>Meta 2 — antiga META_02 (Bacia B)</name><Placemark><name>L_B_0022 — Meta 2 — COLETOR</name><styleUrl>#meta_02_coletor</styleUrl><description>Trecho selecionado para Meta 2 — antiga META_02 (Bacia B).</description><ExtendedData><Data name="META_ADMIN"><value>META_02</value></Data><Data name="META_ORIG"><value>META_02</value></Data><Data name="BACIA"><value>B</value></Data><Data name="CLASSE"><value>COLETOR</value></Data><Data name="ID_LINK"><value>L_B_0022</value></Data><Data name="NO_IN"><value>N_B_0033</value></Data><Data name="NO_OUT"><value>N_B_0034</value></Data><Data name="COMPR_M"><value>314.17755033790985</value></Data><Data name="DPROP_M"><value>0.4</value></Data><Data name="DREQ25"><value>0.366372962125906</value></Data><Data name="DREQ50"><value>0.383839013627661</value></Data><Data name="Q25_CMS"><value>0.363</value></Data><Data name="Q50_CMS"><value>0.411</value></Data><Data name="STATUS_SW"><value>SEM_ALERTA_TRIAGEM</value></Data><Data name="CRITICO"><value>0</value></Data></ExtendedData><LineString><tessellate>1</tessellate><coordinates>-34.91685792,-7.27331721,0 -34.91731402,-7.27370002,0 -34.91780703,-7.27409971,0 -34.91820454,-7.27435665,0 -34.91867655,-7.27473395,0 -34.91908122,-7.27508430,0</coordinates></LineString></Placemark><Placemark><name>L_B_0023 — Meta 2 — COLETOR</name><styleUrl>#meta_02_coletor</styleUrl><description>Trecho selecionado para Meta 2 — antiga META_02 (Bacia B).</description><ExtendedData><Data name="META_ADMIN"><value>META_02</value></Data><Data name="META_ORIG"><value>META_02</value></Data><Data name="BACIA"><value>B</value></Data><Data name="CLASSE"><value>COLETOR</value></Data><Data name="ID_LINK"><value>L_B_0023</value></Data><Data name="NO_IN"><value>N_B_0035</value></Data><Data name="NO_OUT"><value>N_B_0036</value></Data><Data name="COMPR_M"><value>284.5513292071679</value></Data><Data name="DPROP_M"><value>0.4</value></Data><Data name="DREQ25"><value>0.359952971646301</value></Data><Data name="DREQ50"><value>0.379068922539824</value></Data><Data name="Q25_CMS"><value>0.392</value></Data><Data name="Q50_CMS"><value>0.45</value></Data><Data name="STATUS_SW"><value>SEM_ALERTA_TRIAGEM</value></Data><Data name="CRITICO"><value>0</value></Data></ExtendedData><LineString><tessellate>1</tessellate><coordinates>-34.91622521,-7.27393130,0 -34.91731939,-7.27496572,0 -34.91806561,-7.27573087,0</coordinates></LineString></Placemark><Placemark><name>L_B_0025 — Meta 2 — COLETOR</name><styleUrl>#meta_02_coletor</styleUrl><description>Trecho selecionado para Meta 2 — antiga META_02 (Bacia B).</description><ExtendedData><Data name="META_ADMIN"><value>META_02</value></Data><Data name="META_ORIG"><value>META_02</value></Data><Data name="BACIA"><value>B</value></Data><Data name="CLASSE"><value>COLETOR</value></Data><Data name="ID_LINK"><value>L_B_0025</value></Data><Data name="NO_IN"><value>N_B_0039</value></Data><Data name="NO_OUT"><value>N_B_0040</value></Data><Data name="COMPR_M"><value>337.1712776535128</value></Data><Data name="DPROP_M"><value>0.5</value></Data><Data name="DREQ25"><value>0.390287731173965</value></Data><Data name="DREQ50"><value>0.412194766912337</value></Data><Data name="Q25_CMS"><value>0.421</value></Data><Data name="Q50_CMS"><value>0.487</value></Data><Data name="STATUS_SW"><value>SEM_ALERTA_TRIAGEM</value></Data><Data name="CRITICO"><value>0</value></Data></ExtendedData><LineString><tessellate>1</tessellate><coordinates>-34.91762282,-7.27269171,0 -34.91947325,-7.27406171,0 -34.92007897,-7.27450199,0</coordinates></LineString></Placemark><Placemark><name>L_B_0036 — Meta 2 — TRONCO</name><styleUrl>#meta_02_tronco</styleUrl><description>Trecho selecionado para Meta 2 — antiga META_02 (Bacia B).</description><ExtendedData><Data name="META_ADMIN"><value>META_02</value></Data><Data name="META_ORIG"><value>META_02</value></Data><Data name="BACIA"><value>B</value></Data><Data name="CLASSE"><value>TRONCO</value></Data><Data name="ID_LINK"><value>L_B_0036</value></Data><Data name="NO_IN"><value>N_B_0038</value></Data><Data name="NO_OUT"><value>N_B_0036</value></Data><Data name="COMPR_M"><value>114.49472335484492</value></Data><Data name="DPROP_M"><value>1.0</value></Data><Data name="DREQ25"><value>0.919588823873596</value></Data><Data name="DREQ50"><value>0.926669660673153</value></Data><Data name="Q25_CMS"><value>1.984</value></Data><Data name="Q50_CMS"><value>2.025</value></Data><Data name="STATUS_SW"><value>CAPACIDADE_PRELIM</value></Data><Data name="CRITICO"><value>1</value></Data></ExtendedData><LineString><tessellate>1</tessellate><coordinates>-34.91719661,-7.27629528,0 -34.91806561,-7.27573087,0</coordinates></LineString></Placemark><Placemark><name>L_B_0037 — Meta 2 — TRONCO</name><styleUrl>#meta_02_tronco</styleUrl><description>Trecho selecionado para Meta 2 — antiga META_02 (Bacia B).</description><ExtendedData><Data name="META_ADMIN"><value>META_02</value></Data><Data name="META_ORIG"><value>META_02</value></Data><Data name="BACIA"><value>B</value></Data><Data name="CLASSE"><value>TRONCO</value></Data><Data name="ID_LINK"><value>L_B_0037</value></Data><Data name="NO_IN"><value>N_B_0036</value></Data><Data name="NO_OUT"><value>N_B_0034</value></Data><Data name="COMPR_M"><value>133.0556967331609</value></Data><Data name="DPROP_M"><value>1.5</value></Data><Data name="DREQ25"><value>1.203112685411559</value></Data><Data name="DREQ50"><value>1.205949108406102</value></Data><Data name="Q25_CMS"><value>2.54</value></Data><Data name="Q50_CMS"><value>2.556</value></Data><Data name="STATUS_SW"><value>CAPACIDADE_PRELIM</value></Data><Data name="CRITICO"><value>1</value></Data></ExtendedData><LineString><tessellate>1</tessellate><coordinates>-34.91806561,-7.27573087,0 -34.91822867,-7.27562496,0 -34.91900082,-7.27512796,0 -34.91908122,-7.27508430,0</coordinates></LineString></Placemark><Placemark><name>L_B_0038 — Meta 2 — TRONCO</name><styleUrl>#meta_02_tronco</styleUrl><description>Trecho selecionado para Meta 2 — antiga META_02 (Bacia B).</description><ExtendedData><Data name="META_ADMIN"><value>META_02</value></Data><Data name="META_ORIG"><value>META_02</value></Data><Data name="BACIA"><value>B</value></Data><Data name="CLASSE"><value>TRONCO</value></Data><Data name="ID_LINK"><value>L_B_0038</value></Data><Data name="NO_IN"><value>N_B_0034</value></Data><Data name="NO_OUT"><value>N_B_0040</value></Data><Data name="COMPR_M"><value>127.72438826830773</value></Data><Data name="DPROP_M"><value>1.0</value></Data><Data name="DREQ25"><value>0.937181203397847</value></Data><Data name="DREQ50"><value>0.939302252008587</value></Data><Data name="Q25_CMS"><value>3.473</value></Data><Data name="Q50_CMS"><value>3.494</value></Data><Data name="STATUS_SW"><value>CAPACIDADE_PRELIM</value></Data><Data name="CRITICO"><value>1</value></Data></ExtendedData><LineString><tessellate>1</tessellate><coordinates>-34.91908122,-7.27508430,0 -34.91967081,-7.27476411,0 -34.92007897,-7.27450199,0</coordinates></LineString></Placemark><Placemark><name>L_B_0039 — Meta 2 — TRONCO</name><styleUrl>#meta_02_tronco</styleUrl><description>Trecho selecionado para Meta 2 — antiga META_02 (Bacia B).</description><ExtendedData><Data name="META_ADMIN"><value>META_02</value></Data><Data name="META_ORIG"><value>META_02</value></Data><Data name="BACIA"><value>B</value></Data><Data name="CLASSE"><value>TRONCO</value></Data><Data name="ID_LINK"><value>L_B_0039</value></Data><Data name="NO_IN"><value>N_B_0040</value></Data><Data name="NO_OUT"><value>N_B_0044</value></Data><Data name="COMPR_M"><value>39.45357495072143</value></Data><Data name="DPROP_M"><value>1.0</value></Data><Data name="DREQ25"><value>0.963007194760274</value></Data><Data name="DREQ50"><value>0.978388867688396</value></Data><Data name="Q25_CMS"><value>4.68</value></Data><Data name="Q50_CMS"><value>4.882</value></Data><Data name="STATUS_SW"><value>CAPACIDADE_PRELIM</value></Data><Data name="CRITICO"><value>1</value></Data></ExtendedData><LineString><tessellate>1</tessellate><coordinates>-34.92007897,-7.27450199,0 -34.92007897,-7.27450199,0 -34.92033330,-7.27448372,0 -34.92039586,-7.27450064,0 -34.92042420,-7.27447626,0</coordinates></LineString></Placemark><Placemark><name>D_B_02 — Meta 2 — DISSIPADOR</name><styleUrl>#meta_02_coletor</styleUrl><description>Trecho selecionado para Meta 2 — antiga META_02 (Bacia B).</description><ExtendedData><Data name="META_ADMIN"><value>META_02</value></Data><Data name="META_ORIG"><value>META_02</value></Data><Data name="BACIA"><value>B</value></Data><Data name="CLASSE"><value>DISSIPADOR</value></Data><Data name="ID_LINK"><value>D_B_02</value></Data><Data name="NO_IN"><value>N_B_0044</value></Data><Data name="NO_OUT"><value>O_B_DISS_02</value></Data><Data name="COMPR_M"><value>52.30110798222673</value></Data><Data name="DPROP_M"><value>1.2</value></Data><Data name="DREQ25"><value>1.075816540876816</value></Data><Data name="DREQ50"><value>1.107390706522944</value></Data><Data name="Q25_CMS"><value>7.133</value></Data><Data name="Q50_CMS"><value>7.705</value></Data><Data name="STATUS_SW"><value>VELOCIDADE_ALTA</value></Data><Data name="CRITICO"><value>1</value></Data></ExtendedData><LineString><tessellate>1</tessellate><coordinates>-34.92042420,-7.27447626,0 -34.92089290,-7.27454374,0</coordinates></LineString></Placemark></Folder></Folder></Document></kml>