{"type":"FeatureCollection","name":"metas_plano_trabalho","features":[{"type":"Feature","properties":{"META_ORIG":"META_01","META_FINAL":"META_03","BACIA":"B","TIPO":"seleção original para auditoria","ID_DBF":0,"CRS_ORIG":"EPSG:31985"},"geometry":{"type":"Polygon","coordinates":[[[-34.91290284741489,-7.271775075022119],[-34.91278516246221,-7.27168141918938],[-34.9127291932857,-7.271770067027858],[-34.913063191637846,-7.272167083315517],[-34.91512157392489,-7.274929814901182],[-34.916589219974895,-7.273591147996763],[-34.91783082738307,-7.27247730366115],[-34.91814368769573,-7.272114342588229],[-34.91845581056671,-7.272410436569802],[-34.91893628151634,-7.271934747749623],[-34.918802423944754,-7.27184032615145],[-34.91843912728168,-7.272129234403337],[-34.91803049995997,-7.271849197326458],[-34.91734246124919,-7.272569779690995],[-34.916723351223716,-7.27319470886214],[-34.91627259055535,-7.273654450886314],[-34.915821529366184,-7.274043556319979],[-34.91517637498888,-7.274599456069636],[-34.91438355148662,-7.27362199876309],[-34.91290284741489,-7.271775075022119]]]}},{"type":"Feature","properties":{"META_ORIG":"META_02","META_FINAL":"META_02","BACIA":"B","TIPO":"seleção original para auditoria","ID_DBF":0,"CRS_ORIG":"EPSG:31985"},"geometry":{"type":"Polygon","coordinates":[[[-34.91635390750664,-7.273876779726278],[-34.916225213820546,-7.273931300427863],[-34.91618390902376,-7.274093080707773],[-34.91745632888315,-7.275230012497801],[-34.91809291633793,-7.275886806020222],[-34.91940208836385,-7.275017234678209],[-34.91998910582714,-7.274662490270479],[-34.92034284242347,-7.274591277437539],[-34.92053762067247,-7.2745904516590505],[-34.920955454143375,-7.2746790889708715],[-34.920834776309604,-7.274363169080406],[-34.92021391291826,-7.274298228823677],[-34.91963199310313,-7.274684699533658],[-34.918715003571116,-7.275231039559138],[-34.91804838132621,-7.275550295104339],[-34.91656801702558,-7.274110013652996],[-34.91635390750664,-7.273876779726278]]]}},{"type":"Feature","properties":{"META_ORIG":"META_03","META_FINAL":"META_03","BACIA":"B","TIPO":"seleção original para auditoria","ID_DBF":0,"CRS_ORIG":"EPSG:31985"},"geometry":{"type":"Polygon","coordinates":[[[-34.91317310850472,-7.268684851716665],[-34.91299234392395,-7.268760073309118],[-34.91356481044668,-7.270099490201253],[-34.9140152693137,-7.271227705775329],[-34.91518248106024,-7.272804937878494],[-34.91604026672709,-7.273795813614733],[-34.9161831875226,-7.27392300797741],[-34.91622777417717,-7.27376165184629],[-34.915180594333975,-7.272488513327738],[-34.9144071976692,-7.271465721593057],[-34.91406930975042,-7.2710014540316985],[-34.913264962963545,-7.268995048771166],[-34.91317310850472,-7.268684851716665]]]}},{"type":"Feature","properties":{"META_ORIG":"META_04","META_FINAL":"META_01","BACIA":"A","TIPO":"seleção original para auditoria","ID_DBF":0,"CRS_ORIG":"EPSG:31985"},"geometry":{"type":"Polygon","coordinates":[[[-34.92323662535273,-7.267848343098346],[-34.922080513607426,-7.267803233384688],[-34.92023156863362,-7.267799816717977],[-34.918330732249544,-7.267923283906774],[-34.9177423780191,-7.267961621269218],[-34.917063484489375,-7.268000457669492],[-34.91656560792963,-7.268023969302785],[-34.91544284982515,-7.268120650344164],[-34.914614239895045,-7.268151256797119],[-34.914183262164244,-7.2681605769030915],[-34.91416738701585,-7.2682887576107715],[-34.91504969793397,-7.268285031667331],[-34.9159420719111,-7.268236056665387],[-34.91955339335258,-7.2680074711385725],[-34.92313816624315,-7.267934361826786],[-34.92323662535273,-7.267848343098346]]]}}]}