<?xml version="1.0" encoding="UTF-8"?>
<kml xmlns="http://www.opengis.net/kml/2.2"><Document><name>Meta 3 — fusão META_01 + META_03 (Bacia B)</name><description>A rede fora das metas aparece em cinza. Os trechos coloridos são exclusivamente as interseções lineares exatas com os polígonos originais de auditoria; os comprimentos dos segmentos recortados são registrados em COMP_REC_M.</description><Style id="rede_total"><LineStyle><color>ffe1d5cb</color><width>1.2</width></LineStyle></Style><Style id="bacia_a"><LineStyle><color>ff1654c3</color><width>2.5</width></LineStyle><PolyStyle><color>191654c3</color></PolyStyle></Style><Style id="bacia_b"><LineStyle><color>ff7b7f08</color><width>2.5</width></LineStyle><PolyStyle><color>197b7f08</color></PolyStyle></Style><Style id="dissipador"><LineStyle><color>ffaf1ca2</color><width>5</width></LineStyle></Style><Style id="originais"><LineStyle><color>ff475569</color><width>2</width></LineStyle><PolyStyle><color>10475569</color></PolyStyle></Style><Style id="apresentacao"><LineStyle><color>ff334155</color><width>2.5</width></LineStyle><PolyStyle><color>40334155</color></PolyStyle></Style><Style id="meta_01_tronco"><LineStyle><color>ff1654c3</color><width>4</width></LineStyle></Style><Style id="meta_01_coletor"><LineStyle><color>ff1654c3</color><width>2.5</width></LineStyle></Style><Style id="meta_02_tronco"><LineStyle><color>ff7b7f08</color><width>4</width></LineStyle></Style><Style id="meta_02_coletor"><LineStyle><color>ff7b7f08</color><width>2.5</width></LineStyle></Style><Style id="meta_03_tronco"><LineStyle><color>ffc1426f</color><width>4</width></LineStyle></Style><Style id="meta_03_coletor"><LineStyle><color>ffc1426f</color><width>2.5</width></LineStyle></Style><Folder><name>Trechos selecionados por meta</name><Folder><name>Meta 3 — fusão META_01 + META_03 (Bacia B)</name><Placemark><name>L_B_0007_META_03_01 — Meta 3 — COLETOR</name><styleUrl>#meta_03_coletor</styleUrl><description>Interseção exata da rede com o polígono original de auditoria para Meta 3 — fusão META_01 + META_03 (Bacia B).</description><ExtendedData><Data name="META_ID"><value>META_03</value></Data><Data name="META_ORIG"><value>META_01;META_03</value></Data><Data name="bacia"><value>B</value></Data><Data name="classe"><value>COLETOR</value></Data><Data name="id_link"><value>L_B_0007</value></Data><Data name="ID_LINK_ORIG"><value>L_B_0007</value></Data><Data name="ID_LINK_SEG"><value>L_B_0007_META_03_01</value></Data><Data name="node_in"><value>N_B_0009</value></Data><Data name="node_out"><value>N_B_0010</value></Data><Data name="comp_m"><value>388.516778750089</value></Data><Data name="COMP_REC_M"><value>7.556873517767982</value></Data><Data name="PERC_LINK_REC"><value>1.9450571844240065</value></Data><Data name="diam_m"><value>0.6</value></Data></ExtendedData><LineString><tessellate>1</tessellate><coordinates>-34.91274242,-7.27178579,0 -34.91280192,-7.27175206,0</coordinates></LineString></Placemark><Placemark><name>L_B_0008_META_03_01 — Meta 3 — COLETOR</name><styleUrl>#meta_03_coletor</styleUrl><description>Interseção exata da rede com o polígono original de auditoria para Meta 3 — fusão META_01 + META_03 (Bacia B).</description><ExtendedData><Data name="META_ID"><value>META_03</value></Data><Data name="META_ORIG"><value>META_01;META_03</value></Data><Data name="bacia"><value>B</value></Data><Data name="classe"><value>COLETOR</value></Data><Data name="id_link"><value>L_B_0008</value></Data><Data name="ID_LINK_ORIG"><value>L_B_0008</value></Data><Data name="ID_LINK_SEG"><value>L_B_0008_META_03_01</value></Data><Data name="node_in"><value>N_B_0010</value></Data><Data name="node_out"><value>N_B_0011</value></Data><Data name="comp_m"><value>427.15689525897756</value></Data><Data name="COMP_REC_M"><value>427.1568952588293</value></Data><Data name="PERC_LINK_REC"><value>100.0</value></Data><Data name="diam_m"><value>0.6</value></Data></ExtendedData><LineString><tessellate>1</tessellate><coordinates>-34.91280192,-7.27175206,0 -34.91305171,-7.27209066,0 -34.91327902,-7.27231573,0 -34.91346812,-7.27258432,0 -34.91357629,-7.27278538,0 -34.91389235,-7.27320046,0 -34.91406649,-7.27340946,0 -34.91415145,-7.27358911,0 -34.91473591,-7.27425338,0 -34.91515565,-7.27480012,0</coordinates></LineString></Placemark><Placemark><name>L_B_0009_META_03_01 — Meta 3 — COLETOR</name><styleUrl>#meta_03_coletor</styleUrl><description>Interseção exata da rede com o polígono original de auditoria para Meta 3 — fusão META_01 + META_03 (Bacia B).</description><ExtendedData><Data name="META_ID"><value>META_03</value></Data><Data name="META_ORIG"><value>META_01;META_03</value></Data><Data name="bacia"><value>B</value></Data><Data name="classe"><value>COLETOR</value></Data><Data name="id_link"><value>L_B_0009</value></Data><Data name="ID_LINK_ORIG"><value>L_B_0009</value></Data><Data name="ID_LINK_SEG"><value>L_B_0009_META_03_01</value></Data><Data name="node_in"><value>N_B_0012</value></Data><Data name="node_out"><value>N_B_0010</value></Data><Data name="comp_m"><value>307.7357552197082</value></Data><Data name="COMP_REC_M"><value>5.898780525509561</value></Data><Data name="PERC_LINK_REC"><value>1.9168330054124303</value></Data><Data name="diam_m"><value>0.6</value></Data></ExtendedData><LineString><tessellate>1</tessellate><coordinates>-34.91276474,-7.27171377,0 -34.91280192,-7.27175206,0</coordinates></LineString></Placemark><Placemark><name>L_B_0010_META_03_01 — Meta 3 — COLETOR</name><styleUrl>#meta_03_coletor</styleUrl><description>Interseção exata da rede com o polígono original de auditoria para Meta 3 — fusão META_01 + META_03 (Bacia B).</description><ExtendedData><Data name="META_ID"><value>META_03</value></Data><Data name="META_ORIG"><value>META_01;META_03</value></Data><Data name="bacia"><value>B</value></Data><Data name="classe"><value>COLETOR</value></Data><Data name="id_link"><value>L_B_0010</value></Data><Data name="ID_LINK_ORIG"><value>L_B_0010</value></Data><Data name="ID_LINK_SEG"><value>L_B_0010_META_03_01</value></Data><Data name="node_in"><value>N_B_0013</value></Data><Data name="node_out"><value>N_B_0014</value></Data><Data name="comp_m"><value>702.483361192465</value></Data><Data name="COMP_REC_M"><value>16.40330709829204</value></Data><Data name="PERC_LINK_REC"><value>2.335045640149</value></Data><Data name="diam_m"><value>0.6</value></Data></ExtendedData><LineString><tessellate>1</tessellate><coordinates>-34.91559182,-7.27424149,0 -34.91567918,-7.27436142,0</coordinates></LineString></Placemark><Placemark><name>L_B_0011_META_03_01 — Meta 3 — COLETOR</name><styleUrl>#meta_03_coletor</styleUrl><description>Interseção exata da rede com o polígono original de auditoria para Meta 3 — fusão META_01 + META_03 (Bacia B).</description><ExtendedData><Data name="META_ID"><value>META_03</value></Data><Data name="META_ORIG"><value>META_01;META_03</value></Data><Data name="bacia"><value>B</value></Data><Data name="classe"><value>COLETOR</value></Data><Data name="id_link"><value>L_B_0011</value></Data><Data name="ID_LINK_ORIG"><value>L_B_0011</value></Data><Data name="ID_LINK_SEG"><value>L_B_0011_META_03_01</value></Data><Data name="node_in"><value>N_B_0015</value></Data><Data name="node_out"><value>N_B_0016</value></Data><Data name="comp_m"><value>667.5763510532576</value></Data><Data name="COMP_REC_M"><value>667.5763510531665</value></Data><Data name="PERC_LINK_REC"><value>99.99999999999999</value></Data><Data name="diam_m"><value>0.6</value></Data></ExtendedData><LineString><tessellate>1</tessellate><coordinates>-34.91308164,-7.26875767,0 -34.91351728,-7.26980595,0 -34.91379358,-7.27056069,0 -34.91401173,-7.27106928,0 -34.91413475,-7.27127241,0 -34.91449861,-7.27177050,0 -34.91495402,-7.27230865,0 -34.91540922,-7.27289439,0 -34.91588315,-7.27349868,0 -34.91618923,-7.27386390,0</coordinates></LineString></Placemark><Placemark><name>L_B_0012_META_03_01 — Meta 3 — COLETOR</name><styleUrl>#meta_03_coletor</styleUrl><description>Interseção exata da rede com o polígono original de auditoria para Meta 3 — fusão META_01 + META_03 (Bacia B).</description><ExtendedData><Data name="META_ID"><value>META_03</value></Data><Data name="META_ORIG"><value>META_01;META_03</value></Data><Data name="bacia"><value>B</value></Data><Data name="classe"><value>COLETOR</value></Data><Data name="id_link"><value>L_B_0012</value></Data><Data name="ID_LINK_ORIG"><value>L_B_0012</value></Data><Data name="ID_LINK_SEG"><value>L_B_0012_META_03_01</value></Data><Data name="node_in"><value>N_B_0017</value></Data><Data name="node_out"><value>N_B_0018</value></Data><Data name="comp_m"><value>595.4610067169639</value></Data><Data name="COMP_REC_M"><value>11.314414546942281</value></Data><Data name="PERC_LINK_REC"><value>1.9001100692259525</value></Data><Data name="diam_m"><value>0.6</value></Data></ExtendedData><LineString><tessellate>1</tessellate><coordinates>-34.91660615,-7.27331425,0 -34.91667889,-7.27338627,0</coordinates></LineString></Placemark><Placemark><name>L_B_0015_META_03_01 — Meta 3 — COLETOR</name><styleUrl>#meta_03_coletor</styleUrl><description>Interseção exata da rede com o polígono original de auditoria para Meta 3 — fusão META_01 + META_03 (Bacia B).</description><ExtendedData><Data name="META_ID"><value>META_03</value></Data><Data name="META_ORIG"><value>META_01;META_03</value></Data><Data name="bacia"><value>B</value></Data><Data name="classe"><value>COLETOR</value></Data><Data name="id_link"><value>L_B_0015</value></Data><Data name="ID_LINK_ORIG"><value>L_B_0015</value></Data><Data name="ID_LINK_SEG"><value>L_B_0015_META_03_01</value></Data><Data name="node_in"><value>N_B_0021</value></Data><Data name="node_out"><value>N_B_0022</value></Data><Data name="comp_m"><value>180.71075721045634</value></Data><Data name="COMP_REC_M"><value>14.864776336924677</value></Data><Data name="PERC_LINK_REC"><value>8.22572854343326</value></Data><Data name="diam_m"><value>0.6</value></Data></ExtendedData><LineString><tessellate>1</tessellate><coordinates>-34.91705654,-7.27285839,0 -34.91706140,-7.27286471,0 -34.91714306,-7.27296132,0</coordinates></LineString></Placemark><Placemark><name>L_B_0022_META_03_01 — Meta 3 — COLETOR</name><styleUrl>#meta_03_coletor</styleUrl><description>Interseção exata da rede com o polígono original de auditoria para Meta 3 — fusão META_01 + META_03 (Bacia B).</description><ExtendedData><Data name="META_ID"><value>META_03</value></Data><Data name="META_ORIG"><value>META_01;META_03</value></Data><Data name="bacia"><value>B</value></Data><Data name="classe"><value>COLETOR</value></Data><Data name="id_link"><value>L_B_0022</value></Data><Data name="ID_LINK_ORIG"><value>L_B_0022</value></Data><Data name="ID_LINK_SEG"><value>L_B_0022_META_03_01</value></Data><Data name="node_in"><value>N_B_0033</value></Data><Data name="node_out"><value>N_B_0034</value></Data><Data name="comp_m"><value>314.17755033790985</value></Data><Data name="COMP_REC_M"><value>2.732783297927045</value></Data><Data name="PERC_LINK_REC"><value>0.8698213144083438</value></Data><Data name="diam_m"><value>0.6</value></Data></ExtendedData><LineString><tessellate>1</tessellate><coordinates>-34.91685792,-7.27331721,0 -34.91687686,-7.27333310,0</coordinates></LineString></Placemark><Placemark><name>L_B_0024_META_03_01 — Meta 3 — COLETOR</name><styleUrl>#meta_03_coletor</styleUrl><description>Interseção exata da rede com o polígono original de auditoria para Meta 3 — fusão META_01 + META_03 (Bacia B).</description><ExtendedData><Data name="META_ID"><value>META_03</value></Data><Data name="META_ORIG"><value>META_01;META_03</value></Data><Data name="bacia"><value>B</value></Data><Data name="classe"><value>COLETOR</value></Data><Data name="id_link"><value>L_B_0024</value></Data><Data name="ID_LINK_ORIG"><value>L_B_0024</value></Data><Data name="ID_LINK_SEG"><value>L_B_0024_META_03_01</value></Data><Data name="node_in"><value>N_B_0037</value></Data><Data name="node_out"><value>N_B_0038</value></Data><Data name="comp_m"><value>267.20030922733145</value></Data><Data name="COMP_REC_M"><value>0.6193240653577474</value></Data><Data name="PERC_LINK_REC"><value>0.23178269035250648</value></Data><Data name="diam_m"><value>0.6</value></Data></ExtendedData><LineString><tessellate>1</tessellate><coordinates>-34.91546177,-7.27461194,0 -34.91546577,-7.27461587,0</coordinates></LineString></Placemark><Placemark><name>L_B_0029_META_03_01 — Meta 3 — TRONCO</name><styleUrl>#meta_03_tronco</styleUrl><description>Interseção exata da rede com o polígono original de auditoria para Meta 3 — fusão META_01 + META_03 (Bacia B).</description><ExtendedData><Data name="META_ID"><value>META_03</value></Data><Data name="META_ORIG"><value>META_01;META_03</value></Data><Data name="bacia"><value>B</value></Data><Data name="classe"><value>TRONCO</value></Data><Data name="id_link"><value>L_B_0029</value></Data><Data name="ID_LINK_ORIG"><value>L_B_0029</value></Data><Data name="ID_LINK_SEG"><value>L_B_0029_META_03_01</value></Data><Data name="node_in"><value>N_B_0008</value></Data><Data name="node_out"><value>N_B_0011</value></Data><Data name="comp_m"><value>602.8867525231589</value></Data><Data name="COMP_REC_M"><value>11.597888433071288</value></Data><Data name="PERC_LINK_REC"><value>1.9237258713241634</value></Data><Data name="diam_m"><value>0.8</value></Data></ExtendedData><LineString><tessellate>1</tessellate><coordinates>-34.91507473,-7.27486694,0 -34.91515565,-7.27480012,0</coordinates></LineString></Placemark><Placemark><name>L_B_0030_META_03_01 — Meta 3 — TRONCO</name><styleUrl>#meta_03_tronco</styleUrl><description>Interseção exata da rede com o polígono original de auditoria para Meta 3 — fusão META_01 + META_03 (Bacia B).</description><ExtendedData><Data name="META_ID"><value>META_03</value></Data><Data name="META_ORIG"><value>META_01;META_03</value></Data><Data name="bacia"><value>B</value></Data><Data name="classe"><value>TRONCO</value></Data><Data name="id_link"><value>L_B_0030</value></Data><Data name="ID_LINK_ORIG"><value>L_B_0030</value></Data><Data name="ID_LINK_SEG"><value>L_B_0030_META_03_01</value></Data><Data name="node_in"><value>N_B_0011</value></Data><Data name="node_out"><value>N_B_0014</value></Data><Data name="comp_m"><value>75.50547046859533</value></Data><Data name="COMP_REC_M"><value>75.50547046867256</value></Data><Data name="PERC_LINK_REC"><value>100.0</value></Data><Data name="diam_m"><value>0.8</value></Data></ExtendedData><LineString><tessellate>1</tessellate><coordinates>-34.91515565,-7.27480012,0 -34.91563648,-7.27440306,0 -34.91567918,-7.27436142,0</coordinates></LineString></Placemark><Placemark><name>L_B_0031_META_03_01 — Meta 3 — TRONCO</name><styleUrl>#meta_03_tronco</styleUrl><description>Interseção exata da rede com o polígono original de auditoria para Meta 3 — fusão META_01 + META_03 (Bacia B).</description><ExtendedData><Data name="META_ID"><value>META_03</value></Data><Data name="META_ORIG"><value>META_01;META_03</value></Data><Data name="bacia"><value>B</value></Data><Data name="classe"><value>TRONCO</value></Data><Data name="id_link"><value>L_B_0031</value></Data><Data name="ID_LINK_ORIG"><value>L_B_0031</value></Data><Data name="ID_LINK_SEG"><value>L_B_0031_META_03_01</value></Data><Data name="node_in"><value>N_B_0014</value></Data><Data name="node_out"><value>N_B_0016</value></Data><Data name="comp_m"><value>78.7508481336427</value></Data><Data name="COMP_REC_M"><value>78.75084813355909</value></Data><Data name="PERC_LINK_REC"><value>100.0</value></Data><Data name="diam_m"><value>0.8</value></Data></ExtendedData><LineString><tessellate>1</tessellate><coordinates>-34.91567918,-7.27436142,0 -34.91618923,-7.27386390,0</coordinates></LineString></Placemark><Placemark><name>L_B_0032_META_03_01 — Meta 3 — TRONCO</name><styleUrl>#meta_03_tronco</styleUrl><description>Interseção exata da rede com o polígono original de auditoria para Meta 3 — fusão META_01 + META_03 (Bacia B).</description><ExtendedData><Data name="META_ID"><value>META_03</value></Data><Data name="META_ORIG"><value>META_01;META_03</value></Data><Data name="bacia"><value>B</value></Data><Data name="classe"><value>TRONCO</value></Data><Data name="id_link"><value>L_B_0032</value></Data><Data name="ID_LINK_ORIG"><value>L_B_0032</value></Data><Data name="ID_LINK_SEG"><value>L_B_0032_META_03_01</value></Data><Data name="node_in"><value>N_B_0016</value></Data><Data name="node_out"><value>N_B_0018</value></Data><Data name="comp_m"><value>75.6033884503842</value></Data><Data name="COMP_REC_M"><value>75.60338845039391</value></Data><Data name="PERC_LINK_REC"><value>100.0</value></Data><Data name="diam_m"><value>0.8</value></Data></ExtendedData><LineString><tessellate>1</tessellate><coordinates>-34.91618923,-7.27386390,0 -34.91667889,-7.27338627,0 -34.91667889,-7.27338627,0</coordinates></LineString></Placemark><Placemark><name>L_B_0033_META_03_01 — Meta 3 — TRONCO</name><styleUrl>#meta_03_tronco</styleUrl><description>Interseção exata da rede com o polígono original de auditoria para Meta 3 — fusão META_01 + META_03 (Bacia B).</description><ExtendedData><Data name="META_ID"><value>META_03</value></Data><Data name="META_ORIG"><value>META_01;META_03</value></Data><Data name="bacia"><value>B</value></Data><Data name="classe"><value>TRONCO</value></Data><Data name="id_link"><value>L_B_0033</value></Data><Data name="ID_LINK_ORIG"><value>L_B_0033</value></Data><Data name="ID_LINK_SEG"><value>L_B_0033_META_03_01</value></Data><Data name="node_in"><value>N_B_0018</value></Data><Data name="node_out"><value>N_B_0022</value></Data><Data name="comp_m"><value>69.55238814410126</value></Data><Data name="COMP_REC_M"><value>69.55238814414433</value></Data><Data name="PERC_LINK_REC"><value>100.0</value></Data><Data name="diam_m"><value>0.8</value></Data></ExtendedData><LineString><tessellate>1</tessellate><coordinates>-34.91667889,-7.27338627,0 -34.91714306,-7.27296132,0</coordinates></LineString></Placemark><Placemark><name>L_B_0034_META_03_01 — Meta 3 — TRONCO</name><styleUrl>#meta_03_tronco</styleUrl><description>Interseção exata da rede com o polígono original de auditoria para Meta 3 — fusão META_01 + META_03 (Bacia B).</description><ExtendedData><Data name="META_ID"><value>META_03</value></Data><Data name="META_ORIG"><value>META_01;META_03</value></Data><Data name="bacia"><value>B</value></Data><Data name="classe"><value>TRONCO</value></Data><Data name="id_link"><value>L_B_0034</value></Data><Data name="ID_LINK_ORIG"><value>L_B_0034</value></Data><Data name="ID_LINK_SEG"><value>L_B_0034_META_03_01</value></Data><Data name="node_in"><value>N_B_0022</value></Data><Data name="node_out"><value>N_B_0042</value></Data><Data name="comp_m"><value>154.25500349808732</value></Data><Data name="COMP_REC_M"><value>154.25500349815042</value></Data><Data name="PERC_LINK_REC"><value>100.0</value></Data><Data name="diam_m"><value>0.8</value></Data></ExtendedData><LineString><tessellate>1</tessellate><coordinates>-34.91714306,-7.27296132,0 -34.91717495,-7.27293213,0 -34.91810562,-7.27195097,0</coordinates></LineString></Placemark><Placemark><name>L_B_0035_META_03_01 — Meta 3 — TRONCO</name><styleUrl>#meta_03_tronco</styleUrl><description>Interseção exata da rede com o polígono original de auditoria para Meta 3 — fusão META_01 + META_03 (Bacia B).</description><ExtendedData><Data name="META_ID"><value>META_03</value></Data><Data name="META_ORIG"><value>META_01;META_03</value></Data><Data name="bacia"><value>B</value></Data><Data name="classe"><value>TRONCO</value></Data><Data name="id_link"><value>L_B_0035</value></Data><Data name="ID_LINK_ORIG"><value>L_B_0035</value></Data><Data name="ID_LINK_SEG"><value>L_B_0035_META_03_01</value></Data><Data name="node_in"><value>N_B_0042</value></Data><Data name="node_out"><value>N_B_0043</value></Data><Data name="comp_m"><value>58.12980979554841</value></Data><Data name="COMP_REC_M"><value>58.12980979620907</value></Data><Data name="PERC_LINK_REC"><value>100.0</value></Data><Data name="diam_m"><value>0.8</value></Data></ExtendedData><LineString><tessellate>1</tessellate><coordinates>-34.91810562,-7.27195097,0 -34.91843343,-7.27227346,0 -34.91848076,-7.27222733,0</coordinates></LineString></Placemark><Placemark><name>L_B_0044_META_03_01 — Meta 3 — TRONCO</name><styleUrl>#meta_03_tronco</styleUrl><description>Interseção exata da rede com o polígono original de auditoria para Meta 3 — fusão META_01 + META_03 (Bacia B).</description><ExtendedData><Data name="META_ID"><value>META_03</value></Data><Data name="META_ORIG"><value>META_01;META_03</value></Data><Data name="bacia"><value>B</value></Data><Data name="classe"><value>TRONCO</value></Data><Data name="id_link"><value>L_B_0044</value></Data><Data name="ID_LINK_ORIG"><value>L_B_0044</value></Data><Data name="ID_LINK_SEG"><value>L_B_0044_META_03_01</value></Data><Data name="node_in"><value>N_B_0032</value></Data><Data name="node_out"><value>N_B_0042</value></Data><Data name="comp_m"><value>61.2034472538172</value></Data><Data name="COMP_REC_M"><value>4.639289530959367</value></Data><Data name="PERC_LINK_REC"><value>7.580111479172591</value></Data><Data name="diam_m"><value>0.8</value></Data></ExtendedData><LineString><tessellate>1</tessellate><coordinates>-34.91813433,-7.27192035,0 -34.91810562,-7.27195097,0</coordinates></LineString></Placemark><Placemark><name>D_B_01_META_03_01 — Meta 3 — DISSIPADOR</name><styleUrl>#dissipador</styleUrl><description>Interseção exata da rede com o polígono original de auditoria para Meta 3 — fusão META_01 + META_03 (Bacia B).</description><ExtendedData><Data name="META_ID"><value>META_03</value></Data><Data name="META_ORIG"><value>META_01;META_03</value></Data><Data name="bacia"><value>B</value></Data><Data name="classe"><value>DISSIPADOR</value></Data><Data name="id_link"><value>D_B_01</value></Data><Data name="ID_LINK_ORIG"><value>D_B_01</value></Data><Data name="ID_LINK_SEG"><value>D_B_01_META_03_01</value></Data><Data name="node_in"><value>N_B_0043</value></Data><Data name="node_out"><value>O_B_DISS_01</value></Data><Data name="comp_m"><value>47.43592009331458</value></Data><Data name="COMP_REC_M"><value>47.43592009231415</value></Data><Data name="PERC_LINK_REC"><value>99.99999999999999</value></Data><Data name="diam_m"><value>1.2</value></Data></ExtendedData><LineString><tessellate>1</tessellate><coordinates>-34.91880050,-7.27194099,0 -34.91848076,-7.27222733,0</coordinates></LineString></Placemark></Folder></Folder></Document></kml>