<?xml version="1.0" encoding="UTF-8"?>
<kml xmlns="http://www.opengis.net/kml/2.2"><Document><name>Meta 1 — antiga META_04 (Bacia A)</name><description>A Rede de Drenagem Concebida aparece em branco tracejado. Os trechos coloridos são exclusivamente as interseções lineares exatas com os polígonos originais de auditoria; os comprimentos dos segmentos recortados são registrados em COMP_REC_M.</description><Style id="rede_total"><LineStyle><color>ffe1d5cb</color><width>1.2</width></LineStyle></Style><Style id="bacia_a"><LineStyle><color>ff1654c3</color><width>2.5</width></LineStyle><PolyStyle><color>191654c3</color></PolyStyle></Style><Style id="bacia_b"><LineStyle><color>ff7b7f08</color><width>2.5</width></LineStyle><PolyStyle><color>197b7f08</color></PolyStyle></Style><Style id="dissipador"><LineStyle><color>ffaf1ca2</color><width>5</width></LineStyle></Style><Style id="originais"><LineStyle><color>ff475569</color><width>2</width></LineStyle><PolyStyle><color>10475569</color></PolyStyle></Style><Style id="apresentacao"><LineStyle><color>ff334155</color><width>2.5</width></LineStyle><PolyStyle><color>40334155</color></PolyStyle></Style><Style id="meta_01_tronco"><LineStyle><color>ff1654c3</color><width>4</width></LineStyle></Style><Style id="meta_01_coletor"><LineStyle><color>ff1654c3</color><width>2.5</width></LineStyle></Style><Style id="meta_02_tronco"><LineStyle><color>ff7b7f08</color><width>4</width></LineStyle></Style><Style id="meta_02_coletor"><LineStyle><color>ff7b7f08</color><width>2.5</width></LineStyle></Style><Style id="meta_03_tronco"><LineStyle><color>ffc1426f</color><width>4</width></LineStyle></Style><Style id="meta_03_coletor"><LineStyle><color>ffc1426f</color><width>2.5</width></LineStyle></Style><Folder><name>Trechos selecionados por meta</name><Folder><name>Meta 1 — antiga META_04 (Bacia A)</name><Placemark><name>L_A_0028_META_01_01 — Meta 1 — COLETOR</name><styleUrl>#meta_01_coletor</styleUrl><description>Interseção exata da rede com o polígono original de auditoria para Meta 1 — antiga META_04 (Bacia A).</description><ExtendedData><Data name="META_ID"><value>META_01</value></Data><Data name="META_ORIG"><value>META_04</value></Data><Data name="bacia"><value>A</value></Data><Data name="classe"><value>COLETOR</value></Data><Data name="id_link"><value>L_A_0028</value></Data><Data name="ID_LINK_ORIG"><value>L_A_0028</value></Data><Data name="ID_LINK_SEG"><value>L_A_0028_META_01_01</value></Data><Data name="node_in"><value>N_A_0044</value></Data><Data name="node_out"><value>N_A_0043</value></Data><Data name="comp_m"><value>411.23913105418467</value></Data><Data name="COMP_REC_M"><value>6.5777581985968405</value></Data><Data name="PERC_LINK_REC"><value>1.5994971543042078</value></Data><Data name="diam_m"><value>0.6</value></Data></ExtendedData><LineString><tessellate>1</tessellate><coordinates>-34.91424375,-7.26821500,0 -34.91422174,-7.26815974,0</coordinates></LineString></Placemark><Placemark><name>L_A_0079_META_01_01 — Meta 1 — COLETOR</name><styleUrl>#meta_01_coletor</styleUrl><description>Interseção exata da rede com o polígono original de auditoria para Meta 1 — antiga META_04 (Bacia A).</description><ExtendedData><Data name="META_ID"><value>META_01</value></Data><Data name="META_ORIG"><value>META_04</value></Data><Data name="bacia"><value>A</value></Data><Data name="classe"><value>COLETOR</value></Data><Data name="id_link"><value>L_A_0079</value></Data><Data name="ID_LINK_ORIG"><value>L_A_0079</value></Data><Data name="ID_LINK_SEG"><value>L_A_0079_META_01_01</value></Data><Data name="node_in"><value>N_A_0119</value></Data><Data name="node_out"><value>N_A_0120</value></Data><Data name="comp_m"><value>63.36249454541312</value></Data><Data name="COMP_REC_M"><value>11.120971390271993</value></Data><Data name="PERC_LINK_REC"><value>17.551347165295176</value></Data><Data name="diam_m"><value>0.6</value></Data></ExtendedData><LineString><tessellate>1</tessellate><coordinates>-34.92075839,-7.26780079,0 -34.92077253,-7.26790034,0</coordinates></LineString></Placemark><Placemark><name>L_A_0080_META_01_01 — Meta 1 — COLETOR</name><styleUrl>#meta_01_coletor</styleUrl><description>Interseção exata da rede com o polígono original de auditoria para Meta 1 — antiga META_04 (Bacia A).</description><ExtendedData><Data name="META_ID"><value>META_01</value></Data><Data name="META_ORIG"><value>META_04</value></Data><Data name="bacia"><value>A</value></Data><Data name="classe"><value>COLETOR</value></Data><Data name="id_link"><value>L_A_0080</value></Data><Data name="ID_LINK_ORIG"><value>L_A_0080</value></Data><Data name="ID_LINK_SEG"><value>L_A_0080_META_01_01</value></Data><Data name="node_in"><value>N_A_0120</value></Data><Data name="node_out"><value>N_A_0121</value></Data><Data name="comp_m"><value>2.193045120339944</value></Data><Data name="COMP_REC_M"><value>2.1930451202606105</value></Data><Data name="PERC_LINK_REC"><value>100.0</value></Data><Data name="diam_m"><value>0.6</value></Data></ExtendedData><LineString><tessellate>1</tessellate><coordinates>-34.92077253,-7.26790034,0 -34.92077532,-7.26791997,0</coordinates></LineString></Placemark><Placemark><name>L_A_0081_META_01_01 — Meta 1 — COLETOR</name><styleUrl>#meta_01_coletor</styleUrl><description>Interseção exata da rede com o polígono original de auditoria para Meta 1 — antiga META_04 (Bacia A).</description><ExtendedData><Data name="META_ID"><value>META_01</value></Data><Data name="META_ORIG"><value>META_04</value></Data><Data name="bacia"><value>A</value></Data><Data name="classe"><value>COLETOR</value></Data><Data name="id_link"><value>L_A_0081</value></Data><Data name="ID_LINK_ORIG"><value>L_A_0081</value></Data><Data name="ID_LINK_SEG"><value>L_A_0081_META_01_01</value></Data><Data name="node_in"><value>N_A_0122</value></Data><Data name="node_out"><value>N_A_0123</value></Data><Data name="comp_m"><value>147.5584743293287</value></Data><Data name="COMP_REC_M"><value>10.68690501419093</value></Data><Data name="PERC_LINK_REC"><value>7.242488147679965</value></Data><Data name="diam_m"><value>0.6</value></Data></ExtendedData><LineString><tessellate>1</tessellate><coordinates>-34.92012419,-7.26780679,0 -34.92014146,-7.26790186,0</coordinates></LineString></Placemark><Placemark><name>L_A_0082_META_01_01 — Meta 1 — COLETOR</name><styleUrl>#meta_01_coletor</styleUrl><description>Interseção exata da rede com o polígono original de auditoria para Meta 1 — antiga META_04 (Bacia A).</description><ExtendedData><Data name="META_ID"><value>META_01</value></Data><Data name="META_ORIG"><value>META_04</value></Data><Data name="bacia"><value>A</value></Data><Data name="classe"><value>COLETOR</value></Data><Data name="id_link"><value>L_A_0082</value></Data><Data name="ID_LINK_ORIG"><value>L_A_0082</value></Data><Data name="ID_LINK_SEG"><value>L_A_0082_META_01_01</value></Data><Data name="node_in"><value>N_A_0124</value></Data><Data name="node_out"><value>N_A_0125</value></Data><Data name="comp_m"><value>145.58230691205034</value></Data><Data name="COMP_REC_M"><value>6.0881244942761406</value></Data><Data name="PERC_LINK_REC"><value>4.181912365184921</value></Data><Data name="diam_m"><value>0.6</value></Data></ExtendedData><LineString><tessellate>1</tessellate><coordinates>-34.91945416,-7.26785031,0 -34.91946242,-7.26790473,0</coordinates></LineString></Placemark><Placemark><name>L_A_0083_META_01_01 — Meta 1 — COLETOR</name><styleUrl>#meta_01_coletor</styleUrl><description>Interseção exata da rede com o polígono original de auditoria para Meta 1 — antiga META_04 (Bacia A).</description><ExtendedData><Data name="META_ID"><value>META_01</value></Data><Data name="META_ORIG"><value>META_04</value></Data><Data name="bacia"><value>A</value></Data><Data name="classe"><value>COLETOR</value></Data><Data name="id_link"><value>L_A_0083</value></Data><Data name="ID_LINK_ORIG"><value>L_A_0083</value></Data><Data name="ID_LINK_SEG"><value>L_A_0083_META_01_01</value></Data><Data name="node_in"><value>N_A_0126</value></Data><Data name="node_out"><value>N_A_0127</value></Data><Data name="comp_m"><value>148.64194906498153</value></Data><Data name="COMP_REC_M"><value>8.349093691827743</value></Data><Data name="PERC_LINK_REC"><value>5.616916183048625</value></Data><Data name="diam_m"><value>0.6</value></Data></ExtendedData><LineString><tessellate>1</tessellate><coordinates>-34.91881707,-7.26789170,0 -34.91882951,-7.26796615,0</coordinates></LineString></Placemark><Placemark><name>L_A_0084_META_01_01 — Meta 1 — COLETOR</name><styleUrl>#meta_01_coletor</styleUrl><description>Interseção exata da rede com o polígono original de auditoria para Meta 1 — antiga META_04 (Bacia A).</description><ExtendedData><Data name="META_ID"><value>META_01</value></Data><Data name="META_ORIG"><value>META_04</value></Data><Data name="bacia"><value>A</value></Data><Data name="classe"><value>COLETOR</value></Data><Data name="id_link"><value>L_A_0084</value></Data><Data name="ID_LINK_ORIG"><value>L_A_0084</value></Data><Data name="ID_LINK_SEG"><value>L_A_0084_META_01_01</value></Data><Data name="node_in"><value>N_A_0128</value></Data><Data name="node_out"><value>N_A_0129</value></Data><Data name="comp_m"><value>150.7564072384951</value></Data><Data name="COMP_REC_M"><value>8.10529046928104</value></Data><Data name="PERC_LINK_REC"><value>5.376415250107636</value></Data><Data name="diam_m"><value>0.6</value></Data></ExtendedData><LineString><tessellate>1</tessellate><coordinates>-34.91815599,-7.26793467,0 -34.91816738,-7.26800706,0</coordinates></LineString></Placemark><Placemark><name>L_A_0085_META_01_01 — Meta 1 — COLETOR</name><styleUrl>#meta_01_coletor</styleUrl><description>Interseção exata da rede com o polígono original de auditoria para Meta 1 — antiga META_04 (Bacia A).</description><ExtendedData><Data name="META_ID"><value>META_01</value></Data><Data name="META_ORIG"><value>META_04</value></Data><Data name="bacia"><value>A</value></Data><Data name="classe"><value>COLETOR</value></Data><Data name="id_link"><value>L_A_0085</value></Data><Data name="ID_LINK_ORIG"><value>L_A_0085</value></Data><Data name="ID_LINK_SEG"><value>L_A_0085_META_01_01</value></Data><Data name="node_in"><value>N_A_0130</value></Data><Data name="node_out"><value>N_A_0131</value></Data><Data name="comp_m"><value>146.70019034838558</value></Data><Data name="COMP_REC_M"><value>5.717890557959715</value></Data><Data name="PERC_LINK_REC"><value>3.8976708512686353</value></Data><Data name="diam_m"><value>0.6</value></Data></ExtendedData><LineString><tessellate>1</tessellate><coordinates>-34.91754853,-7.26797271,0 -34.91755737,-7.26802365,0</coordinates></LineString></Placemark><Placemark><name>L_A_0086_META_01_01 — Meta 1 — COLETOR</name><styleUrl>#meta_01_coletor</styleUrl><description>Interseção exata da rede com o polígono original de auditoria para Meta 1 — antiga META_04 (Bacia A).</description><ExtendedData><Data name="META_ID"><value>META_01</value></Data><Data name="META_ORIG"><value>META_04</value></Data><Data name="bacia"><value>A</value></Data><Data name="classe"><value>COLETOR</value></Data><Data name="id_link"><value>L_A_0086</value></Data><Data name="ID_LINK_ORIG"><value>L_A_0086</value></Data><Data name="ID_LINK_SEG"><value>L_A_0086_META_01_01</value></Data><Data name="node_in"><value>N_A_0132</value></Data><Data name="node_out"><value>N_A_0131</value></Data><Data name="comp_m"><value>2.777885010378409</value></Data><Data name="COMP_REC_M"><value>2.7778850103881085</value></Data><Data name="PERC_LINK_REC"><value>100.0</value></Data><Data name="diam_m"><value>0.6</value></Data></ExtendedData><LineString><tessellate>1</tessellate><coordinates>-34.91756166,-7.26804839,0 -34.91755737,-7.26802365,0</coordinates></LineString></Placemark><Placemark><name>L_A_0087_META_01_01 — Meta 1 — COLETOR</name><styleUrl>#meta_01_coletor</styleUrl><description>Interseção exata da rede com o polígono original de auditoria para Meta 1 — antiga META_04 (Bacia A).</description><ExtendedData><Data name="META_ID"><value>META_01</value></Data><Data name="META_ORIG"><value>META_04</value></Data><Data name="bacia"><value>A</value></Data><Data name="classe"><value>COLETOR</value></Data><Data name="id_link"><value>L_A_0087</value></Data><Data name="ID_LINK_ORIG"><value>L_A_0087</value></Data><Data name="ID_LINK_SEG"><value>L_A_0087_META_01_01</value></Data><Data name="node_in"><value>N_A_0133</value></Data><Data name="node_out"><value>N_A_0134</value></Data><Data name="comp_m"><value>144.47449399160928</value></Data><Data name="COMP_REC_M"><value>4.6746145450285255</value></Data><Data name="PERC_LINK_REC"><value>3.235598489309761</value></Data><Data name="diam_m"><value>0.6</value></Data></ExtendedData><LineString><tessellate>1</tessellate><coordinates>-34.91686923,-7.26800963,0 -34.91687553,-7.26805142,0</coordinates></LineString></Placemark><Placemark><name>L_A_0088_META_01_01 — Meta 1 — COLETOR</name><styleUrl>#meta_01_coletor</styleUrl><description>Interseção exata da rede com o polígono original de auditoria para Meta 1 — antiga META_04 (Bacia A).</description><ExtendedData><Data name="META_ID"><value>META_01</value></Data><Data name="META_ORIG"><value>META_04</value></Data><Data name="bacia"><value>A</value></Data><Data name="classe"><value>COLETOR</value></Data><Data name="id_link"><value>L_A_0088</value></Data><Data name="ID_LINK_ORIG"><value>L_A_0088</value></Data><Data name="ID_LINK_SEG"><value>L_A_0088_META_01_01</value></Data><Data name="node_in"><value>N_A_0134</value></Data><Data name="node_out"><value>N_A_0135</value></Data><Data name="comp_m"><value>3.045974712913609</value></Data><Data name="COMP_REC_M"><value>3.045974713011233</value></Data><Data name="PERC_LINK_REC"><value>100.0</value></Data><Data name="diam_m"><value>0.6</value></Data></ExtendedData><LineString><tessellate>1</tessellate><coordinates>-34.91687553,-7.26805142,0 -34.91688142,-7.26807833,0</coordinates></LineString></Placemark><Placemark><name>L_A_0089_META_01_01 — Meta 1 — COLETOR</name><styleUrl>#meta_01_coletor</styleUrl><description>Interseção exata da rede com o polígono original de auditoria para Meta 1 — antiga META_04 (Bacia A).</description><ExtendedData><Data name="META_ID"><value>META_01</value></Data><Data name="META_ORIG"><value>META_04</value></Data><Data name="bacia"><value>A</value></Data><Data name="classe"><value>COLETOR</value></Data><Data name="id_link"><value>L_A_0089</value></Data><Data name="ID_LINK_ORIG"><value>L_A_0089</value></Data><Data name="ID_LINK_SEG"><value>L_A_0089_META_01_01</value></Data><Data name="node_in"><value>N_A_0136</value></Data><Data name="node_out"><value>N_A_0135</value></Data><Data name="comp_m"><value>5.243267147463402</value></Data><Data name="COMP_REC_M"><value>5.243267147420361</value></Data><Data name="PERC_LINK_REC"><value>100.0</value></Data><Data name="diam_m"><value>0.6</value></Data></ExtendedData><LineString><tessellate>1</tessellate><coordinates>-34.91689040,-7.26812487,0 -34.91688142,-7.26807833,0</coordinates></LineString></Placemark><Placemark><name>L_A_0090_META_01_01 — Meta 1 — COLETOR</name><styleUrl>#meta_01_coletor</styleUrl><description>Interseção exata da rede com o polígono original de auditoria para Meta 1 — antiga META_04 (Bacia A).</description><ExtendedData><Data name="META_ID"><value>META_01</value></Data><Data name="META_ORIG"><value>META_04</value></Data><Data name="bacia"><value>A</value></Data><Data name="classe"><value>COLETOR</value></Data><Data name="id_link"><value>L_A_0090</value></Data><Data name="ID_LINK_ORIG"><value>L_A_0090</value></Data><Data name="ID_LINK_SEG"><value>L_A_0090_META_01_01</value></Data><Data name="node_in"><value>N_A_0137</value></Data><Data name="node_out"><value>N_A_0138</value></Data><Data name="comp_m"><value>153.42034742871758</value></Data><Data name="COMP_REC_M"><value>8.721773647240692</value></Data><Data name="PERC_LINK_REC"><value>5.684887170067403</value></Data><Data name="diam_m"><value>0.6</value></Data></ExtendedData><LineString><tessellate>1</tessellate><coordinates>-34.91623485,-7.26805245,0 -34.91624608,-7.26813050,0</coordinates></LineString></Placemark><Placemark><name>L_A_0091_META_01_01 — Meta 1 — COLETOR</name><styleUrl>#meta_01_coletor</styleUrl><description>Interseção exata da rede com o polígono original de auditoria para Meta 1 — antiga META_04 (Bacia A).</description><ExtendedData><Data name="META_ID"><value>META_01</value></Data><Data name="META_ORIG"><value>META_04</value></Data><Data name="bacia"><value>A</value></Data><Data name="classe"><value>COLETOR</value></Data><Data name="id_link"><value>L_A_0091</value></Data><Data name="ID_LINK_ORIG"><value>L_A_0091</value></Data><Data name="ID_LINK_SEG"><value>L_A_0091_META_01_01</value></Data><Data name="node_in"><value>N_A_0138</value></Data><Data name="node_out"><value>N_A_0139</value></Data><Data name="comp_m"><value>2.469575675747997</value></Data><Data name="COMP_REC_M"><value>2.469575675788164</value></Data><Data name="PERC_LINK_REC"><value>100.0</value></Data><Data name="diam_m"><value>0.6</value></Data></ExtendedData><LineString><tessellate>1</tessellate><coordinates>-34.91624608,-7.26813050,0 -34.91624926,-7.26815260,0</coordinates></LineString></Placemark><Placemark><name>L_A_0092_META_01_01 — Meta 1 — COLETOR</name><styleUrl>#meta_01_coletor</styleUrl><description>Interseção exata da rede com o polígono original de auditoria para Meta 1 — antiga META_04 (Bacia A).</description><ExtendedData><Data name="META_ID"><value>META_01</value></Data><Data name="META_ORIG"><value>META_04</value></Data><Data name="bacia"><value>A</value></Data><Data name="classe"><value>COLETOR</value></Data><Data name="id_link"><value>L_A_0092</value></Data><Data name="ID_LINK_ORIG"><value>L_A_0092</value></Data><Data name="ID_LINK_SEG"><value>L_A_0092_META_01_01</value></Data><Data name="node_in"><value>N_A_0141</value></Data><Data name="node_out"><value>N_A_0140</value></Data><Data name="comp_m"><value>156.9965646652757</value></Data><Data name="COMP_REC_M"><value>7.62282395163985</value></Data><Data name="PERC_LINK_REC"><value>4.855408121760254</value></Data><Data name="diam_m"><value>0.6</value></Data></ExtendedData><LineString><tessellate>1</tessellate><coordinates>-34.91560179,-7.26817598,0 -34.91559118,-7.26810788,0</coordinates></LineString></Placemark><Placemark><name>L_A_0093_META_01_01 — Meta 1 — COLETOR</name><styleUrl>#meta_01_coletor</styleUrl><description>Interseção exata da rede com o polígono original de auditoria para Meta 1 — antiga META_04 (Bacia A).</description><ExtendedData><Data name="META_ID"><value>META_01</value></Data><Data name="META_ORIG"><value>META_04</value></Data><Data name="bacia"><value>A</value></Data><Data name="classe"><value>COLETOR</value></Data><Data name="id_link"><value>L_A_0093</value></Data><Data name="ID_LINK_ORIG"><value>L_A_0093</value></Data><Data name="ID_LINK_SEG"><value>L_A_0093_META_01_01</value></Data><Data name="node_in"><value>N_A_0143</value></Data><Data name="node_out"><value>N_A_0142</value></Data><Data name="comp_m"><value>157.46900508565847</value></Data><Data name="COMP_REC_M"><value>6.680372244643132</value></Data><Data name="PERC_LINK_REC"><value>4.242341050551</value></Data><Data name="diam_m"><value>0.6</value></Data></ExtendedData><LineString><tessellate>1</tessellate><coordinates>-34.91493712,-7.26819928,0 -34.91492725,-7.26813970,0</coordinates></LineString></Placemark><Placemark><name>L_A_0098_META_01_01 — Meta 1 — COLETOR</name><styleUrl>#meta_01_coletor</styleUrl><description>Interseção exata da rede com o polígono original de auditoria para Meta 1 — antiga META_04 (Bacia A).</description><ExtendedData><Data name="META_ID"><value>META_01</value></Data><Data name="META_ORIG"><value>META_04</value></Data><Data name="bacia"><value>A</value></Data><Data name="classe"><value>COLETOR</value></Data><Data name="id_link"><value>L_A_0098</value></Data><Data name="ID_LINK_ORIG"><value>L_A_0098</value></Data><Data name="ID_LINK_SEG"><value>L_A_0098_META_01_01</value></Data><Data name="node_in"><value>N_A_0150</value></Data><Data name="node_out"><value>N_A_0151</value></Data><Data name="comp_m"><value>90.05292304968324</value></Data><Data name="COMP_REC_M"><value>7.062425928159346</value></Data><Data name="PERC_LINK_REC"><value>7.8425282478205816</value></Data><Data name="diam_m"><value>0.6</value></Data></ExtendedData><LineString><tessellate>1</tessellate><coordinates>-34.92198160,-7.26795795,0 -34.92197861,-7.26789417,0</coordinates></LineString></Placemark><Placemark><name>L_A_0101_META_01_01 — Meta 1 — COLETOR</name><styleUrl>#meta_01_coletor</styleUrl><description>Interseção exata da rede com o polígono original de auditoria para Meta 1 — antiga META_04 (Bacia A).</description><ExtendedData><Data name="META_ID"><value>META_01</value></Data><Data name="META_ORIG"><value>META_04</value></Data><Data name="bacia"><value>A</value></Data><Data name="classe"><value>COLETOR</value></Data><Data name="id_link"><value>L_A_0101</value></Data><Data name="ID_LINK_ORIG"><value>L_A_0101</value></Data><Data name="ID_LINK_SEG"><value>L_A_0101_META_01_01</value></Data><Data name="node_in"><value>N_A_0121</value></Data><Data name="node_out"><value>N_A_0154</value></Data><Data name="comp_m"><value>254.24079878134899</value></Data><Data name="COMP_REC_M"><value>7.044136453707596</value></Data><Data name="PERC_LINK_REC"><value>2.7706554130850582</value></Data><Data name="diam_m"><value>0.6</value></Data></ExtendedData><LineString><tessellate>1</tessellate><coordinates>-34.92077532,-7.26791997,0 -34.92078846,-7.26798229,0</coordinates></LineString></Placemark><Placemark><name>L_A_0102_META_01_01 — Meta 1 — COLETOR</name><styleUrl>#meta_01_coletor</styleUrl><description>Interseção exata da rede com o polígono original de auditoria para Meta 1 — antiga META_04 (Bacia A).</description><ExtendedData><Data name="META_ID"><value>META_01</value></Data><Data name="META_ORIG"><value>META_04</value></Data><Data name="bacia"><value>A</value></Data><Data name="classe"><value>COLETOR</value></Data><Data name="id_link"><value>L_A_0102</value></Data><Data name="ID_LINK_ORIG"><value>L_A_0102</value></Data><Data name="ID_LINK_SEG"><value>L_A_0102_META_01_01</value></Data><Data name="node_in"><value>N_A_0123</value></Data><Data name="node_out"><value>N_A_0155</value></Data><Data name="comp_m"><value>314.0993922752514</value></Data><Data name="COMP_REC_M"><value>10.516817978610252</value></Data><Data name="PERC_LINK_REC"><value>3.348245248878833</value></Data><Data name="diam_m"><value>0.6</value></Data></ExtendedData><LineString><tessellate>1</tessellate><coordinates>-34.92014146,-7.26790186,0 -34.92016010,-7.26799510,0</coordinates></LineString></Placemark><Placemark><name>L_A_0104_META_01_01 — Meta 1 — COLETOR</name><styleUrl>#meta_01_coletor</styleUrl><description>Interseção exata da rede com o polígono original de auditoria para Meta 1 — antiga META_04 (Bacia A).</description><ExtendedData><Data name="META_ID"><value>META_01</value></Data><Data name="META_ORIG"><value>META_04</value></Data><Data name="bacia"><value>A</value></Data><Data name="classe"><value>COLETOR</value></Data><Data name="id_link"><value>L_A_0104</value></Data><Data name="ID_LINK_ORIG"><value>L_A_0104</value></Data><Data name="ID_LINK_SEG"><value>L_A_0104_META_01_01</value></Data><Data name="node_in"><value>N_A_0158</value></Data><Data name="node_out"><value>N_A_0159</value></Data><Data name="comp_m"><value>234.9823844271132</value></Data><Data name="COMP_REC_M"><value>9.727693905212478</value></Data><Data name="PERC_LINK_REC"><value>4.139754530508284</value></Data><Data name="diam_m"><value>0.6</value></Data></ExtendedData><LineString><tessellate>1</tessellate><coordinates>-34.91948492,-7.26801181,0 -34.91946683,-7.26792573,0</coordinates></LineString></Placemark><Placemark><name>L_A_0105_META_01_01 — Meta 1 — COLETOR</name><styleUrl>#meta_01_coletor</styleUrl><description>Interseção exata da rede com o polígono original de auditoria para Meta 1 — antiga META_04 (Bacia A).</description><ExtendedData><Data name="META_ID"><value>META_01</value></Data><Data name="META_ORIG"><value>META_04</value></Data><Data name="bacia"><value>A</value></Data><Data name="classe"><value>COLETOR</value></Data><Data name="id_link"><value>L_A_0105</value></Data><Data name="ID_LINK_ORIG"><value>L_A_0105</value></Data><Data name="ID_LINK_SEG"><value>L_A_0105_META_01_01</value></Data><Data name="node_in"><value>N_A_0159</value></Data><Data name="node_out"><value>N_A_0125</value></Data><Data name="comp_m"><value>2.3734004666464643</value></Data><Data name="COMP_REC_M"><value>2.373400466587896</value></Data><Data name="PERC_LINK_REC"><value>100.0</value></Data><Data name="diam_m"><value>0.6</value></Data></ExtendedData><LineString><tessellate>1</tessellate><coordinates>-34.91946683,-7.26792573,0 -34.91946242,-7.26790473,0</coordinates></LineString></Placemark><Placemark><name>L_A_0107_META_01_01 — Meta 1 — COLETOR</name><styleUrl>#meta_01_coletor</styleUrl><description>Interseção exata da rede com o polígono original de auditoria para Meta 1 — antiga META_04 (Bacia A).</description><ExtendedData><Data name="META_ID"><value>META_01</value></Data><Data name="META_ORIG"><value>META_04</value></Data><Data name="bacia"><value>A</value></Data><Data name="classe"><value>COLETOR</value></Data><Data name="id_link"><value>L_A_0107</value></Data><Data name="ID_LINK_ORIG"><value>L_A_0107</value></Data><Data name="ID_LINK_SEG"><value>L_A_0107_META_01_01</value></Data><Data name="node_in"><value>N_A_0161</value></Data><Data name="node_out"><value>N_A_0127</value></Data><Data name="comp_m"><value>265.39056756100257</value></Data><Data name="COMP_REC_M"><value>9.690014758755382</value></Data><Data name="PERC_LINK_REC"><value>3.6512280175628993</value></Data><Data name="diam_m"><value>0.6</value></Data></ExtendedData><LineString><tessellate>1</tessellate><coordinates>-34.91884555,-7.26805228,0 -34.91882951,-7.26796615,0</coordinates></LineString></Placemark><Placemark><name>L_A_0108_META_01_01 — Meta 1 — COLETOR</name><styleUrl>#meta_01_coletor</styleUrl><description>Interseção exata da rede com o polígono original de auditoria para Meta 1 — antiga META_04 (Bacia A).</description><ExtendedData><Data name="META_ID"><value>META_01</value></Data><Data name="META_ORIG"><value>META_04</value></Data><Data name="bacia"><value>A</value></Data><Data name="classe"><value>COLETOR</value></Data><Data name="id_link"><value>L_A_0108</value></Data><Data name="ID_LINK_ORIG"><value>L_A_0108</value></Data><Data name="ID_LINK_SEG"><value>L_A_0108_META_01_01</value></Data><Data name="node_in"><value>N_A_0129</value></Data><Data name="node_out"><value>N_A_0162</value></Data><Data name="comp_m"><value>312.2287572375513</value></Data><Data name="COMP_REC_M"><value>9.810138391128422</value></Data><Data name="PERC_LINK_REC"><value>3.141971443605679</value></Data><Data name="diam_m"><value>0.6</value></Data></ExtendedData><LineString><tessellate>1</tessellate><coordinates>-34.91816738,-7.26800706,0 -34.91818426,-7.26809414,0</coordinates></LineString></Placemark><Placemark><name>L_A_0109_META_01_01 — Meta 1 — COLETOR</name><styleUrl>#meta_01_coletor</styleUrl><description>Interseção exata da rede com o polígono original de auditoria para Meta 1 — antiga META_04 (Bacia A).</description><ExtendedData><Data name="META_ID"><value>META_01</value></Data><Data name="META_ORIG"><value>META_04</value></Data><Data name="bacia"><value>A</value></Data><Data name="classe"><value>COLETOR</value></Data><Data name="id_link"><value>L_A_0109</value></Data><Data name="ID_LINK_ORIG"><value>L_A_0109</value></Data><Data name="ID_LINK_SEG"><value>L_A_0109_META_01_01</value></Data><Data name="node_in"><value>N_A_0163</value></Data><Data name="node_out"><value>N_A_0132</value></Data><Data name="comp_m"><value>246.0492986614718</value></Data><Data name="COMP_REC_M"><value>9.458142123162432</value></Data><Data name="PERC_LINK_REC"><value>3.844002878534189</value></Data><Data name="diam_m"><value>0.6</value></Data></ExtendedData><LineString><tessellate>1</tessellate><coordinates>-34.91757651,-7.26813261,0 -34.91756166,-7.26804839,0</coordinates></LineString></Placemark><Placemark><name>L_A_0110_META_01_01 — Meta 1 — COLETOR</name><styleUrl>#meta_01_coletor</styleUrl><description>Interseção exata da rede com o polígono original de auditoria para Meta 1 — antiga META_04 (Bacia A).</description><ExtendedData><Data name="META_ID"><value>META_01</value></Data><Data name="META_ORIG"><value>META_04</value></Data><Data name="bacia"><value>A</value></Data><Data name="classe"><value>COLETOR</value></Data><Data name="id_link"><value>L_A_0110</value></Data><Data name="ID_LINK_ORIG"><value>L_A_0110</value></Data><Data name="ID_LINK_SEG"><value>L_A_0110_META_01_01</value></Data><Data name="node_in"><value>N_A_0164</value></Data><Data name="node_out"><value>N_A_0136</value></Data><Data name="comp_m"><value>234.553429829649</value></Data><Data name="COMP_REC_M"><value>5.6717448827456485</value></Data><Data name="PERC_LINK_REC"><value>2.4181035795836325</value></Data><Data name="diam_m"><value>0.6</value></Data></ExtendedData><LineString><tessellate>1</tessellate><coordinates>-34.91689838,-7.26817553,0 -34.91689040,-7.26812487,0</coordinates></LineString></Placemark><Placemark><name>L_A_0111_META_01_01 — Meta 1 — COLETOR</name><styleUrl>#meta_01_coletor</styleUrl><description>Interseção exata da rede com o polígono original de auditoria para Meta 1 — antiga META_04 (Bacia A).</description><ExtendedData><Data name="META_ID"><value>META_01</value></Data><Data name="META_ORIG"><value>META_04</value></Data><Data name="bacia"><value>A</value></Data><Data name="classe"><value>COLETOR</value></Data><Data name="id_link"><value>L_A_0111</value></Data><Data name="ID_LINK_ORIG"><value>L_A_0111</value></Data><Data name="ID_LINK_SEG"><value>L_A_0111_META_01_01</value></Data><Data name="node_in"><value>N_A_0136</value></Data><Data name="node_out"><value>N_A_0135</value></Data><Data name="comp_m"><value>5.243267147463402</value></Data><Data name="COMP_REC_M"><value>5.243267147420361</value></Data><Data name="PERC_LINK_REC"><value>100.0</value></Data><Data name="diam_m"><value>0.6</value></Data></ExtendedData><LineString><tessellate>1</tessellate><coordinates>-34.91689040,-7.26812487,0 -34.91688142,-7.26807833,0</coordinates></LineString></Placemark><Placemark><name>L_A_0112_META_01_01 — Meta 1 — COLETOR</name><styleUrl>#meta_01_coletor</styleUrl><description>Interseção exata da rede com o polígono original de auditoria para Meta 1 — antiga META_04 (Bacia A).</description><ExtendedData><Data name="META_ID"><value>META_01</value></Data><Data name="META_ORIG"><value>META_04</value></Data><Data name="bacia"><value>A</value></Data><Data name="classe"><value>COLETOR</value></Data><Data name="id_link"><value>L_A_0112</value></Data><Data name="ID_LINK_ORIG"><value>L_A_0112</value></Data><Data name="ID_LINK_SEG"><value>L_A_0112_META_01_01</value></Data><Data name="node_in"><value>N_A_0134</value></Data><Data name="node_out"><value>N_A_0135</value></Data><Data name="comp_m"><value>3.045974712913609</value></Data><Data name="COMP_REC_M"><value>3.045974713011233</value></Data><Data name="PERC_LINK_REC"><value>100.0</value></Data><Data name="diam_m"><value>0.6</value></Data></ExtendedData><LineString><tessellate>1</tessellate><coordinates>-34.91687553,-7.26805142,0 -34.91688142,-7.26807833,0</coordinates></LineString></Placemark><Placemark><name>L_A_0114_META_01_01 — Meta 1 — COLETOR</name><styleUrl>#meta_01_coletor</styleUrl><description>Interseção exata da rede com o polígono original de auditoria para Meta 1 — antiga META_04 (Bacia A).</description><ExtendedData><Data name="META_ID"><value>META_01</value></Data><Data name="META_ORIG"><value>META_04</value></Data><Data name="bacia"><value>A</value></Data><Data name="classe"><value>COLETOR</value></Data><Data name="id_link"><value>L_A_0114</value></Data><Data name="ID_LINK_ORIG"><value>L_A_0114</value></Data><Data name="ID_LINK_SEG"><value>L_A_0114_META_01_01</value></Data><Data name="node_in"><value>N_A_0167</value></Data><Data name="node_out"><value>N_A_0139</value></Data><Data name="comp_m"><value>158.34448518582582</value></Data><Data name="COMP_REC_M"><value>7.094817694523201</value></Data><Data name="PERC_LINK_REC"><value>4.4806219087434895</value></Data><Data name="diam_m"><value>0.6</value></Data></ExtendedData><LineString><tessellate>1</tessellate><coordinates>-34.91625907,-7.26821599,0 -34.91624926,-7.26815260,0</coordinates></LineString></Placemark><Placemark><name>L_A_0116_META_01_01 — Meta 1 — COLETOR</name><styleUrl>#meta_01_coletor</styleUrl><description>Interseção exata da rede com o polígono original de auditoria para Meta 1 — antiga META_04 (Bacia A).</description><ExtendedData><Data name="META_ID"><value>META_01</value></Data><Data name="META_ORIG"><value>META_04</value></Data><Data name="bacia"><value>A</value></Data><Data name="classe"><value>COLETOR</value></Data><Data name="id_link"><value>L_A_0116</value></Data><Data name="ID_LINK_ORIG"><value>L_A_0116</value></Data><Data name="ID_LINK_SEG"><value>L_A_0116_META_01_01</value></Data><Data name="node_in"><value>N_A_0170</value></Data><Data name="node_out"><value>N_A_0141</value></Data><Data name="comp_m"><value>85.49724167623945</value></Data><Data name="COMP_REC_M"><value>8.757495590207713</value></Data><Data name="PERC_LINK_REC"><value>10.243015351737943</value></Data><Data name="diam_m"><value>0.6</value></Data></ExtendedData><LineString><tessellate>1</tessellate><coordinates>-34.91561532,-7.26825399,0 -34.91560179,-7.26817598,0</coordinates></LineString></Placemark><Placemark><name>L_A_0117_META_01_01 — Meta 1 — COLETOR</name><styleUrl>#meta_01_coletor</styleUrl><description>Interseção exata da rede com o polígono original de auditoria para Meta 1 — antiga META_04 (Bacia A).</description><ExtendedData><Data name="META_ID"><value>META_01</value></Data><Data name="META_ORIG"><value>META_04</value></Data><Data name="bacia"><value>A</value></Data><Data name="classe"><value>COLETOR</value></Data><Data name="id_link"><value>L_A_0117</value></Data><Data name="ID_LINK_ORIG"><value>L_A_0117</value></Data><Data name="ID_LINK_SEG"><value>L_A_0117_META_01_01</value></Data><Data name="node_in"><value>N_A_0171</value></Data><Data name="node_out"><value>N_A_0143</value></Data><Data name="comp_m"><value>83.06588504059255</value></Data><Data name="COMP_REC_M"><value>9.656880224279995</value></Data><Data name="PERC_LINK_REC"><value>11.625567126102599</value></Data><Data name="diam_m"><value>0.6</value></Data></ExtendedData><LineString><tessellate>1</tessellate><coordinates>-34.91495121,-7.26828545,0 -34.91493712,-7.26819928,0</coordinates></LineString></Placemark><Placemark><name>L_A_0119_META_01_01 — Meta 1 — COLETOR</name><styleUrl>#meta_01_coletor</styleUrl><description>Interseção exata da rede com o polígono original de auditoria para Meta 1 — antiga META_04 (Bacia A).</description><ExtendedData><Data name="META_ID"><value>META_01</value></Data><Data name="META_ORIG"><value>META_04</value></Data><Data name="bacia"><value>A</value></Data><Data name="classe"><value>COLETOR</value></Data><Data name="id_link"><value>L_A_0119</value></Data><Data name="ID_LINK_ORIG"><value>L_A_0119</value></Data><Data name="ID_LINK_SEG"><value>L_A_0119_META_01_01</value></Data><Data name="node_in"><value>N_A_0044</value></Data><Data name="node_out"><value>N_A_0174</value></Data><Data name="comp_m"><value>46.324798006313344</value></Data><Data name="COMP_REC_M"><value>9.262289305216646</value></Data><Data name="PERC_LINK_REC"><value>19.994235709190505</value></Data><Data name="diam_m"><value>0.6</value></Data></ExtendedData><LineString><tessellate>1</tessellate><coordinates>-34.91424375,-7.26821500,0 -34.91428437,-7.26828826,0</coordinates></LineString></Placemark><Placemark><name>L_A_0146_META_01_01 — Meta 1 — TRONCO</name><styleUrl>#meta_01_tronco</styleUrl><description>Interseção exata da rede com o polígono original de auditoria para Meta 1 — antiga META_04 (Bacia A).</description><ExtendedData><Data name="META_ID"><value>META_01</value></Data><Data name="META_ORIG"><value>META_04</value></Data><Data name="bacia"><value>A</value></Data><Data name="classe"><value>TRONCO</value></Data><Data name="id_link"><value>L_A_0146</value></Data><Data name="ID_LINK_ORIG"><value>L_A_0146</value></Data><Data name="ID_LINK_SEG"><value>L_A_0146_META_01_01</value></Data><Data name="node_in"><value>N_A_0028</value></Data><Data name="node_out"><value>N_A_0044</value></Data><Data name="comp_m"><value>70.0026595952465</value></Data><Data name="COMP_REC_M"><value>8.291134408052022</value></Data><Data name="PERC_LINK_REC"><value>11.844027721164121</value></Data><Data name="diam_m"><value>0.8</value></Data></ExtendedData><LineString><tessellate>1</tessellate><coordinates>-34.91417331,-7.26824093,0 -34.91424375,-7.26821500,0</coordinates></LineString></Placemark><Placemark><name>L_A_0147_META_01_01 — Meta 1 — TRONCO</name><styleUrl>#meta_01_tronco</styleUrl><description>Interseção exata da rede com o polígono original de auditoria para Meta 1 — antiga META_04 (Bacia A).</description><ExtendedData><Data name="META_ID"><value>META_01</value></Data><Data name="META_ORIG"><value>META_04</value></Data><Data name="bacia"><value>A</value></Data><Data name="classe"><value>TRONCO</value></Data><Data name="id_link"><value>L_A_0147</value></Data><Data name="ID_LINK_ORIG"><value>L_A_0147</value></Data><Data name="ID_LINK_SEG"><value>L_A_0147_META_01_01</value></Data><Data name="node_in"><value>N_A_0044</value></Data><Data name="node_out"><value>N_A_0143</value></Data><Data name="comp_m"><value>76.60167547331872</value></Data><Data name="COMP_REC_M"><value>76.6016754734933</value></Data><Data name="PERC_LINK_REC"><value>100.0</value></Data><Data name="diam_m"><value>0.8</value></Data></ExtendedData><LineString><tessellate>1</tessellate><coordinates>-34.91424375,-7.26821500,0 -34.91493712,-7.26819928,0</coordinates></LineString></Placemark><Placemark><name>L_A_0148_META_01_01 — Meta 1 — TRONCO</name><styleUrl>#meta_01_tronco</styleUrl><description>Interseção exata da rede com o polígono original de auditoria para Meta 1 — antiga META_04 (Bacia A).</description><ExtendedData><Data name="META_ID"><value>META_01</value></Data><Data name="META_ORIG"><value>META_04</value></Data><Data name="bacia"><value>A</value></Data><Data name="classe"><value>TRONCO</value></Data><Data name="id_link"><value>L_A_0148</value></Data><Data name="ID_LINK_ORIG"><value>L_A_0148</value></Data><Data name="ID_LINK_SEG"><value>L_A_0148_META_01_01</value></Data><Data name="node_in"><value>N_A_0143</value></Data><Data name="node_out"><value>N_A_0141</value></Data><Data name="comp_m"><value>73.48066620300405</value></Data><Data name="COMP_REC_M"><value>73.48066620294561</value></Data><Data name="PERC_LINK_REC"><value>100.0</value></Data><Data name="diam_m"><value>0.8</value></Data></ExtendedData><LineString><tessellate>1</tessellate><coordinates>-34.91493712,-7.26819928,0 -34.91534402,-7.26819338,0 -34.91560179,-7.26817598,0</coordinates></LineString></Placemark><Placemark><name>L_A_0149_META_01_01 — Meta 1 — TRONCO</name><styleUrl>#meta_01_tronco</styleUrl><description>Interseção exata da rede com o polígono original de auditoria para Meta 1 — antiga META_04 (Bacia A).</description><ExtendedData><Data name="META_ID"><value>META_01</value></Data><Data name="META_ORIG"><value>META_04</value></Data><Data name="bacia"><value>A</value></Data><Data name="classe"><value>TRONCO</value></Data><Data name="id_link"><value>L_A_0149</value></Data><Data name="ID_LINK_ORIG"><value>L_A_0149</value></Data><Data name="ID_LINK_SEG"><value>L_A_0149_META_01_01</value></Data><Data name="node_in"><value>N_A_0141</value></Data><Data name="node_out"><value>N_A_0138</value></Data><Data name="comp_m"><value>71.33987369823515</value></Data><Data name="COMP_REC_M"><value>71.3398736980029</value></Data><Data name="PERC_LINK_REC"><value>100.0</value></Data><Data name="diam_m"><value>0.8</value></Data></ExtendedData><LineString><tessellate>1</tessellate><coordinates>-34.91560179,-7.26817598,0 -34.91606814,-7.26814511,0 -34.91624608,-7.26813050,0</coordinates></LineString></Placemark><Placemark><name>L_A_0150_META_01_01 — Meta 1 — TRONCO</name><styleUrl>#meta_01_tronco</styleUrl><description>Interseção exata da rede com o polígono original de auditoria para Meta 1 — antiga META_04 (Bacia A).</description><ExtendedData><Data name="META_ID"><value>META_01</value></Data><Data name="META_ORIG"><value>META_04</value></Data><Data name="bacia"><value>A</value></Data><Data name="classe"><value>TRONCO</value></Data><Data name="id_link"><value>L_A_0150</value></Data><Data name="ID_LINK_ORIG"><value>L_A_0150</value></Data><Data name="ID_LINK_SEG"><value>L_A_0150_META_01_01</value></Data><Data name="node_in"><value>N_A_0138</value></Data><Data name="node_out"><value>N_A_0135</value></Data><Data name="comp_m"><value>70.40938609338839</value></Data><Data name="COMP_REC_M"><value>70.40938609379461</value></Data><Data name="PERC_LINK_REC"><value>100.0</value></Data><Data name="diam_m"><value>0.8</value></Data></ExtendedData><LineString><tessellate>1</tessellate><coordinates>-34.91624608,-7.26813050,0 -34.91688142,-7.26807833,0</coordinates></LineString></Placemark><Placemark><name>L_A_0151_META_01_01 — Meta 1 — TRONCO</name><styleUrl>#meta_01_tronco</styleUrl><description>Interseção exata da rede com o polígono original de auditoria para Meta 1 — antiga META_04 (Bacia A).</description><ExtendedData><Data name="META_ID"><value>META_01</value></Data><Data name="META_ORIG"><value>META_04</value></Data><Data name="bacia"><value>A</value></Data><Data name="classe"><value>TRONCO</value></Data><Data name="id_link"><value>L_A_0151</value></Data><Data name="ID_LINK_ORIG"><value>L_A_0151</value></Data><Data name="ID_LINK_SEG"><value>L_A_0151_META_01_01</value></Data><Data name="node_in"><value>N_A_0135</value></Data><Data name="node_out"><value>N_A_0131</value></Data><Data name="comp_m"><value>74.90378014666575</value></Data><Data name="COMP_REC_M"><value>74.90378014614282</value></Data><Data name="PERC_LINK_REC"><value>100.0</value></Data><Data name="diam_m"><value>0.8</value></Data></ExtendedData><LineString><tessellate>1</tessellate><coordinates>-34.91688142,-7.26807833,0 -34.91754221,-7.26802406,0 -34.91755737,-7.26802365,0</coordinates></LineString></Placemark><Placemark><name>L_A_0152_META_01_01 — Meta 1 — TRONCO</name><styleUrl>#meta_01_tronco</styleUrl><description>Interseção exata da rede com o polígono original de auditoria para Meta 1 — antiga META_04 (Bacia A).</description><ExtendedData><Data name="META_ID"><value>META_01</value></Data><Data name="META_ORIG"><value>META_04</value></Data><Data name="bacia"><value>A</value></Data><Data name="classe"><value>TRONCO</value></Data><Data name="id_link"><value>L_A_0152</value></Data><Data name="ID_LINK_ORIG"><value>L_A_0152</value></Data><Data name="ID_LINK_SEG"><value>L_A_0152_META_01_01</value></Data><Data name="node_in"><value>N_A_0131</value></Data><Data name="node_out"><value>N_A_0129</value></Data><Data name="comp_m"><value>67.39953911342818</value></Data><Data name="COMP_REC_M"><value>67.39953911331179</value></Data><Data name="PERC_LINK_REC"><value>100.0</value></Data><Data name="diam_m"><value>0.8</value></Data></ExtendedData><LineString><tessellate>1</tessellate><coordinates>-34.91755737,-7.26802365,0 -34.91816738,-7.26800706,0</coordinates></LineString></Placemark><Placemark><name>L_A_0153_META_01_01 — Meta 1 — TRONCO</name><styleUrl>#meta_01_tronco</styleUrl><description>Interseção exata da rede com o polígono original de auditoria para Meta 1 — antiga META_04 (Bacia A).</description><ExtendedData><Data name="META_ID"><value>META_01</value></Data><Data name="META_ORIG"><value>META_04</value></Data><Data name="bacia"><value>A</value></Data><Data name="classe"><value>TRONCO</value></Data><Data name="id_link"><value>L_A_0153</value></Data><Data name="ID_LINK_ORIG"><value>L_A_0153</value></Data><Data name="ID_LINK_SEG"><value>L_A_0153_META_01_01</value></Data><Data name="node_in"><value>N_A_0129</value></Data><Data name="node_out"><value>N_A_0127</value></Data><Data name="comp_m"><value>73.27934693833907</value></Data><Data name="COMP_REC_M"><value>73.27934693880438</value></Data><Data name="PERC_LINK_REC"><value>100.0</value></Data><Data name="diam_m"><value>0.8</value></Data></ExtendedData><LineString><tessellate>1</tessellate><coordinates>-34.91816738,-7.26800706,0 -34.91816738,-7.26800706,0 -34.91858412,-7.26798616,0 -34.91882951,-7.26796615,0</coordinates></LineString></Placemark><Placemark><name>L_A_0154_META_01_01 — Meta 1 — TRONCO</name><styleUrl>#meta_01_tronco</styleUrl><description>Interseção exata da rede com o polígono original de auditoria para Meta 1 — antiga META_04 (Bacia A).</description><ExtendedData><Data name="META_ID"><value>META_01</value></Data><Data name="META_ORIG"><value>META_04</value></Data><Data name="bacia"><value>A</value></Data><Data name="classe"><value>TRONCO</value></Data><Data name="id_link"><value>L_A_0154</value></Data><Data name="ID_LINK_ORIG"><value>L_A_0154</value></Data><Data name="ID_LINK_SEG"><value>L_A_0154_META_01_01</value></Data><Data name="node_in"><value>N_A_0127</value></Data><Data name="node_out"><value>N_A_0159</value></Data><Data name="comp_m"><value>70.53265352319414</value></Data><Data name="COMP_REC_M"><value>70.53265352342653</value></Data><Data name="PERC_LINK_REC"><value>100.0</value></Data><Data name="diam_m"><value>0.8</value></Data></ExtendedData><LineString><tessellate>1</tessellate><coordinates>-34.91882951,-7.26796615,0 -34.91905518,-7.26795166,0 -34.91946683,-7.26792573,0</coordinates></LineString></Placemark><Placemark><name>L_A_0155_META_01_01 — Meta 1 — TRONCO</name><styleUrl>#meta_01_tronco</styleUrl><description>Interseção exata da rede com o polígono original de auditoria para Meta 1 — antiga META_04 (Bacia A).</description><ExtendedData><Data name="META_ID"><value>META_01</value></Data><Data name="META_ORIG"><value>META_04</value></Data><Data name="bacia"><value>A</value></Data><Data name="classe"><value>TRONCO</value></Data><Data name="id_link"><value>L_A_0155</value></Data><Data name="ID_LINK_ORIG"><value>L_A_0155</value></Data><Data name="ID_LINK_SEG"><value>L_A_0155_META_01_01</value></Data><Data name="node_in"><value>N_A_0159</value></Data><Data name="node_out"><value>N_A_0123</value></Data><Data name="comp_m"><value>74.59069799273485</value></Data><Data name="COMP_REC_M"><value>74.59069799267724</value></Data><Data name="PERC_LINK_REC"><value>100.0</value></Data><Data name="diam_m"><value>0.8</value></Data></ExtendedData><LineString><tessellate>1</tessellate><coordinates>-34.91946683,-7.26792573,0 -34.91982457,-7.26790320,0 -34.92014146,-7.26790186,0</coordinates></LineString></Placemark><Placemark><name>L_A_0156_META_01_01 — Meta 1 — TRONCO</name><styleUrl>#meta_01_tronco</styleUrl><description>Interseção exata da rede com o polígono original de auditoria para Meta 1 — antiga META_04 (Bacia A).</description><ExtendedData><Data name="META_ID"><value>META_01</value></Data><Data name="META_ORIG"><value>META_04</value></Data><Data name="bacia"><value>A</value></Data><Data name="classe"><value>TRONCO</value></Data><Data name="id_link"><value>L_A_0156</value></Data><Data name="ID_LINK_ORIG"><value>L_A_0156</value></Data><Data name="ID_LINK_SEG"><value>L_A_0156_META_01_01</value></Data><Data name="node_in"><value>N_A_0123</value></Data><Data name="node_out"><value>N_A_0120</value></Data><Data name="comp_m"><value>69.70122535328709</value></Data><Data name="COMP_REC_M"><value>69.70122535328709</value></Data><Data name="PERC_LINK_REC"><value>100.0</value></Data><Data name="diam_m"><value>0.8</value></Data></ExtendedData><LineString><tessellate>1</tessellate><coordinates>-34.92014146,-7.26790186,0 -34.92018673,-7.26790167,0 -34.92077253,-7.26790034,0</coordinates></LineString></Placemark><Placemark><name>L_A_0157_META_01_01 — Meta 1 — TRONCO</name><styleUrl>#meta_01_tronco</styleUrl><description>Interseção exata da rede com o polígono original de auditoria para Meta 1 — antiga META_04 (Bacia A).</description><ExtendedData><Data name="META_ID"><value>META_01</value></Data><Data name="META_ORIG"><value>META_04</value></Data><Data name="bacia"><value>A</value></Data><Data name="classe"><value>TRONCO</value></Data><Data name="id_link"><value>L_A_0157</value></Data><Data name="ID_LINK_ORIG"><value>L_A_0157</value></Data><Data name="ID_LINK_SEG"><value>L_A_0157_META_01_01</value></Data><Data name="node_in"><value>N_A_0120</value></Data><Data name="node_out"><value>N_A_0151</value></Data><Data name="comp_m"><value>133.21291190140047</value></Data><Data name="COMP_REC_M"><value>133.2129119010512</value></Data><Data name="PERC_LINK_REC"><value>100.0</value></Data><Data name="diam_m"><value>0.8</value></Data></ExtendedData><LineString><tessellate>1</tessellate><coordinates>-34.92077253,-7.26790034,0 -34.92167147,-7.26789829,0 -34.92187965,-7.26789510,0 -34.92197861,-7.26789417,0</coordinates></LineString></Placemark><Placemark><name>L_A_0158_META_01_01 — Meta 1 — TRONCO</name><styleUrl>#meta_01_tronco</styleUrl><description>Interseção exata da rede com o polígono original de auditoria para Meta 1 — antiga META_04 (Bacia A).</description><ExtendedData><Data name="META_ID"><value>META_01</value></Data><Data name="META_ORIG"><value>META_04</value></Data><Data name="bacia"><value>A</value></Data><Data name="classe"><value>TRONCO</value></Data><Data name="id_link"><value>L_A_0158</value></Data><Data name="ID_LINK_ORIG"><value>L_A_0158</value></Data><Data name="ID_LINK_SEG"><value>L_A_0158_META_01_01</value></Data><Data name="node_in"><value>N_A_0151</value></Data><Data name="node_out"><value>N_A_0193</value></Data><Data name="comp_m"><value>20.214522928489433</value></Data><Data name="COMP_REC_M"><value>20.214522928431464</value></Data><Data name="PERC_LINK_REC"><value>100.0</value></Data><Data name="diam_m"><value>0.8</value></Data></ExtendedData><LineString><tessellate>1</tessellate><coordinates>-34.92197861,-7.26789417,0 -34.92199752,-7.26789399,0 -34.92204366,-7.26789259,0 -34.92208671,-7.26789193,0 -34.92212705,-7.26789131,0 -34.92216160,-7.26789078,0</coordinates></LineString></Placemark><Placemark><name>L_A_0182_META_01_01 — Meta 1 — TRONCO</name><styleUrl>#meta_01_tronco</styleUrl><description>Interseção exata da rede com o polígono original de auditoria para Meta 1 — antiga META_04 (Bacia A).</description><ExtendedData><Data name="META_ID"><value>META_01</value></Data><Data name="META_ORIG"><value>META_04</value></Data><Data name="bacia"><value>A</value></Data><Data name="classe"><value>TRONCO</value></Data><Data name="id_link"><value>L_A_0182</value></Data><Data name="ID_LINK_ORIG"><value>L_A_0182</value></Data><Data name="ID_LINK_SEG"><value>L_A_0182_META_01_01</value></Data><Data name="node_in"><value>N_A_0118</value></Data><Data name="node_out"><value>N_A_0151</value></Data><Data name="comp_m"><value>70.02566284760444</value></Data><Data name="COMP_REC_M"><value>10.082805728438293</value></Data><Data name="PERC_LINK_REC"><value>14.398729434924853</value></Data><Data name="diam_m"><value>0.8</value></Data></ExtendedData><LineString><tessellate>1</tessellate><coordinates>-34.92197705,-7.26780304,0 -34.92197676,-7.26782736,0 -34.92197861,-7.26789417,0</coordinates></LineString></Placemark></Folder></Folder></Document></kml>