{"type":"FeatureCollection","name":"metas_plano_trabalho","features":[{"type":"Feature","properties":{"META_ID":"META_01","NOME":"Meta 1 — Bacia A: tronco e dissipador D05","BACIA":"A","POLIGONOS_ORIG":"META_04","DISS_USUARIO":"Dissipador 05","DISS_MODELO":"DISS_05 (camada atual; confirmar identificação de saída no SWMM)","ETAPAS":"Projeto básico; tronco da antiga Meta 04; dissipador 05; pavimentação da rua","TIPO":"polígono esquemático de apresentação; não usar para seleção analítica","SELECAO_ANALITICA":"usar os polígonos originais no ZIP","N_TRECHOS":45,"EXT_REDE_M_SOMA":5193.12},"geometry":{"type":"MultiPolygon","coordinates":[[[[-34.923465645495874,-7.268475426187534],[-34.91394199470195,-7.268515732893199],[-34.91393811935016,-7.267600403838702],[-34.923461750889494,-7.267560102261582],[-34.923465645495874,-7.268475426187534]]]]}},{"type":"Feature","properties":{"META_ID":"META_02","NOME":"Meta 2 — Bacia B: Dissipador B05 e trechos hachurados","BACIA":"B","POLIGONOS_ORIG":"META_02","DISS_USUARIO":"Dissipador B05","DISS_MODELO":"DISS_B_02 (código atual a conferir)","ETAPAS":"Projeto básico; tronco do trecho hachurado; coletor do trecho hachurado; dissipador B05; pavimentação da rua","TIPO":"polígono esquemático de apresentação; não usar para seleção analítica","SELECAO_ANALITICA":"usar os polígonos originais no ZIP","N_TRECHOS":8,"EXT_REDE_M_SOMA":1402.93},"geometry":{"type":"MultiPolygon","coordinates":[[[[-34.92118785340134,-7.276099710516343],[-34.91596615994065,-7.276121831342882],[-34.91595568395997,-7.273652440860121],[-34.92117734891263,-7.273630327619088],[-34.92118785340134,-7.276099710516343]]]]}},{"type":"Feature","properties":{"META_ID":"META_03","NOME":"Meta 3 — Bacia B: Dissipador B01 e rede das ruas indicadas","BACIA":"B","POLIGONOS_ORIG":"META_01, META_03","DISS_USUARIO":"Dissipador B01","DISS_MODELO":"DISS_B_01","ETAPAS":"Projeto básico; tronco; coletores das ruas indicadas; dissipador B01; pavimentação da rua","TIPO":"polígono esquemático de apresentação; não usar para seleção analítica","SELECAO_ANALITICA":"usar os polígonos originais no ZIP","N_TRECHOS":18,"EXT_REDE_M_SOMA":5074.34},"geometry":{"type":"MultiPolygon","coordinates":[[[[-34.91917624839966,-7.275138676305057],[-34.91251721946447,-7.275166842358424],[-34.912501511160954,-7.271456592698865],[-34.91916048548445,-7.271428441159166],[-34.91917624839966,-7.275138676305057]]],[[[-34.91645576867727,-7.274147878101535],[-34.912788863808274,-7.274163376208379],[-34.91276472275486,-7.268460551299579],[-34.91643158141332,-7.268445065469208],[-34.91645576867727,-7.274147878101535]]]]}}]}