{
"type": "FeatureCollection",
"name": "meta_03_trechos_recortados",
"crs": { "type": "name", "properties": { "name": "urn:ogc:def:crs:OGC:1.3:CRS84" } },
"features": [
{ "type": "Feature", "properties": { "id_link": "L_B_0007", "node_in": "N_B_0009", "node_out": "N_B_0010", "classe": "COLETOR", "origem": "ColetorB1_F005", "comp_m": 388.51677875008897, "cota_in": 116.99341583251953, "cota_out": 98.531539916992188, "decl_pct": 4.7518863856849878, "diam_m": 0.6, "obs": "DECLIVE_MDE", "bacia": "B", "ID_LINK_ORIG": "L_B_0007", "ID_LINK_SEG": "L_B_0007_META_03_01", "META_ID": "META_03", "META_ORIG": "META_01;META_03", "SELECAO_REC": "CLIP_EXATO_POLIGONO_AUDITORIA", "COMP_REC_M": 7.5568735177679818, "PERC_LINK_REC": 1.9450571844240065, "X_IN_REC": 288822.00538190419, "Y_IN_REC": 9195759.6836256944, "X_OUT_REC": 288815.41799777176, "Y_OUT_REC": 9195763.386693025 }, "geometry": { "type": "LineString", "coordinates": [ [ -34.91274241714553, -7.27178578595257 ], [ -34.912801917908823, -7.271752055563867 ] ] } },
{ "type": "Feature", "properties": { "id_link": "L_B_0008", "node_in": "N_B_0010", "node_out": "N_B_0011", "classe": "COLETOR", "origem": "ColetorB1_F005", "comp_m": 427.15689525897756, "cota_in": 98.531539916992188, "cota_out": 62.823890686035156, "decl_pct": 8.3593755894559827, "diam_m": 0.6, "obs": "DECLIVE_MDE", "bacia": "B", "ID_LINK_ORIG": "L_B_0008", "ID_LINK_SEG": "L_B_0008_META_03_01", "META_ID": "META_03", "META_ORIG": "META_01;META_03", "SELECAO_REC": "CLIP_EXATO_POLIGONO_AUDITORIA", "COMP_REC_M": 427.15689525882931, "PERC_LINK_REC": 100.0, "X_IN_REC": 288815.41799777176, "Y_IN_REC": 9195763.386693025, "X_OUT_REC": 288556.88483210513, "Y_OUT_REC": 9195425.1467800979 }, "geometry": { "type": "LineString", "coordinates": [ [ -34.912801917908823, -7.271752055563867 ], [ -34.91305171387517, -7.272090664090877 ], [ -34.913279022336631, -7.272315727967753 ], [ -34.913468115801074, -7.272584323708373 ], [ -34.913576290341211, -7.272785376310019 ], [ -34.913892351852802, -7.273200455837297 ], [ -34.914066487505174, -7.273409458354932 ], [ -34.914151452697126, -7.273589111867047 ], [ -34.914735909705193, -7.274253375178666 ], [ -34.915155652301131, -7.274800118752059 ] ] } },
{ "type": "Feature", "properties": { "id_link": "L_B_0009", "node_in": "N_B_0012", "node_out": "N_B_0010", "classe": "COLETOR", "origem": "ColetorB1_F006", "comp_m": 307.73575521970821, "cota_in": 110.01205444335938, "cota_out": 98.531539916992188, "decl_pct": 3.7306404379857208, "diam_m": 0.6, "obs": "DECLIVE_MDE", "bacia": "B", "ID_LINK_ORIG": "L_B_0009", "ID_LINK_SEG": "L_B_0009_META_03_01", "META_ID": "META_03", "META_ORIG": "META_01;META_03", "SELECAO_REC": "CLIP_EXATO_POLIGONO_AUDITORIA", "COMP_REC_M": 5.8987805255095607, "PERC_LINK_REC": 1.9168330054124303, "X_IN_REC": 288819.50663476164, "Y_IN_REC": 9195767.6385936886, "X_OUT_REC": 288815.41799777176, "Y_OUT_REC": 9195763.386693025 }, "geometry": { "type": "LineString", "coordinates": [ [ -34.912764736460488, -7.271713771302124 ], [ -34.912801917908823, -7.271752055563867 ] ] } },
{ "type": "Feature", "properties": { "id_link": "L_B_0010", "node_in": "N_B_0013", "node_out": "N_B_0014", "classe": "COLETOR", "origem": "ColetorB1_F007", "comp_m": 702.48336119246505, "cota_in": 107.85828399658203, "cota_out": 58.916793823242188, "decl_pct": 6.9669251795888369, "diam_m": 0.6, "obs": "DECLIVE_MDE", "bacia": "B", "ID_LINK_ORIG": "L_B_0010", "ID_LINK_SEG": "L_B_0010_META_03_01", "META_ID": "META_03", "META_ORIG": "META_01;META_03", "SELECAO_REC": "CLIP_EXATO_POLIGONO_AUDITORIA", "COMP_REC_M": 16.403307098292039, "PERC_LINK_REC": 2.3350456401490001, "X_IN_REC": 288508.45062203152, "Y_IN_REC": 9195486.73190495, "X_OUT_REC": 288498.8580855832, "Y_OUT_REC": 9195473.4258263297 }, "geometry": { "type": "LineString", "coordinates": [ [ -34.91559181878057, -7.274241487551655 ], [ -34.915679180620408, -7.274361417452936 ] ] } },
{ "type": "Feature", "properties": { "id_link": "L_B_0011", "node_in": "N_B_0015", "node_out": "N_B_0016", "classe": "COLETOR", "origem": "ColetorB1_F008", "comp_m": 667.57635105325755, "cota_in": 105.37587738037109, "cota_out": 55.190128326416016, "decl_pct": 7.5176043870900076, "diam_m": 0.6, "obs": "DECLIVE_MDE", "bacia": "B", "ID_LINK_ORIG": "L_B_0011", "ID_LINK_SEG": "L_B_0011_META_03_01", "META_ID": "META_03", "META_ORIG": "META_01;META_03", "SELECAO_REC": "CLIP_EXATO_POLIGONO_AUDITORIA", "COMP_REC_M": 667.57635105316649, "PERC_LINK_REC": 99.999999999999986, "X_IN_REC": 288783.12362350989, "Y_IN_REC": 9196094.4592718724, "X_OUT_REC": 288442.29235529015, "Y_OUT_REC": 9195528.2164663896 }, "geometry": { "type": "LineString", "coordinates": [ [ -34.913081641936174, -7.268757665610035 ], [ -34.913517284584699, -7.269805953512959 ], [ -34.913793577524125, -7.270560686627885 ], [ -34.914011734082841, -7.271069279906287 ], [ -34.914134752858573, -7.27127240582197 ], [ -34.914498614775582, -7.27177049671545 ], [ -34.914954021929262, -7.272308652238512 ], [ -34.915409215730804, -7.272894388908895 ], [ -34.915883154684302, -7.273498683297938 ], [ -34.916189229986706, -7.273863901962832 ] ] } },
{ "type": "Feature", "properties": { "id_link": "L_B_0012", "node_in": "N_B_0017", "node_out": "N_B_0018", "classe": "COLETOR", "origem": "ColetorB1_F009", "comp_m": 595.46100671696388, "cota_in": 100.972900390625, "cota_out": 52.559803009033203, "decl_pct": 8.1303556127905523, "diam_m": 0.6, "obs": "DECLIVE_MDE", "bacia": "B", "ID_LINK_ORIG": "L_B_0012", "ID_LINK_SEG": "L_B_0012_META_03_01", "META_ID": "META_03", "META_ORIG": "META_01;META_03", "SELECAO_REC": "CLIP_EXATO_POLIGONO_AUDITORIA", "COMP_REC_M": 11.314414546942281, "PERC_LINK_REC": 1.9001100692259525, "X_IN_REC": 288395.98790659034, "Y_IN_REC": 9195588.8177730795, "X_OUT_REC": 288387.98740739957, "Y_OUT_REC": 9195580.8172737677 }, "geometry": { "type": "LineString", "coordinates": [ [ -34.916606149078582, -7.273314246357427 ], [ -34.916678892966374, -7.273386270538038 ] ] } },
{ "type": "Feature", "properties": { "id_link": "L_B_0015", "node_in": "N_B_0021", "node_out": "N_B_0022", "classe": "COLETOR", "origem": "ColetorB1_F010", "comp_m": 180.71075721045634, "cota_in": 57.638088226318359, "cota_out": 49.897239685058594, "decl_pct": 4.2835571389060965, "diam_m": 0.6, "obs": "DECLIVE_MDE", "bacia": "B", "ID_LINK_ORIG": "L_B_0015", "ID_LINK_SEG": "L_B_0015_META_03_01", "META_ID": "META_03", "META_ORIG": "META_01;META_03", "SELECAO_REC": "CLIP_EXATO_POLIGONO_AUDITORIA", "COMP_REC_M": 14.864776336924677, "PERC_LINK_REC": 8.2257285434332594, "X_IN_REC": 288346.03037426661, "Y_IN_REC": 9195639.028703969, "X_OUT_REC": 288336.52280593105, "Y_OUT_REC": 9195627.6032705214 }, "geometry": { "type": "LineString", "coordinates": [ [ -34.917056541039486, -7.272858387591041 ], [ -34.917061397012624, -7.272864712153232 ], [ -34.917143061369643, -7.272961317976034 ] ] } },
{ "type": "Feature", "properties": { "id_link": "L_B_0022", "node_in": "N_B_0033", "node_out": "N_B_0034", "classe": "COLETOR", "origem": "ColetorB2_F001", "comp_m": 314.17755033790985, "cota_in": 51.967029571533203, "cota_out": 36.719928741455078, "decl_pct": 4.8530204700110779, "diam_m": 0.6, "obs": "DECLIVE_MDE", "bacia": "B", "ID_LINK_ORIG": "L_B_0022", "ID_LINK_SEG": "L_B_0022_META_03_01", "META_ID": "META_03", "META_ORIG": "META_01;META_03", "SELECAO_REC": "CLIP_EXATO_POLIGONO_AUDITORIA", "COMP_REC_M": 2.7327832979270452, "PERC_LINK_REC": 0.86982131440834376, "X_IN_REC": 288368.18204362784, "Y_IN_REC": 9195588.3724319357, "X_OUT_REC": 288366.09757027362, "Y_OUT_REC": 9195586.6052094288 }, "geometry": { "type": "LineString", "coordinates": [ [ -34.916857922059535, -7.27331720748653 ], [ -34.916876862798489, -7.27333310467482 ] ] } },
{ "type": "Feature", "properties": { "id_link": "L_B_0024", "node_in": "N_B_0037", "node_out": "N_B_0038", "classe": "COLETOR", "origem": "ColetorB2_F003", "comp_m": 267.20030922733145, "cota_in": 60.706134796142578, "cota_out": 38.503372192382813, "decl_pct": 8.3094075257487319, "diam_m": 0.6, "obs": "DECLIVE_MDE", "bacia": "B", "ID_LINK_ORIG": "L_B_0024", "ID_LINK_SEG": "L_B_0024_META_03_01", "META_ID": "META_03", "META_ORIG": "META_01;META_03", "SELECAO_REC": "CLIP_EXATO_POLIGONO_AUDITORIA", "COMP_REC_M": 0.61932406535774742, "PERC_LINK_REC": 0.23178269035250648, "X_IN_REC": 288522.98741197633, "Y_IN_REC": 9195445.8172787856, "X_OUT_REC": 288522.5477287735, "Y_OUT_REC": 9195445.3811125569 }, "geometry": { "type": "LineString", "coordinates": [ [ -34.915461770205852, -7.274611943808324 ], [ -34.915465767861221, -7.274615870252901 ] ] } },
{ "type": "Feature", "properties": { "id_link": "L_B_0029", "node_in": "N_B_0008", "node_out": "N_B_0011", "classe": "TRONCO", "origem": "TroncoB1_F001", "comp_m": 602.88675252315886, "cota_in": 109.52175903320313, "cota_out": 62.823890686035156, "decl_pct": 7.7457114709738377, "diam_m": 0.8, "obs": "DECLIVE_MDE", "bacia": "B", "ID_LINK_ORIG": "L_B_0029", "ID_LINK_SEG": "L_B_0029_META_03_01", "META_ID": "META_03", "META_ORIG": "META_01;META_03", "SELECAO_REC": "CLIP_EXATO_POLIGONO_AUDITORIA", "COMP_REC_M": 11.597888433071288, "PERC_LINK_REC": 1.9237258713241634, "X_IN_REC": 288565.85365192033, "Y_IN_REC": 9195417.7934619877, "X_OUT_REC": 288556.88483210513, "Y_OUT_REC": 9195425.1467800979 }, "geometry": { "type": "LineString", "coordinates": [ [ -34.915074729638313, -7.274866941748697 ], [ -34.915155652301131, -7.274800118752059 ] ] } },
{ "type": "Feature", "properties": { "id_link": "L_B_0030", "node_in": "N_B_0011", "node_out": "N_B_0014", "classe": "TRONCO", "origem": "TroncoB1_F001", "comp_m": 75.505470468595334, "cota_in": 62.823890686035156, "cota_out": 58.916793823242188, "decl_pct": 5.1745877994602143, "diam_m": 0.8, "obs": "DECLIVE_MDE", "bacia": "B", "ID_LINK_ORIG": "L_B_0030", "ID_LINK_SEG": "L_B_0030_META_03_01", "META_ID": "META_03", "META_ORIG": "META_01;META_03", "SELECAO_REC": "CLIP_EXATO_POLIGONO_AUDITORIA", "COMP_REC_M": 75.505470468672556, "PERC_LINK_REC": 100.0, "X_IN_REC": 288556.88483210513, "Y_IN_REC": 9195425.1467800979, "X_OUT_REC": 288498.8580855832, "Y_OUT_REC": 9195473.4258263297 }, "geometry": { "type": "LineString", "coordinates": [ [ -34.915155652301131, -7.274800118752059 ], [ -34.915636483981707, -7.274403064807604 ], [ -34.915679180620408, -7.274361417452936 ] ] } },
{ "type": "Feature", "properties": { "id_link": "L_B_0031", "node_in": "N_B_0014", "node_out": "N_B_0016", "classe": "TRONCO", "origem": "TroncoB1_F001", "comp_m": 78.750848133642705, "cota_in": 58.916793823242188, "cota_out": 55.190128326416016, "decl_pct": 4.7322226809569106, "diam_m": 0.8, "obs": "DECLIVE_MDE", "bacia": "B", "ID_LINK_ORIG": "L_B_0031", "ID_LINK_SEG": "L_B_0031_META_03_01", "META_ID": "META_03", "META_ORIG": "META_01;META_03", "SELECAO_REC": "CLIP_EXATO_POLIGONO_AUDITORIA", "COMP_REC_M": 78.750848133559089, "PERC_LINK_REC": 100.0, "X_IN_REC": 288498.8580855832, "Y_IN_REC": 9195473.4258263297, "X_OUT_REC": 288442.29235529015, "Y_OUT_REC": 9195528.2164663896 }, "geometry": { "type": "LineString", "coordinates": [ [ -34.915679180620408, -7.274361417452936 ], [ -34.916189229986706, -7.273863901962832 ] ] } },
{ "type": "Feature", "properties": { "id_link": "L_B_0032", "node_in": "N_B_0016", "node_out": "N_B_0018", "classe": "TRONCO", "origem": "TroncoB1_F001", "comp_m": 75.603388450384202, "cota_in": 55.190128326416016, "cota_out": 52.559803009033203, "decl_pct": 3.4791103564213937, "diam_m": 0.8, "obs": "DECLIVE_MDE", "bacia": "B", "ID_LINK_ORIG": "L_B_0032", "ID_LINK_SEG": "L_B_0032_META_03_01", "META_ID": "META_03", "META_ORIG": "META_01;META_03", "SELECAO_REC": "CLIP_EXATO_POLIGONO_AUDITORIA", "COMP_REC_M": 75.603388450393908, "PERC_LINK_REC": 100.0, "X_IN_REC": 288442.29235529015, "Y_IN_REC": 9195528.2164663896, "X_OUT_REC": 288387.98740739957, "Y_OUT_REC": 9195580.8172737677 }, "geometry": { "type": "LineString", "coordinates": [ [ -34.916189229986706, -7.273863901962832 ], [ -34.916678892888548, -7.273386270650859 ], [ -34.916678892966374, -7.273386270538038 ] ] } },
{ "type": "Feature", "properties": { "id_link": "L_B_0033", "node_in": "N_B_0018", "node_out": "N_B_0022", "classe": "TRONCO", "origem": "TroncoB1_F001", "comp_m": 69.552388144101258, "cota_in": 52.559803009033203, "cota_out": 49.897239685058594, "decl_pct": 3.8281407655740165, "diam_m": 0.8, "obs": "DECLIVE_MDE", "bacia": "B", "ID_LINK_ORIG": "L_B_0033", "ID_LINK_SEG": "L_B_0033_META_03_01", "META_ID": "META_03", "META_ORIG": "META_01;META_03", "SELECAO_REC": "CLIP_EXATO_POLIGONO_AUDITORIA", "COMP_REC_M": 69.552388144144331, "PERC_LINK_REC": 100.0, "X_IN_REC": 288387.98740739957, "Y_IN_REC": 9195580.8172737677, "X_OUT_REC": 288336.52280593105, "Y_OUT_REC": 9195627.6032705214 }, "geometry": { "type": "LineString", "coordinates": [ [ -34.916678892966374, -7.273386270538038 ], [ -34.917143061369643, -7.272961317976034 ] ] } },
{ "type": "Feature", "properties": { "id_link": "L_B_0034", "node_in": "N_B_0022", "node_out": "N_B_0042", "classe": "TRONCO", "origem": "TroncoB1_F001", "comp_m": 154.25500349808732, "cota_in": 49.897239685058594, "cota_out": 42.798110961914063, "decl_pct": 4.6022032103694821, "diam_m": 0.8, "obs": "DECLIVE_MDE", "bacia": "B", "ID_LINK_ORIG": "L_B_0034", "ID_LINK_SEG": "L_B_0034_META_03_01", "META_ID": "META_03", "META_ORIG": "META_01;META_03", "SELECAO_REC": "CLIP_EXATO_POLIGONO_AUDITORIA", "COMP_REC_M": 154.25500349815042, "PERC_LINK_REC": 100.0, "X_IN_REC": 288336.52280593105, "Y_IN_REC": 9195627.6032705214, "X_OUT_REC": 288229.73836118355, "Y_OUT_REC": 9195738.9053038433 }, "geometry": { "type": "LineString", "coordinates": [ [ -34.917143061369643, -7.272961317976034 ], [ -34.917174947647638, -7.272932125607422 ], [ -34.918105620449019, -7.271950971359833 ] ] } },
{ "type": "Feature", "properties": { "id_link": "L_B_0035", "node_in": "N_B_0042", "node_out": "N_B_0043", "classe": "TRONCO", "origem": "TroncoB1_F001", "comp_m": 58.129809795548411, "cota_in": 42.798110961914063, "cota_out": 40.784214019775391, "decl_pct": 3.4644822496785395, "diam_m": 0.8, "obs": "DECLIVE_MDE", "bacia": "B", "ID_LINK_ORIG": "L_B_0035", "ID_LINK_SEG": "L_B_0035_META_03_01", "META_ID": "META_03", "META_ORIG": "META_01;META_03", "SELECAO_REC": "CLIP_EXATO_POLIGONO_AUDITORIA", "COMP_REC_M": 58.129809796209067, "PERC_LINK_REC": 100.0, "X_IN_REC": 288229.73836118355, "Y_IN_REC": 9195738.9053038433, "X_OUT_REC": 288188.4350563531, "Y_OUT_REC": 9195708.1624229159 }, "geometry": { "type": "LineString", "coordinates": [ [ -34.918105620449019, -7.271950971359833 ], [ -34.918433429014328, -7.272273455448022 ], [ -34.918480761697047, -7.272227327096931 ] ] } },
{ "type": "Feature", "properties": { "id_link": "L_B_0044", "node_in": "N_B_0032", "node_out": "N_B_0042", "classe": "TRONCO", "origem": "TroncoB3_F001", "comp_m": 61.203447253817203, "cota_in": 47.650627136230469, "cota_out": 42.798110961914063, "decl_pct": 7.9285014031848666, "diam_m": 0.8, "obs": "DECLIVE_MDE", "bacia": "B", "ID_LINK_ORIG": "L_B_0044", "ID_LINK_SEG": "L_B_0044_META_03_01", "META_ID": "META_03", "META_ORIG": "META_01;META_03", "SELECAO_REC": "CLIP_EXATO_POLIGONO_AUDITORIA", "COMP_REC_M": 4.6392895309593669, "PERC_LINK_REC": 7.580111479172591, "X_IN_REC": 288226.55362810363, "Y_IN_REC": 9195742.2788009252, "X_OUT_REC": 288229.73836118355, "Y_OUT_REC": 9195738.9053038433 }, "geometry": { "type": "LineString", "coordinates": [ [ -34.918134325615988, -7.271920350338768 ], [ -34.918105620449019, -7.271950971359833 ] ] } },
{ "type": "Feature", "properties": { "id_link": "D_B_01", "node_in": "N_B_0043", "node_out": "O_B_DISS_01", "classe": "DISSIPADOR", "origem": "Trechos_Dissipacao_B_1", "comp_m": 47.435920093314579, "cota_in": 40.784214019775391, "cota_out": 40.784214019775391, "decl_pct": 0.0, "diam_m": 1.2, "obs": "DECLIVE_MDE_REVERSO; REPRESENTACAO_PRELIMINAR", "bacia": "B", "ID_LINK_ORIG": "D_B_01", "ID_LINK_SEG": "D_B_01_META_03_01", "META_ID": "META_03", "META_ORIG": "META_01;META_03", "SELECAO_REC": "CLIP_EXATO_POLIGONO_AUDITORIA", "COMP_REC_M": 47.435920092314149, "PERC_LINK_REC": 99.999999999999986, "X_IN_REC": 288152.98741604708, "Y_IN_REC": 9195739.6843408737, "X_OUT_REC": 288188.4350563531, "Y_OUT_REC": 9195708.1624229159 }, "geometry": { "type": "LineString", "coordinates": [ [ -34.91880049524584, -7.271940986268724 ], [ -34.918480761697047, -7.272227327096931 ] ] } }
]
}
