{
"type": "FeatureCollection",
"name": "meta_02_trechos_recortados",
"crs": { "type": "name", "properties": { "name": "urn:ogc:def:crs:OGC:1.3:CRS84" } },
"features": [
{ "type": "Feature", "properties": { "id_link": "L_B_0022", "node_in": "N_B_0033", "node_out": "N_B_0034", "classe": "COLETOR", "origem": "ColetorB2_F001", "comp_m": 314.17755033790985, "cota_in": 51.967029571533203, "cota_out": 36.719928741455078, "decl_pct": 4.8530204700110779, "diam_m": 0.6, "obs": "DECLIVE_MDE", "bacia": "B", "ID_LINK_ORIG": "L_B_0022", "ID_LINK_SEG": "L_B_0022_META_02_01", "META_ID": "META_02", "META_ORIG": "META_02", "SELECAO_REC": "CLIP_EXATO_POLIGONO_AUDITORIA", "COMP_REC_M": 7.1462977050367869, "PERC_LINK_REC": 2.2746048205372085, "X_IN_REC": 288128.83700858254, "Y_IN_REC": 9195396.580493547, "X_OUT_REC": 288123.45752221497, "Y_OUT_REC": 9195391.8761660382 }, "geometry": { "type": "LineString", "coordinates": [ [ -34.919032331367603, -7.275041976783726 ], [ -34.919081218396606, -7.2750843010752 ] ] } },
{ "type": "Feature", "properties": { "id_link": "L_B_0023", "node_in": "N_B_0035", "node_out": "N_B_0036", "classe": "COLETOR", "origem": "ColetorB2_F002", "comp_m": 284.5513292071679, "cota_in": 54.973152160644531, "cota_out": 37.277458190917969, "decl_pct": 6.2188055909038447, "diam_m": 0.6, "obs": "DECLIVE_MDE", "bacia": "B", "ID_LINK_ORIG": "L_B_0023", "ID_LINK_SEG": "L_B_0023_META_02_01", "META_ID": "META_02", "META_ORIG": "META_02", "SELECAO_REC": "CLIP_EXATO_POLIGONO_AUDITORIA", "COMP_REC_M": 284.55132920700112, "PERC_LINK_REC": 100.0, "X_IN_REC": 288438.34968396154, "Y_IN_REC": 9195520.7447966803, "X_OUT_REC": 288235.93017347925, "Y_OUT_REC": 9195320.8363019023 }, "geometry": { "type": "LineString", "coordinates": [ [ -34.916225213784273, -7.273931300585867 ], [ -34.917319393010011, -7.274965721747065 ], [ -34.91806560944304, -7.275730868517529 ] ] } },
{ "type": "Feature", "properties": { "id_link": "L_B_0025", "node_in": "N_B_0039", "node_out": "N_B_0040", "classe": "COLETOR", "origem": "ColetorB2_F004", "comp_m": 337.17127765351279, "cota_in": 48.641410827636719, "cota_out": 32.932491302490234, "decl_pct": 4.6590325351762125, "diam_m": 0.6, "obs": "DECLIVE_MDE", "bacia": "B", "ID_LINK_ORIG": "L_B_0025", "ID_LINK_SEG": "L_B_0025_META_02_01", "META_ID": "META_02", "META_ORIG": "META_02", "SELECAO_REC": "CLIP_EXATO_POLIGONO_AUDITORIA", "COMP_REC_M": 11.209302550498323, "PERC_LINK_REC": 3.3245128791838829, "X_IN_REC": 288022.02185795543, "Y_IN_REC": 9195462.4525701404, "X_OUT_REC": 288012.98741604842, "Y_OUT_REC": 9195455.8172613233 }, "geometry": { "type": "LineString", "coordinates": [ [ -34.919996912322986, -7.274442345685669 ], [ -34.920078965751621, -7.274501987109537 ] ] } },
{ "type": "Feature", "properties": { "id_link": "L_B_0036", "node_in": "N_B_0038", "node_out": "N_B_0036", "classe": "TRONCO", "origem": "TroncoB2_F001", "comp_m": 114.49472335484492, "cota_in": 38.503372192382813, "cota_out": 37.277458190917969, "decl_pct": 1.0707165933450578, "diam_m": 0.8, "obs": "DECLIVE_MDE", "bacia": "B", "ID_LINK_ORIG": "L_B_0036", "ID_LINK_SEG": "L_B_0036_META_02_01", "META_ID": "META_02", "META_ORIG": "META_02", "SELECAO_REC": "CLIP_EXATO_POLIGONO_AUDITORIA", "COMP_REC_M": 10.012590123914132, "PERC_LINK_REC": 8.7450232033001694, "X_IN_REC": 288244.34646672365, "Y_IN_REC": 9195315.4124684781, "X_OUT_REC": 288235.93017347925, "Y_OUT_REC": 9195320.8363019023 }, "geometry": { "type": "LineString", "coordinates": [ [ -34.917989615756973, -7.275780226778003 ], [ -34.91806560944304, -7.275730868517529 ] ] } },
{ "type": "Feature", "properties": { "id_link": "L_B_0037", "node_in": "N_B_0036", "node_out": "N_B_0034", "classe": "TRONCO", "origem": "TroncoB2_F001", "comp_m": 133.05569673316089, "cota_in": 37.277458190917969, "cota_out": 36.719928741455078, "decl_pct": 0.41901960092772189, "diam_m": 0.8, "obs": "DECLIVE_MDE", "bacia": "B", "ID_LINK_ORIG": "L_B_0037", "ID_LINK_SEG": "L_B_0037_META_02_01", "META_ID": "META_02", "META_ORIG": "META_02", "SELECAO_REC": "CLIP_EXATO_POLIGONO_AUDITORIA", "COMP_REC_M": 133.05569673329194, "PERC_LINK_REC": 100.0, "X_IN_REC": 288235.93017347925, "Y_IN_REC": 9195320.8363019023, "X_OUT_REC": 288123.45752221497, "Y_OUT_REC": 9195391.8761660382 }, "geometry": { "type": "LineString", "coordinates": [ [ -34.91806560944304, -7.275730868517529 ], [ -34.918228673006091, -7.275624957888504 ], [ -34.919000822355443, -7.275127961700603 ], [ -34.919081218396606, -7.2750843010752 ] ] } },
{ "type": "Feature", "properties": { "id_link": "L_B_0038", "node_in": "N_B_0034", "node_out": "N_B_0040", "classe": "TRONCO", "origem": "TroncoB2_F001", "comp_m": 127.72438826830773, "cota_in": 36.719928741455078, "cota_out": 32.932491302490234, "decl_pct": 2.9653204766255445, "diam_m": 0.8, "obs": "DECLIVE_MDE", "bacia": "B", "ID_LINK_ORIG": "L_B_0038", "ID_LINK_SEG": "L_B_0038_META_02_01", "META_ID": "META_02", "META_ORIG": "META_02", "SELECAO_REC": "CLIP_EXATO_POLIGONO_AUDITORIA", "COMP_REC_M": 127.72438826825864, "PERC_LINK_REC": 100.0, "X_IN_REC": 288123.45752221497, "Y_IN_REC": 9195391.8761660382, "X_OUT_REC": 288012.98741604842, "Y_OUT_REC": 9195455.8172613233 }, "geometry": { "type": "LineString", "coordinates": [ [ -34.919081218396606, -7.2750843010752 ], [ -34.919670812248754, -7.274764110111738 ], [ -34.920078965751621, -7.274501987109537 ] ] } },
{ "type": "Feature", "properties": { "id_link": "L_B_0039", "node_in": "N_B_0040", "node_out": "N_B_0044", "classe": "TRONCO", "origem": "TroncoB2_F001", "comp_m": 39.453574950721432, "cota_in": 32.932491302490234, "cota_out": 31.093723297119141, "decl_pct": 4.6605865442301848, "diam_m": 0.8, "obs": "DECLIVE_MDE", "bacia": "B", "ID_LINK_ORIG": "L_B_0039", "ID_LINK_SEG": "L_B_0039_META_02_01", "META_ID": "META_02", "META_ORIG": "META_02", "SELECAO_REC": "CLIP_EXATO_POLIGONO_AUDITORIA", "COMP_REC_M": 39.453574951007056, "PERC_LINK_REC": 100.0, "X_IN_REC": 288012.98741604842, "Y_IN_REC": 9195455.8172613233, "X_OUT_REC": 287974.84532361926, "Y_OUT_REC": 9195458.5010902584 }, "geometry": { "type": "LineString", "coordinates": [ [ -34.920078965751621, -7.274501987109537 ], [ -34.920078965751635, -7.274501987109521 ], [ -34.920333302022357, -7.274483721434732 ], [ -34.920395857960969, -7.274500643776975 ], [ -34.92042420349177, -7.274476259361537 ] ] } },
{ "type": "Feature", "properties": { "id_link": "D_B_02", "node_in": "N_B_0044", "node_out": "O_B_DISS_02", "classe": "DISSIPADOR", "origem": "Trechos_Dissipacao_B_2", "comp_m": 52.301107982226732, "cota_in": 31.093723297119141, "cota_out": 27.958951950073242, "decl_pct": 5.9936996900929413, "diam_m": 1.2, "obs": "DECLIVE_MDE; REPRESENTACAO_PRELIMINAR", "bacia": "B", "ID_LINK_ORIG": "D_B_02", "ID_LINK_SEG": "D_B_02_META_02_01", "META_ID": "META_02", "META_ORIG": "META_02", "SELECAO_REC": "CLIP_EXATO_POLIGONO_AUDITORIA", "COMP_REC_M": 52.301107981708547, "PERC_LINK_REC": 100.0, "X_IN_REC": 287974.8453236206, "Y_IN_REC": 9195458.5010902602, "X_OUT_REC": 287923.1117303858, "Y_OUT_REC": 9195450.8172613233 }, "geometry": { "type": "LineString", "coordinates": [ [ -34.920424203491756, -7.27447625936152 ], [ -34.920892898015424, -7.274543740855001 ] ] } }
]
}
