{
"type": "FeatureCollection",
"name": "trechos_metas_recortados",
"crs": { "type": "name", "properties": { "name": "urn:ogc:def:crs:OGC:1.3:CRS84" } },
"features": [
{ "type": "Feature", "properties": { "id_link": "L_A_0028", "node_in": "N_A_0044", "node_out": "N_A_0043", "classe": "COLETOR", "origem": "ColetorA4_F006", "comp_m": 411.23913105418467, "cota_in": 96.908012390136719, "cota_out": 88.613487243652344, "decl_pct": 2.0169591170037493, "diam_m": 0.6, "obs": "DECLIVE_MDE", "bacia": "A", "ID_LINK_ORIG": "L_A_0028", "ID_LINK_SEG": "L_A_0028_META_01_01", "META_ID": "META_01", "META_ORIG": "META_04", "SELECAO_REC": "CLIP_EXATO_POLIGONO_AUDITORIA", "COMP_REC_M": 6.5777581985968405, "PERC_LINK_REC": 1.5994971543042078, "X_IN_REC": 288654.51920641901, "Y_IN_REC": 9196153.9393750746, "X_OUT_REC": 288656.92407419643, "Y_OUT_REC": 9196160.0617531985 }, "geometry": { "type": "LineString", "coordinates": [ [ -34.9142437469173, -7.268215003972741 ], [ -34.914221738932568, -7.268159744840598 ] ] } },
{ "type": "Feature", "properties": { "id_link": "L_A_0079", "node_in": "N_A_0119", "node_out": "N_A_0120", "classe": "COLETOR", "origem": "ColetorA8_F010", "comp_m": 63.362494545413121, "cota_in": 40.287742614746094, "cota_out": 37.494678497314453, "decl_pct": 4.4080715847287202, "diam_m": 0.6, "obs": "DECLIVE_MDE", "bacia": "A", "ID_LINK_ORIG": "L_A_0079", "ID_LINK_SEG": "L_A_0079_META_01_01", "META_ID": "META_01", "META_ORIG": "META_04", "SELECAO_REC": "CLIP_EXATO_POLIGONO_AUDITORIA", "COMP_REC_M": 11.120971390271993, "PERC_LINK_REC": 17.551347165295176, "X_IN_REC": 287934.80204247957, "Y_IN_REC": 9196196.7071662676, "X_OUT_REC": 287933.28631590359, "Y_OUT_REC": 9196185.6899716333 }, "geometry": { "type": "LineString", "coordinates": [ [ -34.920758388370395, -7.267800790997605 ], [ -34.920772534846421, -7.267900336496054 ] ] } },
{ "type": "Feature", "properties": { "id_link": "L_A_0080", "node_in": "N_A_0120", "node_out": "N_A_0121", "classe": "COLETOR", "origem": "ColetorA8_F010", "comp_m": 2.1930451203399439, "cota_in": 37.494678497314453, "cota_out": 37.494678497314453, "decl_pct": 0.0, "diam_m": 0.6, "obs": "DIRECAO_ORIGINAL_COTA_IGUAL", "bacia": "A", "ID_LINK_ORIG": "L_A_0080", "ID_LINK_SEG": "L_A_0080_META_01_01", "META_ID": "META_01", "META_ORIG": "META_04", "SELECAO_REC": "CLIP_EXATO_POLIGONO_AUDITORIA", "COMP_REC_M": 2.1930451202606105, "PERC_LINK_REC": 100.0, "X_IN_REC": 287933.28631590359, "Y_IN_REC": 9196185.6899716333, "X_OUT_REC": 287932.98741604597, "Y_OUT_REC": 9196183.5173911918 }, "geometry": { "type": "LineString", "coordinates": [ [ -34.920772534846421, -7.267900336496054 ], [ -34.920775324519617, -7.267919966774623 ] ] } },
{ "type": "Feature", "properties": { "id_link": "L_A_0081", "node_in": "N_A_0122", "node_out": "N_A_0123", "classe": "COLETOR", "origem": "ColetorA8_F011", "comp_m": 147.5584743293287, "cota_in": 47.393653869628906, "cota_out": 39.380046844482422, "decl_pct": 5.4308009496366152, "diam_m": 0.6, "obs": "DECLIVE_MDE", "bacia": "A", "ID_LINK_ORIG": "L_A_0081", "ID_LINK_SEG": "L_A_0081_META_01_01", "META_ID": "META_01", "META_ORIG": "META_04", "SELECAO_REC": "CLIP_EXATO_POLIGONO_AUDITORIA", "COMP_REC_M": 10.686905014190931, "PERC_LINK_REC": 7.242488147679965, "X_IN_REC": 288004.85006540216, "Y_IN_REC": 9196196.340591412, "X_OUT_REC": 288002.98741604533, "Y_OUT_REC": 9196185.8172613233 }, "geometry": { "type": "LineString", "coordinates": [ [ -34.920124192700783, -7.26780679143984 ], [ -34.920141461093351, -7.267901858787499 ] ] } },
{ "type": "Feature", "properties": { "id_link": "L_A_0082", "node_in": "N_A_0124", "node_out": "N_A_0125", "classe": "COLETOR", "origem": "ColetorA8_F012", "comp_m": 145.58230691205034, "cota_in": 50.390205383300781, "cota_out": 42.040752410888672, "decl_pct": 5.7352113381856276, "diam_m": 0.6, "obs": "DECLIVE_MDE", "bacia": "A", "ID_LINK_ORIG": "L_A_0082", "ID_LINK_SEG": "L_A_0082_META_01_01", "META_ID": "META_01", "META_ORIG": "META_04", "SELECAO_REC": "CLIP_EXATO_POLIGONO_AUDITORIA", "COMP_REC_M": 6.0881244942761406, "PERC_LINK_REC": 4.181912365184921, "X_IN_REC": 288078.87412797892, "Y_IN_REC": 9196191.8404665999, "X_OUT_REC": 288077.98741604487, "Y_OUT_REC": 9196185.8172613233 }, "geometry": { "type": "LineString", "coordinates": [ [ -34.919454156654929, -7.267850313798509 ], [ -34.9194624160967, -7.267904734109243 ] ] } },
{ "type": "Feature", "properties": { "id_link": "L_A_0083", "node_in": "N_A_0126", "node_out": "N_A_0127", "classe": "COLETOR", "origem": "ColetorA8_F013", "comp_m": 148.64194906498153, "cota_in": 51.374828338623047, "cota_out": 45.812713623046875, "decl_pct": 3.7419549128386311, "diam_m": 0.6, "obs": "DECLIVE_MDE", "bacia": "A", "ID_LINK_ORIG": "L_A_0083", "ID_LINK_SEG": "L_A_0083_META_01_01", "META_ID": "META_01", "META_ORIG": "META_04", "SELECAO_REC": "CLIP_EXATO_POLIGONO_AUDITORIA", "COMP_REC_M": 8.3490936918277434, "PERC_LINK_REC": 5.6169161830486249, "X_IN_REC": 288149.25844106224, "Y_IN_REC": 9196187.561612092, "X_OUT_REC": 288147.91895732796, "Y_OUT_REC": 9196179.3206686508 }, "geometry": { "type": "LineString", "coordinates": [ [ -34.918817065797811, -7.267891695283073 ], [ -34.918829509640666, -7.267966148301547 ] ] } },
{ "type": "Feature", "properties": { "id_link": "L_A_0084", "node_in": "N_A_0128", "node_out": "N_A_0129", "classe": "COLETOR", "origem": "ColetorA8_F014", "comp_m": 150.75640723849509, "cota_in": 53.586463928222656, "cota_out": 49.535263061523438, "decl_pct": 2.6872495444192035, "diam_m": 0.6, "obs": "DECLIVE_MDE", "bacia": "A", "ID_LINK_ORIG": "L_A_0084", "ID_LINK_SEG": "L_A_0084_META_01_01", "META_ID": "META_01", "META_ORIG": "META_04", "SELECAO_REC": "CLIP_EXATO_POLIGONO_AUDITORIA", "COMP_REC_M": 8.1052904692810408, "PERC_LINK_REC": 5.3764152501076357, "X_IN_REC": 288222.29279356007, "Y_IN_REC": 9196183.1176173184, "X_OUT_REC": 288221.06856486655, "Y_OUT_REC": 9196175.1053144224 }, "geometry": { "type": "LineString", "coordinates": [ [ -34.918155987620061, -7.267934670405558 ], [ -34.918167379078099, -7.268007060801364 ] ] } },
{ "type": "Feature", "properties": { "id_link": "L_A_0085", "node_in": "N_A_0130", "node_out": "N_A_0131", "classe": "COLETOR", "origem": "ColetorA8_F015", "comp_m": 146.70019034838558, "cota_in": 53.165458679199219, "cota_out": 51.665386199951172, "decl_pct": 1.0225429671806523, "diam_m": 0.6, "obs": "DECLIVE_MDE", "bacia": "A", "ID_LINK_ORIG": "L_A_0085", "ID_LINK_SEG": "L_A_0085_META_01_01", "META_ID": "META_01", "META_ORIG": "META_04", "SELECAO_REC": "CLIP_EXATO_POLIGONO_AUDITORIA", "COMP_REC_M": 5.7178905579597146, "PERC_LINK_REC": 3.8976708512686353, "X_IN_REC": 288289.40308745141, "Y_IN_REC": 9196179.1942582186, "X_OUT_REC": 288288.45030167117, "Y_OUT_REC": 9196173.5563089736 }, "geometry": { "type": "LineString", "coordinates": [ [ -34.917548525210997, -7.267972710806504 ], [ -34.917557367893266, -7.26802364567326 ] ] } },
{ "type": "Feature", "properties": { "id_link": "L_A_0086", "node_in": "N_A_0132", "node_out": "N_A_0131", "classe": "COLETOR", "origem": "ColetorA8_F015", "comp_m": 2.7778850103784092, "cota_in": 51.704093933105469, "cota_out": 51.665386199951172, "decl_pct": 1.3934246021588932, "diam_m": 0.6, "obs": "DECLIVE_MDE", "bacia": "A", "ID_LINK_ORIG": "L_A_0086", "ID_LINK_SEG": "L_A_0086_META_01_01", "META_ID": "META_01", "META_ORIG": "META_04", "SELECAO_REC": "CLIP_EXATO_POLIGONO_AUDITORIA", "COMP_REC_M": 2.7778850103881085, "PERC_LINK_REC": 100.0, "X_IN_REC": 288287.98741604749, "Y_IN_REC": 9196170.8172613233, "X_OUT_REC": 288288.45030167117, "Y_OUT_REC": 9196173.5563089736 }, "geometry": { "type": "LineString", "coordinates": [ [ -34.917561663876441, -7.268048391022923 ], [ -34.917557367893266, -7.26802364567326 ] ] } },
{ "type": "Feature", "properties": { "id_link": "L_A_0087", "node_in": "N_A_0133", "node_out": "N_A_0134", "classe": "COLETOR", "origem": "ColetorA8_F016", "comp_m": 144.47449399160928, "cota_in": 55.444015502929688, "cota_out": 54.984043121337891, "decl_pct": 0.31837618453158312, "diam_m": 0.6, "obs": "DECLIVE_MDE", "bacia": "A", "ID_LINK_ORIG": "L_A_0087", "ID_LINK_SEG": "L_A_0087_META_01_01", "META_ID": "META_01", "META_ORIG": "META_04", "SELECAO_REC": "CLIP_EXATO_POLIGONO_AUDITORIA", "COMP_REC_M": 4.6746145450285255, "PERC_LINK_REC": 3.2355984893097611, "X_IN_REC": 288364.44614647719, "Y_IN_REC": 9196175.4283067007, "X_OUT_REC": 288363.77055701439, "Y_OUT_REC": 9196170.8027688917 }, "geometry": { "type": "LineString", "coordinates": [ [ -34.916869233586752, -7.268009631003831 ], [ -34.916875527663912, -7.268051423541178 ] ] } },
{ "type": "Feature", "properties": { "id_link": "L_A_0088", "node_in": "N_A_0134", "node_out": "N_A_0135", "classe": "COLETOR", "origem": "ColetorA8_F016", "comp_m": 3.0459747129136092, "cota_in": 54.984043121337891, "cota_out": 53.671772003173828, "decl_pct": 43.082140918655796, "diam_m": 0.6, "obs": "DECLIVE_MDE", "bacia": "A", "ID_LINK_ORIG": "L_A_0088", "ID_LINK_SEG": "L_A_0088_META_01_01", "META_ID": "META_01", "META_ORIG": "META_04", "SELECAO_REC": "CLIP_EXATO_POLIGONO_AUDITORIA", "COMP_REC_M": 3.0459747130112329, "PERC_LINK_REC": 100.0, "X_IN_REC": 288363.77055701439, "Y_IN_REC": 9196170.8027688917, "X_OUT_REC": 288363.13198364154, "Y_OUT_REC": 9196167.8244831432 }, "geometry": { "type": "LineString", "coordinates": [ [ -34.916875527663912, -7.268051423541178 ], [ -34.916881423452054, -7.268078325076945 ] ] } },
{ "type": "Feature", "properties": { "id_link": "L_A_0089", "node_in": "N_A_0136", "node_out": "N_A_0135", "classe": "COLETOR", "origem": "ColetorA8_F016", "comp_m": 5.2432671474634018, "cota_in": 55.702465057373047, "cota_out": 53.671772003173828, "decl_pct": 38.729536319384977, "diam_m": 0.6, "obs": "DECLIVE_MDE", "bacia": "A", "ID_LINK_ORIG": "L_A_0089", "ID_LINK_SEG": "L_A_0089_META_01_01", "META_ID": "META_01", "META_ORIG": "META_04", "SELECAO_REC": "CLIP_EXATO_POLIGONO_AUDITORIA", "COMP_REC_M": 5.2432671474203607, "PERC_LINK_REC": 100.0, "X_IN_REC": 288362.16270769649, "Y_IN_REC": 9196162.6715854611, "X_OUT_REC": 288363.13198364154, "Y_OUT_REC": 9196167.8244831432 }, "geometry": { "type": "LineString", "coordinates": [ [ -34.916890396773695, -7.268124874107394 ], [ -34.916881423452054, -7.268078325076945 ] ] } },
{ "type": "Feature", "properties": { "id_link": "L_A_0090", "node_in": "N_A_0137", "node_out": "N_A_0138", "classe": "COLETOR", "origem": "ColetorA8_F017", "comp_m": 153.42034742871758, "cota_in": 60.202003479003906, "cota_out": 58.254493713378906, "decl_pct": 1.2693947043301119, "diam_m": 0.6, "obs": "DECLIVE_MDE", "bacia": "A", "ID_LINK_ORIG": "L_A_0090", "ID_LINK_SEG": "L_A_0090_META_01_01", "META_ID": "META_01", "META_ORIG": "META_04", "SELECAO_REC": "CLIP_EXATO_POLIGONO_AUDITORIA", "COMP_REC_M": 8.7217736472406919, "PERC_LINK_REC": 5.6848871700674026, "X_IN_REC": 288434.53195931885, "Y_IN_REC": 9196170.9886586852, "X_OUT_REC": 288433.32824773702, "Y_OUT_REC": 9196162.3503478561 }, "geometry": { "type": "LineString", "coordinates": [ [ -34.916234850088593, -7.268052451247824 ], [ -34.916246079489198, -7.268130502148892 ] ] } },
{ "type": "Feature", "properties": { "id_link": "L_A_0091", "node_in": "N_A_0138", "node_out": "N_A_0139", "classe": "COLETOR", "origem": "ColetorA8_F017", "comp_m": 2.469575675747997, "cota_in": 58.254493713378906, "cota_out": 58.254493713378906, "decl_pct": 0.0, "diam_m": 0.6, "obs": "DIRECAO_ORIGINAL_COTA_IGUAL", "bacia": "A", "ID_LINK_ORIG": "L_A_0091", "ID_LINK_SEG": "L_A_0091_META_01_01", "META_ID": "META_01", "META_ORIG": "META_04", "SELECAO_REC": "CLIP_EXATO_POLIGONO_AUDITORIA", "COMP_REC_M": 2.4695756757881639, "PERC_LINK_REC": 100.0, "X_IN_REC": 288433.32824773702, "Y_IN_REC": 9196162.3503478561, "X_OUT_REC": 288432.98741604749, "Y_OUT_REC": 9196159.9044047296 }, "geometry": { "type": "LineString", "coordinates": [ [ -34.916246079489198, -7.268130502148892 ], [ -34.916249259102358, -7.268152602310177 ] ] } },
{ "type": "Feature", "properties": { "id_link": "L_A_0092", "node_in": "N_A_0141", "node_out": "N_A_0140", "classe": "COLETOR", "origem": "ColetorA8_F018", "comp_m": 156.99656466527571, "cota_in": 70.903800964355469, "cota_out": 65.1036376953125, "decl_pct": 3.6944523476734652, "diam_m": 0.6, "obs": "DECLIVE_MDE", "bacia": "A", "ID_LINK_ORIG": "L_A_0092", "ID_LINK_SEG": "L_A_0092_META_01_01", "META_ID": "META_01", "META_ORIG": "META_04", "SELECAO_REC": "CLIP_EXATO_POLIGONO_AUDITORIA", "COMP_REC_M": 7.6228239516398499, "PERC_LINK_REC": 4.855408121760254, "X_IN_REC": 288504.50943573506, "Y_IN_REC": 9196157.6217908822, "X_OUT_REC": 288505.64938749769, "Y_OUT_REC": 9196165.1588960942 }, "geometry": { "type": "LineString", "coordinates": [ [ -34.91560178912097, -7.268175975443592 ], [ -34.915591179290786, -7.268107877807112 ] ] } },
{ "type": "Feature", "properties": { "id_link": "L_A_0093", "node_in": "N_A_0143", "node_out": "N_A_0142", "classe": "COLETOR", "origem": "ColetorA8_F019", "comp_m": 157.46900508565847, "cota_in": 84.388076782226563, "cota_out": 70.572288513183594, "decl_pct": 8.7736556546652391, "diam_m": 0.6, "obs": "DECLIVE_MDE", "bacia": "A", "ID_LINK_ORIG": "L_A_0093", "ID_LINK_SEG": "L_A_0093_META_01_01", "META_ID": "META_01", "META_ORIG": "META_04", "SELECAO_REC": "CLIP_EXATO_POLIGONO_AUDITORIA", "COMP_REC_M": 6.6803722446431317, "PERC_LINK_REC": 4.2423410505510004, "X_IN_REC": 288577.93060500408, "Y_IN_REC": 9196155.3545848299, "X_OUT_REC": 288578.9936003848, "Y_OUT_REC": 9196161.9498417731 }, "geometry": { "type": "LineString", "coordinates": [ [ -34.914937123406439, -7.268199280998443 ], [ -34.914927246501463, -7.268139695415752 ] ] } },
{ "type": "Feature", "properties": { "id_link": "L_A_0098", "node_in": "N_A_0150", "node_out": "N_A_0151", "classe": "COLETOR", "origem": "ColetorA8_F022", "comp_m": 90.052923049683244, "cota_in": 30.225093841552734, "cota_out": 27.665307998657227, "decl_pct": 2.8425349852144657, "diam_m": 0.6, "obs": "DECLIVE_MDE", "bacia": "A", "ID_LINK_ORIG": "L_A_0098", "ID_LINK_SEG": "L_A_0098_META_01_01", "META_ID": "META_01", "META_ORIG": "META_04", "SELECAO_REC": "CLIP_EXATO_POLIGONO_AUDITORIA", "COMP_REC_M": 7.062425928159346, "PERC_LINK_REC": 7.8425282478205816, "X_IN_REC": 287799.77563875052, "Y_IN_REC": 9196178.7504238728, "X_OUT_REC": 287800.07516080653, "Y_OUT_REC": 9196185.8064954802 }, "geometry": { "type": "LineString", "coordinates": [ [ -34.921981597211364, -7.267957952450015 ], [ -34.921978614146383, -7.267894171854705 ] ] } },
{ "type": "Feature", "properties": { "id_link": "L_A_0101", "node_in": "N_A_0121", "node_out": "N_A_0154", "classe": "COLETOR", "origem": "ColetorA8_F025", "comp_m": 254.24079878134899, "cota_in": 37.494678497314453, "cota_out": 31.364458084106445, "decl_pct": 2.4111867342267486, "diam_m": 0.6, "obs": "DECLIVE_MDE", "bacia": "A", "ID_LINK_ORIG": "L_A_0101", "ID_LINK_SEG": "L_A_0101_META_01_01", "META_ID": "META_01", "META_ORIG": "META_04", "SELECAO_REC": "CLIP_EXATO_POLIGONO_AUDITORIA", "COMP_REC_M": 7.0441364537075959, "PERC_LINK_REC": 2.7706554130850582, "X_IN_REC": 287932.98741604597, "Y_IN_REC": 9196183.5173911918, "X_OUT_REC": 287931.56567079108, "Y_OUT_REC": 9196176.6182246618 }, "geometry": { "type": "LineString", "coordinates": [ [ -34.920775324519617, -7.267919966774623 ], [ -34.92078846192053, -7.267982285837806 ] ] } },
{ "type": "Feature", "properties": { "id_link": "L_A_0102", "node_in": "N_A_0123", "node_out": "N_A_0155", "classe": "COLETOR", "origem": "ColetorA8_F026", "comp_m": 314.09939227525138, "cota_in": 39.380046844482422, "cota_out": 36.293277740478516, "decl_pct": 0.98273641398799993, "diam_m": 0.6, "obs": "DECLIVE_MDE", "bacia": "A", "ID_LINK_ORIG": "L_A_0102", "ID_LINK_SEG": "L_A_0102_META_01_01", "META_ID": "META_01", "META_ORIG": "META_04", "SELECAO_REC": "CLIP_EXATO_POLIGONO_AUDITORIA", "COMP_REC_M": 10.516817978610252, "PERC_LINK_REC": 3.348245248878833, "X_IN_REC": 288002.98741604533, "Y_IN_REC": 9196185.8172613233, "X_OUT_REC": 288000.97226758319, "Y_OUT_REC": 9196175.4953120369 }, "geometry": { "type": "LineString", "coordinates": [ [ -34.920141461093351, -7.267901858787499 ], [ -34.920160102481731, -7.267995099651687 ] ] } },
{ "type": "Feature", "properties": { "id_link": "L_A_0104", "node_in": "N_A_0158", "node_out": "N_A_0159", "classe": "COLETOR", "origem": "ColetorA8_F027", "comp_m": 234.9823844271132, "cota_in": 42.988147735595703, "cota_out": 42.040752410888672, "decl_pct": 0.4031771687978995, "diam_m": 0.6, "obs": "DECLIVE_MDE", "bacia": "A", "ID_LINK_ORIG": "L_A_0104", "ID_LINK_SEG": "L_A_0104_META_01_01", "META_ID": "META_01", "META_ORIG": "META_04", "SELECAO_REC": "CLIP_EXATO_POLIGONO_AUDITORIA", "COMP_REC_M": 9.7276939052124778, "PERC_LINK_REC": 4.1397545305082843, "X_IN_REC": 288075.55220370466, "Y_IN_REC": 9196173.9637291133, "X_OUT_REC": 288077.50979526748, "Y_OUT_REC": 9196183.4924154859 }, "geometry": { "type": "LineString", "coordinates": [ [ -34.919484919378363, -7.268011805595744 ], [ -34.919466829687842, -7.267925734153736 ] ] } },
{ "type": "Feature", "properties": { "id_link": "L_A_0105", "node_in": "N_A_0159", "node_out": "N_A_0125", "classe": "COLETOR", "origem": "ColetorA8_F027", "comp_m": 2.3734004666464643, "cota_in": 42.040752410888672, "cota_out": 42.040752410888672, "decl_pct": 0.0, "diam_m": 0.6, "obs": "DIRECAO_ORIGINAL_COTA_IGUAL", "bacia": "A", "ID_LINK_ORIG": "L_A_0105", "ID_LINK_SEG": "L_A_0105_META_01_01", "META_ID": "META_01", "META_ORIG": "META_04", "SELECAO_REC": "CLIP_EXATO_POLIGONO_AUDITORIA", "COMP_REC_M": 2.3734004665878961, "PERC_LINK_REC": 100.0, "X_IN_REC": 288077.50979526748, "Y_IN_REC": 9196183.4924154859, "X_OUT_REC": 288077.98741604487, "Y_OUT_REC": 9196185.8172613233 }, "geometry": { "type": "LineString", "coordinates": [ [ -34.919466829687842, -7.267925734153736 ], [ -34.9194624160967, -7.267904734109243 ] ] } },
{ "type": "Feature", "properties": { "id_link": "L_A_0107", "node_in": "N_A_0161", "node_out": "N_A_0127", "classe": "COLETOR", "origem": "ColetorA8_F028", "comp_m": 265.39056756100257, "cota_in": 46.579673767089844, "cota_out": 45.812713623046875, "decl_pct": 0.28899299289025243, "diam_m": 0.6, "obs": "DECLIVE_MDE", "bacia": "A", "ID_LINK_ORIG": "L_A_0107", "ID_LINK_SEG": "L_A_0107_META_01_01", "META_ID": "META_01", "META_ORIG": "META_04", "SELECAO_REC": "CLIP_EXATO_POLIGONO_AUDITORIA", "COMP_REC_M": 9.6900147587553818, "PERC_LINK_REC": 3.6512280175628993, "X_IN_REC": 288146.18790623284, "Y_IN_REC": 9196169.786527466, "X_OUT_REC": 288147.91895732796, "Y_OUT_REC": 9196179.3206686508 }, "geometry": { "type": "LineString", "coordinates": [ [ -34.918845548345288, -7.268052277796706 ], [ -34.918829509640666, -7.267966148301547 ] ] } },
{ "type": "Feature", "properties": { "id_link": "L_A_0108", "node_in": "N_A_0129", "node_out": "N_A_0162", "classe": "COLETOR", "origem": "ColetorA8_F029", "comp_m": 312.22875723755129, "cota_in": 49.535263061523438, "cota_out": 49.256107330322266, "decl_pct": 0.089407437569494388, "diam_m": 0.6, "obs": "DECLIVE_MDE", "bacia": "A", "ID_LINK_ORIG": "L_A_0108", "ID_LINK_SEG": "L_A_0108_META_01_01", "META_ID": "META_01", "META_ORIG": "META_04", "SELECAO_REC": "CLIP_EXATO_POLIGONO_AUDITORIA", "COMP_REC_M": 9.8101383911284223, "PERC_LINK_REC": 3.1419714436056791, "X_IN_REC": 288221.06856486655, "Y_IN_REC": 9196175.1053144224, "X_OUT_REC": 288219.24516881478, "Y_OUT_REC": 9196165.4661214016 }, "geometry": { "type": "LineString", "coordinates": [ [ -34.918167379078099, -7.268007060801364 ], [ -34.918184257782364, -7.268094136563258 ] ] } },
{ "type": "Feature", "properties": { "id_link": "L_A_0109", "node_in": "N_A_0163", "node_out": "N_A_0132", "classe": "COLETOR", "origem": "ColetorA8_F030", "comp_m": 246.04929866147179, "cota_in": 54.474021911621094, "cota_out": 51.704093933105469, "decl_pct": 1.1257613793594448, "diam_m": 0.6, "obs": "DECLIVE_MDE", "bacia": "A", "ID_LINK_ORIG": "L_A_0109", "ID_LINK_SEG": "L_A_0109_META_01_01", "META_ID": "META_01", "META_ORIG": "META_04", "SELECAO_REC": "CLIP_EXATO_POLIGONO_AUDITORIA", "COMP_REC_M": 9.4581421231624319, "PERC_LINK_REC": 3.8440028785341891, "X_IN_REC": 288286.38671888929, "Y_IN_REC": 9196161.4955543429, "X_OUT_REC": 288287.98741604749, "Y_OUT_REC": 9196170.8172613233 }, "geometry": { "type": "LineString", "coordinates": [ [ -34.917576513993225, -7.268132605050122 ], [ -34.917561663876441, -7.268048391022923 ] ] } },
{ "type": "Feature", "properties": { "id_link": "L_A_0110", "node_in": "N_A_0164", "node_out": "N_A_0136", "classe": "COLETOR", "origem": "ColetorA8_F031", "comp_m": 234.55342982964899, "cota_in": 56.054256439208984, "cota_out": 55.702465057373047, "decl_pct": 0.14998347374047605, "diam_m": 0.6, "obs": "DECLIVE_MDE", "bacia": "A", "ID_LINK_ORIG": "L_A_0110", "ID_LINK_SEG": "L_A_0110_META_01_01", "META_ID": "META_01", "META_ORIG": "META_04", "SELECAO_REC": "CLIP_EXATO_POLIGONO_AUDITORIA", "COMP_REC_M": 5.6717448827456485, "PERC_LINK_REC": 2.4181035795836325, "X_IN_REC": 288361.30474634125, "Y_IN_REC": 9196157.0651077498, "X_OUT_REC": 288362.16270769649, "Y_OUT_REC": 9196162.6715854611 }, "geometry": { "type": "LineString", "coordinates": [ [ -34.916898379650078, -7.268175528108552 ], [ -34.916890396773695, -7.268124874107394 ] ] } },
{ "type": "Feature", "properties": { "id_link": "L_A_0111", "node_in": "N_A_0136", "node_out": "N_A_0135", "classe": "COLETOR", "origem": "ColetorA8_F031", "comp_m": 5.2432671474634018, "cota_in": 55.702465057373047, "cota_out": 53.671772003173828, "decl_pct": 38.729536319384977, "diam_m": 0.6, "obs": "DECLIVE_MDE", "bacia": "A", "ID_LINK_ORIG": "L_A_0111", "ID_LINK_SEG": "L_A_0111_META_01_01", "META_ID": "META_01", "META_ORIG": "META_04", "SELECAO_REC": "CLIP_EXATO_POLIGONO_AUDITORIA", "COMP_REC_M": 5.2432671474203607, "PERC_LINK_REC": 100.0, "X_IN_REC": 288362.16270769649, "Y_IN_REC": 9196162.6715854611, "X_OUT_REC": 288363.13198364154, "Y_OUT_REC": 9196167.8244831432 }, "geometry": { "type": "LineString", "coordinates": [ [ -34.916890396773695, -7.268124874107394 ], [ -34.916881423452054, -7.268078325076945 ] ] } },
{ "type": "Feature", "properties": { "id_link": "L_A_0112", "node_in": "N_A_0134", "node_out": "N_A_0135", "classe": "COLETOR", "origem": "ColetorA8_F031", "comp_m": 3.0459747129136092, "cota_in": 54.984043121337891, "cota_out": 53.671772003173828, "decl_pct": 43.082140918655796, "diam_m": 0.6, "obs": "DECLIVE_MDE", "bacia": "A", "ID_LINK_ORIG": "L_A_0112", "ID_LINK_SEG": "L_A_0112_META_01_01", "META_ID": "META_01", "META_ORIG": "META_04", "SELECAO_REC": "CLIP_EXATO_POLIGONO_AUDITORIA", "COMP_REC_M": 3.0459747130112329, "PERC_LINK_REC": 100.0, "X_IN_REC": 288363.77055701439, "Y_IN_REC": 9196170.8027688917, "X_OUT_REC": 288363.13198364154, "Y_OUT_REC": 9196167.8244831432 }, "geometry": { "type": "LineString", "coordinates": [ [ -34.916875527663912, -7.268051423541178 ], [ -34.916881423452054, -7.268078325076945 ] ] } },
{ "type": "Feature", "properties": { "id_link": "L_A_0114", "node_in": "N_A_0167", "node_out": "N_A_0139", "classe": "COLETOR", "origem": "ColetorA8_F032", "comp_m": 158.34448518582582, "cota_in": 62.374935150146484, "cota_out": 58.254493713378906, "decl_pct": 2.6022007851628159, "diam_m": 0.6, "obs": "DECLIVE_MDE", "bacia": "A", "ID_LINK_ORIG": "L_A_0114", "ID_LINK_SEG": "L_A_0114_META_01_01", "META_ID": "META_01", "META_ORIG": "META_04", "SELECAO_REC": "CLIP_EXATO_POLIGONO_AUDITORIA", "COMP_REC_M": 7.0948176945232007, "PERC_LINK_REC": 4.4806219087434895, "X_IN_REC": 288431.93333366513, "Y_IN_REC": 9196152.8883268759, "X_OUT_REC": 288432.98741604749, "Y_OUT_REC": 9196159.9044047296 }, "geometry": { "type": "LineString", "coordinates": [ [ -34.916259071604678, -7.268215992703641 ], [ -34.916249259102358, -7.268152602310177 ] ] } },
{ "type": "Feature", "properties": { "id_link": "L_A_0116", "node_in": "N_A_0170", "node_out": "N_A_0141", "classe": "COLETOR", "origem": "ColetorA8_F033", "comp_m": 85.497241676239454, "cota_in": 73.232978820800781, "cota_out": 70.903800964355469, "decl_pct": 2.724272515440243, "diam_m": 0.6, "obs": "DECLIVE_MDE", "bacia": "A", "ID_LINK_ORIG": "L_A_0116", "ID_LINK_SEG": "L_A_0116_META_01_01", "META_ID": "META_01", "META_ORIG": "META_04", "SELECAO_REC": "CLIP_EXATO_POLIGONO_AUDITORIA", "COMP_REC_M": 8.7574955902077125, "PERC_LINK_REC": 10.243015351737943, "X_IN_REC": 288503.0517404555, "Y_IN_REC": 9196148.9864649773, "X_OUT_REC": 288504.50943573506, "Y_OUT_REC": 9196157.6217908822 }, "geometry": { "type": "LineString", "coordinates": [ [ -34.915615317869516, -7.268253989685344 ], [ -34.91560178912097, -7.268175975443592 ] ] } },
{ "type": "Feature", "properties": { "id_link": "L_A_0117", "node_in": "N_A_0171", "node_out": "N_A_0143", "classe": "COLETOR", "origem": "ColetorA8_F034", "comp_m": 83.065885040592548, "cota_in": 85.417755126953125, "cota_out": 84.388076782226563, "decl_pct": 1.2395923359191086, "diam_m": 0.6, "obs": "DECLIVE_MDE", "bacia": "A", "ID_LINK_ORIG": "L_A_0117", "ID_LINK_SEG": "L_A_0117_META_01_01", "META_ID": "META_01", "META_ORIG": "META_04", "SELECAO_REC": "CLIP_EXATO_POLIGONO_AUDITORIA", "COMP_REC_M": 9.6568802242799947, "PERC_LINK_REC": 11.625567126102599, "X_IN_REC": 288576.41562449984, "Y_IN_REC": 9196145.8172807172, "X_OUT_REC": 288577.93060500408, "Y_OUT_REC": 9196155.3545848299 }, "geometry": { "type": "LineString", "coordinates": [ [ -34.914951205250134, -7.268285447680842 ], [ -34.914937123406439, -7.268199280998443 ] ] } },
{ "type": "Feature", "properties": { "id_link": "L_A_0119", "node_in": "N_A_0044", "node_out": "N_A_0174", "classe": "COLETOR", "origem": "ColetorA8_F035", "comp_m": 46.324798006313344, "cota_in": 96.908012390136719, "cota_out": 95.080963134765625, "decl_pct": 3.9439983205584528, "diam_m": 0.6, "obs": "DECLIVE_MDE", "bacia": "A", "ID_LINK_ORIG": "L_A_0119", "ID_LINK_SEG": "L_A_0119_META_01_01", "META_ID": "META_01", "META_ORIG": "META_04", "SELECAO_REC": "CLIP_EXATO_POLIGONO_AUDITORIA", "COMP_REC_M": 9.2622893052166457, "PERC_LINK_REC": 19.994235709190505, "X_IN_REC": 288654.51920641901, "Y_IN_REC": 9196153.9393750746, "X_OUT_REC": 288650.0670383423, "Y_OUT_REC": 9196145.817293901 }, "geometry": { "type": "LineString", "coordinates": [ [ -34.9142437469173, -7.268215003972741 ], [ -34.914284367663605, -7.268288263707576 ] ] } },
{ "type": "Feature", "properties": { "id_link": "L_A_0146", "node_in": "N_A_0028", "node_out": "N_A_0044", "classe": "TRONCO", "origem": "TroncoA2_F001", "comp_m": 70.002659595246499, "cota_in": 102.05509185791016, "cota_out": 96.908012390136719, "decl_pct": 7.3526913084927248, "diam_m": 0.8, "obs": "DECLIVE_MDE", "bacia": "A", "ID_LINK_ORIG": "L_A_0146", "ID_LINK_SEG": "L_A_0146_META_01_01", "META_ID": "META_01", "META_ORIG": "META_04", "SELECAO_REC": "CLIP_EXATO_POLIGONO_AUDITORIA", "COMP_REC_M": 8.291134408052022, "PERC_LINK_REC": 11.844027721164121, "X_IN_REC": 288662.31078242022, "Y_IN_REC": 9196151.1048992518, "X_OUT_REC": 288654.51920641901, "Y_OUT_REC": 9196153.9393750746 }, "geometry": { "type": "LineString", "coordinates": [ [ -34.914173310738796, -7.26824092769524 ], [ -34.9142437469173, -7.268215003972741 ] ] } },
{ "type": "Feature", "properties": { "id_link": "L_A_0147", "node_in": "N_A_0044", "node_out": "N_A_0143", "classe": "TRONCO", "origem": "TroncoA2_F001", "comp_m": 76.601675473318721, "cota_in": 96.908012390136719, "cota_out": 84.388076782226563, "decl_pct": 16.344205959660766, "diam_m": 0.8, "obs": "DECLIVE_MDE", "bacia": "A", "ID_LINK_ORIG": "L_A_0147", "ID_LINK_SEG": "L_A_0147_META_01_01", "META_ID": "META_01", "META_ORIG": "META_04", "SELECAO_REC": "CLIP_EXATO_POLIGONO_AUDITORIA", "COMP_REC_M": 76.601675473493302, "PERC_LINK_REC": 100.0, "X_IN_REC": 288654.51920641901, "Y_IN_REC": 9196153.9393750746, "X_OUT_REC": 288577.93060500408, "Y_OUT_REC": 9196155.3545848299 }, "geometry": { "type": "LineString", "coordinates": [ [ -34.9142437469173, -7.268215003972741 ], [ -34.914937123406439, -7.268199280998443 ] ] } },
{ "type": "Feature", "properties": { "id_link": "L_A_0148", "node_in": "N_A_0143", "node_out": "N_A_0141", "classe": "TRONCO", "origem": "TroncoA2_F001", "comp_m": 73.480666203004048, "cota_in": 84.388076782226563, "cota_out": 70.903800964355469, "decl_pct": 18.35078057215522, "diam_m": 0.8, "obs": "DECLIVE_MDE", "bacia": "A", "ID_LINK_ORIG": "L_A_0148", "ID_LINK_SEG": "L_A_0148_META_01_01", "META_ID": "META_01", "META_ORIG": "META_04", "SELECAO_REC": "CLIP_EXATO_POLIGONO_AUDITORIA", "COMP_REC_M": 73.480666202945613, "PERC_LINK_REC": 100.0, "X_IN_REC": 288577.93060500408, "Y_IN_REC": 9196155.3545848299, "X_OUT_REC": 288504.50943573506, "Y_OUT_REC": 9196157.6217908822 }, "geometry": { "type": "LineString", "coordinates": [ [ -34.914937123406439, -7.268199280998443 ], [ -34.915344019698892, -7.268193379142982 ], [ -34.91560178912097, -7.268175975443592 ] ] } },
{ "type": "Feature", "properties": { "id_link": "L_A_0149", "node_in": "N_A_0141", "node_out": "N_A_0138", "classe": "TRONCO", "origem": "TroncoA2_F001", "comp_m": 71.339873698235152, "cota_in": 70.903800964355469, "cota_out": 58.254493713378906, "decl_pct": 17.731048003368542, "diam_m": 0.8, "obs": "DECLIVE_MDE", "bacia": "A", "ID_LINK_ORIG": "L_A_0149", "ID_LINK_SEG": "L_A_0149_META_01_01", "META_ID": "META_01", "META_ORIG": "META_04", "SELECAO_REC": "CLIP_EXATO_POLIGONO_AUDITORIA", "COMP_REC_M": 71.339873698002904, "PERC_LINK_REC": 100.0, "X_IN_REC": 288504.50943573506, "Y_IN_REC": 9196157.6217908822, "X_OUT_REC": 288433.32824773702, "Y_OUT_REC": 9196162.3503478561 }, "geometry": { "type": "LineString", "coordinates": [ [ -34.91560178912097, -7.268175975443592 ], [ -34.91606814496766, -7.268145114708735 ], [ -34.916246079489198, -7.268130502148892 ] ] } },
{ "type": "Feature", "properties": { "id_link": "L_A_0150", "node_in": "N_A_0138", "node_out": "N_A_0135", "classe": "TRONCO", "origem": "TroncoA2_F001", "comp_m": 70.409386093388392, "cota_in": 58.254493713378906, "cota_out": 53.671772003173828, "decl_pct": 6.5086801128001968, "diam_m": 0.8, "obs": "DECLIVE_MDE", "bacia": "A", "ID_LINK_ORIG": "L_A_0150", "ID_LINK_SEG": "L_A_0150_META_01_01", "META_ID": "META_01", "META_ORIG": "META_04", "SELECAO_REC": "CLIP_EXATO_POLIGONO_AUDITORIA", "COMP_REC_M": 70.409386093794609, "PERC_LINK_REC": 100.0, "X_IN_REC": 288433.32824773702, "Y_IN_REC": 9196162.3503478561, "X_OUT_REC": 288363.13198364154, "Y_OUT_REC": 9196167.8244831432 }, "geometry": { "type": "LineString", "coordinates": [ [ -34.916246079489198, -7.268130502148892 ], [ -34.916881423452054, -7.268078325076945 ] ] } },
{ "type": "Feature", "properties": { "id_link": "L_A_0151", "node_in": "N_A_0135", "node_out": "N_A_0131", "classe": "TRONCO", "origem": "TroncoA2_F001", "comp_m": 74.903780146665753, "cota_in": 53.671772003173828, "cota_out": 51.665386199951172, "decl_pct": 2.67861755347199, "diam_m": 0.8, "obs": "DECLIVE_MDE", "bacia": "A", "ID_LINK_ORIG": "L_A_0151", "ID_LINK_SEG": "L_A_0151_META_01_01", "META_ID": "META_01", "META_ORIG": "META_04", "SELECAO_REC": "CLIP_EXATO_POLIGONO_AUDITORIA", "COMP_REC_M": 74.903780146142822, "PERC_LINK_REC": 100.0, "X_IN_REC": 288363.13198364154, "Y_IN_REC": 9196167.8244831432, "X_OUT_REC": 288288.45030167117, "Y_OUT_REC": 9196173.5563089736 }, "geometry": { "type": "LineString", "coordinates": [ [ -34.916881423452054, -7.268078325076945 ], [ -34.917542207164281, -7.268024057849967 ], [ -34.917557367893266, -7.26802364567326 ] ] } },
{ "type": "Feature", "properties": { "id_link": "L_A_0152", "node_in": "N_A_0131", "node_out": "N_A_0129", "classe": "TRONCO", "origem": "TroncoA2_F001", "comp_m": 67.399539113428176, "cota_in": 51.665386199951172, "cota_out": 49.535263061523438, "decl_pct": 3.1604416980402532, "diam_m": 0.8, "obs": "DECLIVE_MDE", "bacia": "A", "ID_LINK_ORIG": "L_A_0152", "ID_LINK_SEG": "L_A_0152_META_01_01", "META_ID": "META_01", "META_ORIG": "META_04", "SELECAO_REC": "CLIP_EXATO_POLIGONO_AUDITORIA", "COMP_REC_M": 67.399539113311789, "PERC_LINK_REC": 100.0, "X_IN_REC": 288288.45030167117, "Y_IN_REC": 9196173.5563089736, "X_OUT_REC": 288221.06856486655, "Y_OUT_REC": 9196175.1053144224 }, "geometry": { "type": "LineString", "coordinates": [ [ -34.917557367893266, -7.26802364567326 ], [ -34.918167379078099, -7.268007060801364 ] ] } },
{ "type": "Feature", "properties": { "id_link": "L_A_0153", "node_in": "N_A_0129", "node_out": "N_A_0127", "classe": "TRONCO", "origem": "TroncoA2_F001", "comp_m": 73.279346938339074, "cota_in": 49.535263061523438, "cota_out": 45.812713623046875, "decl_pct": 5.0799435229804963, "diam_m": 0.8, "obs": "DECLIVE_MDE", "bacia": "A", "ID_LINK_ORIG": "L_A_0153", "ID_LINK_SEG": "L_A_0153_META_01_01", "META_ID": "META_01", "META_ORIG": "META_04", "SELECAO_REC": "CLIP_EXATO_POLIGONO_AUDITORIA", "COMP_REC_M": 73.27934693880438, "PERC_LINK_REC": 100.0, "X_IN_REC": 288221.06856486655, "Y_IN_REC": 9196175.1053144224, "X_OUT_REC": 288147.91895732796, "Y_OUT_REC": 9196179.3206686508 }, "geometry": { "type": "LineString", "coordinates": [ [ -34.918167379078099, -7.268007060801364 ], [ -34.918167379078106, -7.268007060801364 ], [ -34.918584119594293, -7.267986160811128 ], [ -34.918829509640666, -7.267966148301547 ] ] } },
{ "type": "Feature", "properties": { "id_link": "L_A_0154", "node_in": "N_A_0127", "node_out": "N_A_0159", "classe": "TRONCO", "origem": "TroncoA2_F001", "comp_m": 70.532653523194142, "cota_in": 45.812713623046875, "cota_out": 42.040752410888672, "decl_pct": 5.3478226378053693, "diam_m": 0.8, "obs": "DECLIVE_MDE", "bacia": "A", "ID_LINK_ORIG": "L_A_0154", "ID_LINK_SEG": "L_A_0154_META_01_01", "META_ID": "META_01", "META_ORIG": "META_04", "SELECAO_REC": "CLIP_EXATO_POLIGONO_AUDITORIA", "COMP_REC_M": 70.532653523426532, "PERC_LINK_REC": 100.0, "X_IN_REC": 288147.91895732796, "Y_IN_REC": 9196179.3206686508, "X_OUT_REC": 288077.50979526748, "Y_OUT_REC": 9196183.4924154859 }, "geometry": { "type": "LineString", "coordinates": [ [ -34.918829509640666, -7.267966148301547 ], [ -34.919055180860013, -7.267951662580331 ], [ -34.919466829687842, -7.267925734153736 ] ] } },
{ "type": "Feature", "properties": { "id_link": "L_A_0155", "node_in": "N_A_0159", "node_out": "N_A_0123", "classe": "TRONCO", "origem": "TroncoA2_F001", "comp_m": 74.590697992734846, "cota_in": 42.040752410888672, "cota_out": 39.380046844482422, "decl_pct": 3.5670742304427869, "diam_m": 0.8, "obs": "DECLIVE_MDE", "bacia": "A", "ID_LINK_ORIG": "L_A_0155", "ID_LINK_SEG": "L_A_0155_META_01_01", "META_ID": "META_01", "META_ORIG": "META_04", "SELECAO_REC": "CLIP_EXATO_POLIGONO_AUDITORIA", "COMP_REC_M": 74.590697992677235, "PERC_LINK_REC": 100.0, "X_IN_REC": 288077.50979526748, "Y_IN_REC": 9196183.4924154859, "X_OUT_REC": 288002.98741604533, "Y_OUT_REC": 9196185.8172613233 }, "geometry": { "type": "LineString", "coordinates": [ [ -34.919466829687842, -7.267925734153736 ], [ -34.91982457346257, -7.267903200730687 ], [ -34.920141461093351, -7.267901858787499 ] ] } },
{ "type": "Feature", "properties": { "id_link": "L_A_0156", "node_in": "N_A_0123", "node_out": "N_A_0120", "classe": "TRONCO", "origem": "TroncoA2_F001", "comp_m": 69.701225353287086, "cota_in": 39.380046844482422, "cota_out": 37.494678497314453, "decl_pct": 2.7049285541420618, "diam_m": 0.8, "obs": "DECLIVE_MDE", "bacia": "A", "ID_LINK_ORIG": "L_A_0156", "ID_LINK_SEG": "L_A_0156_META_01_01", "META_ID": "META_01", "META_ORIG": "META_04", "SELECAO_REC": "CLIP_EXATO_POLIGONO_AUDITORIA", "COMP_REC_M": 69.701225353287086, "PERC_LINK_REC": 100.0, "X_IN_REC": 288002.98741604533, "Y_IN_REC": 9196185.8172613233, "X_OUT_REC": 287933.28631590359, "Y_OUT_REC": 9196185.6899716333 }, "geometry": { "type": "LineString", "coordinates": [ [ -34.920141461093351, -7.267901858787499 ], [ -34.920186730749982, -7.267901667063273 ], [ -34.920772534846421, -7.267900336496054 ] ] } },
{ "type": "Feature", "properties": { "id_link": "L_A_0157", "node_in": "N_A_0120", "node_out": "N_A_0151", "classe": "TRONCO", "origem": "TroncoA2_F001", "comp_m": 133.21291190140047, "cota_in": 37.494678497314453, "cota_out": 27.665307998657227, "decl_pct": 7.3786920189332559, "diam_m": 0.8, "obs": "DECLIVE_MDE", "bacia": "A", "ID_LINK_ORIG": "L_A_0157", "ID_LINK_SEG": "L_A_0157_META_01_01", "META_ID": "META_01", "META_ORIG": "META_04", "SELECAO_REC": "CLIP_EXATO_POLIGONO_AUDITORIA", "COMP_REC_M": 133.2129119010512, "PERC_LINK_REC": 100.0, "X_IN_REC": 287933.28631590359, "Y_IN_REC": 9196185.6899716333, "X_OUT_REC": 287800.07516080653, "Y_OUT_REC": 9196185.8064954802 }, "geometry": { "type": "LineString", "coordinates": [ [ -34.920772534846421, -7.267900336496054 ], [ -34.921671473154959, -7.267898293218692 ], [ -34.921879647518388, -7.267895100996291 ], [ -34.921978614146383, -7.267894171854705 ] ] } },
{ "type": "Feature", "properties": { "id_link": "L_A_0158", "node_in": "N_A_0151", "node_out": "N_A_0193", "classe": "TRONCO", "origem": "TroncoA2_F001", "comp_m": 20.214522928489433, "cota_in": 27.665307998657227, "cota_out": 25.919466018676758, "decl_pct": 8.6365727559167773, "diam_m": 0.8, "obs": "DECLIVE_MDE", "bacia": "A", "ID_LINK_ORIG": "L_A_0158", "ID_LINK_SEG": "L_A_0158_META_01_01", "META_ID": "META_01", "META_ORIG": "META_04", "SELECAO_REC": "CLIP_EXATO_POLIGONO_AUDITORIA", "COMP_REC_M": 20.214522928431464, "PERC_LINK_REC": 100.0, "X_IN_REC": 287800.07516080653, "Y_IN_REC": 9196185.8064954802, "X_OUT_REC": 287779.86323481973, "Y_OUT_REC": 9196186.0961605106 }, "geometry": { "type": "LineString", "coordinates": [ [ -34.921978614146383, -7.267894171854705 ], [ -34.921997516009625, -7.267893994393363 ], [ -34.92204366484652, -7.26789258582702 ], [ -34.922086713005292, -7.267891925683269 ], [ -34.922127046701924, -7.267891307162075 ], [ -34.922161600192588, -7.267890777278128 ] ] } },
{ "type": "Feature", "properties": { "id_link": "L_A_0182", "node_in": "N_A_0118", "node_out": "N_A_0151", "classe": "TRONCO", "origem": "TroncoA5_F001", "comp_m": 70.025662847604437, "cota_in": 33.01202392578125, "cota_out": 27.665307998657227, "decl_pct": 7.6353663924038582, "diam_m": 0.8, "obs": "DECLIVE_MDE", "bacia": "A", "ID_LINK_ORIG": "L_A_0182", "ID_LINK_SEG": "L_A_0182_META_01_01", "META_ID": "META_01", "META_ORIG": "META_04", "SELECAO_REC": "CLIP_EXATO_POLIGONO_AUDITORIA", "COMP_REC_M": 10.082805728438293, "PERC_LINK_REC": 14.398729434924853, "X_IN_REC": 287800.20516129053, "Y_IN_REC": 9196195.8869176321, "X_OUT_REC": 287800.07516080653, "Y_OUT_REC": 9196185.8064954802 }, "geometry": { "type": "LineString", "coordinates": [ [ -34.921977049673778, -7.267803042393017 ], [ -34.921976760237932, -7.267827364217057 ], [ -34.921978614146383, -7.267894171854705 ] ] } },
{ "type": "Feature", "properties": { "id_link": "L_B_0007", "node_in": "N_B_0009", "node_out": "N_B_0010", "classe": "COLETOR", "origem": "ColetorB1_F005", "comp_m": 388.51677875008897, "cota_in": 116.99341583251953, "cota_out": 98.531539916992188, "decl_pct": 4.7518863856849878, "diam_m": 0.6, "obs": "DECLIVE_MDE", "bacia": "B", "ID_LINK_ORIG": "L_B_0007", "ID_LINK_SEG": "L_B_0007_META_03_01", "META_ID": "META_03", "META_ORIG": "META_01;META_03", "SELECAO_REC": "CLIP_EXATO_POLIGONO_AUDITORIA", "COMP_REC_M": 7.5568735177679818, "PERC_LINK_REC": 1.9450571844240065, "X_IN_REC": 288822.00538190419, "Y_IN_REC": 9195759.6836256944, "X_OUT_REC": 288815.41799777176, "Y_OUT_REC": 9195763.386693025 }, "geometry": { "type": "LineString", "coordinates": [ [ -34.91274241714553, -7.27178578595257 ], [ -34.912801917908823, -7.271752055563867 ] ] } },
{ "type": "Feature", "properties": { "id_link": "L_B_0008", "node_in": "N_B_0010", "node_out": "N_B_0011", "classe": "COLETOR", "origem": "ColetorB1_F005", "comp_m": 427.15689525897756, "cota_in": 98.531539916992188, "cota_out": 62.823890686035156, "decl_pct": 8.3593755894559827, "diam_m": 0.6, "obs": "DECLIVE_MDE", "bacia": "B", "ID_LINK_ORIG": "L_B_0008", "ID_LINK_SEG": "L_B_0008_META_03_01", "META_ID": "META_03", "META_ORIG": "META_01;META_03", "SELECAO_REC": "CLIP_EXATO_POLIGONO_AUDITORIA", "COMP_REC_M": 427.15689525882931, "PERC_LINK_REC": 100.0, "X_IN_REC": 288815.41799777176, "Y_IN_REC": 9195763.386693025, "X_OUT_REC": 288556.88483210513, "Y_OUT_REC": 9195425.1467800979 }, "geometry": { "type": "LineString", "coordinates": [ [ -34.912801917908823, -7.271752055563867 ], [ -34.91305171387517, -7.272090664090877 ], [ -34.913279022336631, -7.272315727967753 ], [ -34.913468115801074, -7.272584323708373 ], [ -34.913576290341211, -7.272785376310019 ], [ -34.913892351852802, -7.273200455837297 ], [ -34.914066487505174, -7.273409458354932 ], [ -34.914151452697126, -7.273589111867047 ], [ -34.914735909705193, -7.274253375178666 ], [ -34.915155652301131, -7.274800118752059 ] ] } },
{ "type": "Feature", "properties": { "id_link": "L_B_0009", "node_in": "N_B_0012", "node_out": "N_B_0010", "classe": "COLETOR", "origem": "ColetorB1_F006", "comp_m": 307.73575521970821, "cota_in": 110.01205444335938, "cota_out": 98.531539916992188, "decl_pct": 3.7306404379857208, "diam_m": 0.6, "obs": "DECLIVE_MDE", "bacia": "B", "ID_LINK_ORIG": "L_B_0009", "ID_LINK_SEG": "L_B_0009_META_03_01", "META_ID": "META_03", "META_ORIG": "META_01;META_03", "SELECAO_REC": "CLIP_EXATO_POLIGONO_AUDITORIA", "COMP_REC_M": 5.8987805255095607, "PERC_LINK_REC": 1.9168330054124303, "X_IN_REC": 288819.50663476164, "Y_IN_REC": 9195767.6385936886, "X_OUT_REC": 288815.41799777176, "Y_OUT_REC": 9195763.386693025 }, "geometry": { "type": "LineString", "coordinates": [ [ -34.912764736460488, -7.271713771302124 ], [ -34.912801917908823, -7.271752055563867 ] ] } },
{ "type": "Feature", "properties": { "id_link": "L_B_0010", "node_in": "N_B_0013", "node_out": "N_B_0014", "classe": "COLETOR", "origem": "ColetorB1_F007", "comp_m": 702.48336119246505, "cota_in": 107.85828399658203, "cota_out": 58.916793823242188, "decl_pct": 6.9669251795888369, "diam_m": 0.6, "obs": "DECLIVE_MDE", "bacia": "B", "ID_LINK_ORIG": "L_B_0010", "ID_LINK_SEG": "L_B_0010_META_03_01", "META_ID": "META_03", "META_ORIG": "META_01;META_03", "SELECAO_REC": "CLIP_EXATO_POLIGONO_AUDITORIA", "COMP_REC_M": 16.403307098292039, "PERC_LINK_REC": 2.3350456401490001, "X_IN_REC": 288508.45062203152, "Y_IN_REC": 9195486.73190495, "X_OUT_REC": 288498.8580855832, "Y_OUT_REC": 9195473.4258263297 }, "geometry": { "type": "LineString", "coordinates": [ [ -34.91559181878057, -7.274241487551655 ], [ -34.915679180620408, -7.274361417452936 ] ] } },
{ "type": "Feature", "properties": { "id_link": "L_B_0011", "node_in": "N_B_0015", "node_out": "N_B_0016", "classe": "COLETOR", "origem": "ColetorB1_F008", "comp_m": 667.57635105325755, "cota_in": 105.37587738037109, "cota_out": 55.190128326416016, "decl_pct": 7.5176043870900076, "diam_m": 0.6, "obs": "DECLIVE_MDE", "bacia": "B", "ID_LINK_ORIG": "L_B_0011", "ID_LINK_SEG": "L_B_0011_META_03_01", "META_ID": "META_03", "META_ORIG": "META_01;META_03", "SELECAO_REC": "CLIP_EXATO_POLIGONO_AUDITORIA", "COMP_REC_M": 667.57635105316649, "PERC_LINK_REC": 99.999999999999986, "X_IN_REC": 288783.12362350989, "Y_IN_REC": 9196094.4592718724, "X_OUT_REC": 288442.29235529015, "Y_OUT_REC": 9195528.2164663896 }, "geometry": { "type": "LineString", "coordinates": [ [ -34.913081641936174, -7.268757665610035 ], [ -34.913517284584699, -7.269805953512959 ], [ -34.913793577524125, -7.270560686627885 ], [ -34.914011734082841, -7.271069279906287 ], [ -34.914134752858573, -7.27127240582197 ], [ -34.914498614775582, -7.27177049671545 ], [ -34.914954021929262, -7.272308652238512 ], [ -34.915409215730804, -7.272894388908895 ], [ -34.915883154684302, -7.273498683297938 ], [ -34.916189229986706, -7.273863901962832 ] ] } },
{ "type": "Feature", "properties": { "id_link": "L_B_0012", "node_in": "N_B_0017", "node_out": "N_B_0018", "classe": "COLETOR", "origem": "ColetorB1_F009", "comp_m": 595.46100671696388, "cota_in": 100.972900390625, "cota_out": 52.559803009033203, "decl_pct": 8.1303556127905523, "diam_m": 0.6, "obs": "DECLIVE_MDE", "bacia": "B", "ID_LINK_ORIG": "L_B_0012", "ID_LINK_SEG": "L_B_0012_META_03_01", "META_ID": "META_03", "META_ORIG": "META_01;META_03", "SELECAO_REC": "CLIP_EXATO_POLIGONO_AUDITORIA", "COMP_REC_M": 11.314414546942281, "PERC_LINK_REC": 1.9001100692259525, "X_IN_REC": 288395.98790659034, "Y_IN_REC": 9195588.8177730795, "X_OUT_REC": 288387.98740739957, "Y_OUT_REC": 9195580.8172737677 }, "geometry": { "type": "LineString", "coordinates": [ [ -34.916606149078582, -7.273314246357427 ], [ -34.916678892966374, -7.273386270538038 ] ] } },
{ "type": "Feature", "properties": { "id_link": "L_B_0015", "node_in": "N_B_0021", "node_out": "N_B_0022", "classe": "COLETOR", "origem": "ColetorB1_F010", "comp_m": 180.71075721045634, "cota_in": 57.638088226318359, "cota_out": 49.897239685058594, "decl_pct": 4.2835571389060965, "diam_m": 0.6, "obs": "DECLIVE_MDE", "bacia": "B", "ID_LINK_ORIG": "L_B_0015", "ID_LINK_SEG": "L_B_0015_META_03_01", "META_ID": "META_03", "META_ORIG": "META_01;META_03", "SELECAO_REC": "CLIP_EXATO_POLIGONO_AUDITORIA", "COMP_REC_M": 14.864776336924677, "PERC_LINK_REC": 8.2257285434332594, "X_IN_REC": 288346.03037426661, "Y_IN_REC": 9195639.028703969, "X_OUT_REC": 288336.52280593105, "Y_OUT_REC": 9195627.6032705214 }, "geometry": { "type": "LineString", "coordinates": [ [ -34.917056541039486, -7.272858387591041 ], [ -34.917061397012624, -7.272864712153232 ], [ -34.917143061369643, -7.272961317976034 ] ] } },
{ "type": "Feature", "properties": { "id_link": "L_B_0022", "node_in": "N_B_0033", "node_out": "N_B_0034", "classe": "COLETOR", "origem": "ColetorB2_F001", "comp_m": 314.17755033790985, "cota_in": 51.967029571533203, "cota_out": 36.719928741455078, "decl_pct": 4.8530204700110779, "diam_m": 0.6, "obs": "DECLIVE_MDE", "bacia": "B", "ID_LINK_ORIG": "L_B_0022", "ID_LINK_SEG": "L_B_0022_META_02_01", "META_ID": "META_02", "META_ORIG": "META_02", "SELECAO_REC": "CLIP_EXATO_POLIGONO_AUDITORIA", "COMP_REC_M": 7.1462977050367869, "PERC_LINK_REC": 2.2746048205372085, "X_IN_REC": 288128.83700858254, "Y_IN_REC": 9195396.580493547, "X_OUT_REC": 288123.45752221497, "Y_OUT_REC": 9195391.8761660382 }, "geometry": { "type": "LineString", "coordinates": [ [ -34.919032331367603, -7.275041976783726 ], [ -34.919081218396606, -7.2750843010752 ] ] } },
{ "type": "Feature", "properties": { "id_link": "L_B_0022", "node_in": "N_B_0033", "node_out": "N_B_0034", "classe": "COLETOR", "origem": "ColetorB2_F001", "comp_m": 314.17755033790985, "cota_in": 51.967029571533203, "cota_out": 36.719928741455078, "decl_pct": 4.8530204700110779, "diam_m": 0.6, "obs": "DECLIVE_MDE", "bacia": "B", "ID_LINK_ORIG": "L_B_0022", "ID_LINK_SEG": "L_B_0022_META_03_01", "META_ID": "META_03", "META_ORIG": "META_01;META_03", "SELECAO_REC": "CLIP_EXATO_POLIGONO_AUDITORIA", "COMP_REC_M": 2.7327832979270452, "PERC_LINK_REC": 0.86982131440834376, "X_IN_REC": 288368.18204362784, "Y_IN_REC": 9195588.3724319357, "X_OUT_REC": 288366.09757027362, "Y_OUT_REC": 9195586.6052094288 }, "geometry": { "type": "LineString", "coordinates": [ [ -34.916857922059535, -7.27331720748653 ], [ -34.916876862798489, -7.27333310467482 ] ] } },
{ "type": "Feature", "properties": { "id_link": "L_B_0023", "node_in": "N_B_0035", "node_out": "N_B_0036", "classe": "COLETOR", "origem": "ColetorB2_F002", "comp_m": 284.5513292071679, "cota_in": 54.973152160644531, "cota_out": 37.277458190917969, "decl_pct": 6.2188055909038447, "diam_m": 0.6, "obs": "DECLIVE_MDE", "bacia": "B", "ID_LINK_ORIG": "L_B_0023", "ID_LINK_SEG": "L_B_0023_META_02_01", "META_ID": "META_02", "META_ORIG": "META_02", "SELECAO_REC": "CLIP_EXATO_POLIGONO_AUDITORIA", "COMP_REC_M": 284.55132920700112, "PERC_LINK_REC": 100.0, "X_IN_REC": 288438.34968396154, "Y_IN_REC": 9195520.7447966803, "X_OUT_REC": 288235.93017347925, "Y_OUT_REC": 9195320.8363019023 }, "geometry": { "type": "LineString", "coordinates": [ [ -34.916225213784273, -7.273931300585867 ], [ -34.917319393010011, -7.274965721747065 ], [ -34.91806560944304, -7.275730868517529 ] ] } },
{ "type": "Feature", "properties": { "id_link": "L_B_0024", "node_in": "N_B_0037", "node_out": "N_B_0038", "classe": "COLETOR", "origem": "ColetorB2_F003", "comp_m": 267.20030922733145, "cota_in": 60.706134796142578, "cota_out": 38.503372192382813, "decl_pct": 8.3094075257487319, "diam_m": 0.6, "obs": "DECLIVE_MDE", "bacia": "B", "ID_LINK_ORIG": "L_B_0024", "ID_LINK_SEG": "L_B_0024_META_03_01", "META_ID": "META_03", "META_ORIG": "META_01;META_03", "SELECAO_REC": "CLIP_EXATO_POLIGONO_AUDITORIA", "COMP_REC_M": 0.61932406535774742, "PERC_LINK_REC": 0.23178269035250648, "X_IN_REC": 288522.98741197633, "Y_IN_REC": 9195445.8172787856, "X_OUT_REC": 288522.5477287735, "Y_OUT_REC": 9195445.3811125569 }, "geometry": { "type": "LineString", "coordinates": [ [ -34.915461770205852, -7.274611943808324 ], [ -34.915465767861221, -7.274615870252901 ] ] } },
{ "type": "Feature", "properties": { "id_link": "L_B_0025", "node_in": "N_B_0039", "node_out": "N_B_0040", "classe": "COLETOR", "origem": "ColetorB2_F004", "comp_m": 337.17127765351279, "cota_in": 48.641410827636719, "cota_out": 32.932491302490234, "decl_pct": 4.6590325351762125, "diam_m": 0.6, "obs": "DECLIVE_MDE", "bacia": "B", "ID_LINK_ORIG": "L_B_0025", "ID_LINK_SEG": "L_B_0025_META_02_01", "META_ID": "META_02", "META_ORIG": "META_02", "SELECAO_REC": "CLIP_EXATO_POLIGONO_AUDITORIA", "COMP_REC_M": 11.209302550498323, "PERC_LINK_REC": 3.3245128791838829, "X_IN_REC": 288022.02185795543, "Y_IN_REC": 9195462.4525701404, "X_OUT_REC": 288012.98741604842, "Y_OUT_REC": 9195455.8172613233 }, "geometry": { "type": "LineString", "coordinates": [ [ -34.919996912322986, -7.274442345685669 ], [ -34.920078965751621, -7.274501987109537 ] ] } },
{ "type": "Feature", "properties": { "id_link": "L_B_0029", "node_in": "N_B_0008", "node_out": "N_B_0011", "classe": "TRONCO", "origem": "TroncoB1_F001", "comp_m": 602.88675252315886, "cota_in": 109.52175903320313, "cota_out": 62.823890686035156, "decl_pct": 7.7457114709738377, "diam_m": 0.8, "obs": "DECLIVE_MDE", "bacia": "B", "ID_LINK_ORIG": "L_B_0029", "ID_LINK_SEG": "L_B_0029_META_03_01", "META_ID": "META_03", "META_ORIG": "META_01;META_03", "SELECAO_REC": "CLIP_EXATO_POLIGONO_AUDITORIA", "COMP_REC_M": 11.597888433071288, "PERC_LINK_REC": 1.9237258713241634, "X_IN_REC": 288565.85365192033, "Y_IN_REC": 9195417.7934619877, "X_OUT_REC": 288556.88483210513, "Y_OUT_REC": 9195425.1467800979 }, "geometry": { "type": "LineString", "coordinates": [ [ -34.915074729638313, -7.274866941748697 ], [ -34.915155652301131, -7.274800118752059 ] ] } },
{ "type": "Feature", "properties": { "id_link": "L_B_0030", "node_in": "N_B_0011", "node_out": "N_B_0014", "classe": "TRONCO", "origem": "TroncoB1_F001", "comp_m": 75.505470468595334, "cota_in": 62.823890686035156, "cota_out": 58.916793823242188, "decl_pct": 5.1745877994602143, "diam_m": 0.8, "obs": "DECLIVE_MDE", "bacia": "B", "ID_LINK_ORIG": "L_B_0030", "ID_LINK_SEG": "L_B_0030_META_03_01", "META_ID": "META_03", "META_ORIG": "META_01;META_03", "SELECAO_REC": "CLIP_EXATO_POLIGONO_AUDITORIA", "COMP_REC_M": 75.505470468672556, "PERC_LINK_REC": 100.0, "X_IN_REC": 288556.88483210513, "Y_IN_REC": 9195425.1467800979, "X_OUT_REC": 288498.8580855832, "Y_OUT_REC": 9195473.4258263297 }, "geometry": { "type": "LineString", "coordinates": [ [ -34.915155652301131, -7.274800118752059 ], [ -34.915636483981707, -7.274403064807604 ], [ -34.915679180620408, -7.274361417452936 ] ] } },
{ "type": "Feature", "properties": { "id_link": "L_B_0031", "node_in": "N_B_0014", "node_out": "N_B_0016", "classe": "TRONCO", "origem": "TroncoB1_F001", "comp_m": 78.750848133642705, "cota_in": 58.916793823242188, "cota_out": 55.190128326416016, "decl_pct": 4.7322226809569106, "diam_m": 0.8, "obs": "DECLIVE_MDE", "bacia": "B", "ID_LINK_ORIG": "L_B_0031", "ID_LINK_SEG": "L_B_0031_META_03_01", "META_ID": "META_03", "META_ORIG": "META_01;META_03", "SELECAO_REC": "CLIP_EXATO_POLIGONO_AUDITORIA", "COMP_REC_M": 78.750848133559089, "PERC_LINK_REC": 100.0, "X_IN_REC": 288498.8580855832, "Y_IN_REC": 9195473.4258263297, "X_OUT_REC": 288442.29235529015, "Y_OUT_REC": 9195528.2164663896 }, "geometry": { "type": "LineString", "coordinates": [ [ -34.915679180620408, -7.274361417452936 ], [ -34.916189229986706, -7.273863901962832 ] ] } },
{ "type": "Feature", "properties": { "id_link": "L_B_0032", "node_in": "N_B_0016", "node_out": "N_B_0018", "classe": "TRONCO", "origem": "TroncoB1_F001", "comp_m": 75.603388450384202, "cota_in": 55.190128326416016, "cota_out": 52.559803009033203, "decl_pct": 3.4791103564213937, "diam_m": 0.8, "obs": "DECLIVE_MDE", "bacia": "B", "ID_LINK_ORIG": "L_B_0032", "ID_LINK_SEG": "L_B_0032_META_03_01", "META_ID": "META_03", "META_ORIG": "META_01;META_03", "SELECAO_REC": "CLIP_EXATO_POLIGONO_AUDITORIA", "COMP_REC_M": 75.603388450393908, "PERC_LINK_REC": 100.0, "X_IN_REC": 288442.29235529015, "Y_IN_REC": 9195528.2164663896, "X_OUT_REC": 288387.98740739957, "Y_OUT_REC": 9195580.8172737677 }, "geometry": { "type": "LineString", "coordinates": [ [ -34.916189229986706, -7.273863901962832 ], [ -34.916678892888548, -7.273386270650859 ], [ -34.916678892966374, -7.273386270538038 ] ] } },
{ "type": "Feature", "properties": { "id_link": "L_B_0033", "node_in": "N_B_0018", "node_out": "N_B_0022", "classe": "TRONCO", "origem": "TroncoB1_F001", "comp_m": 69.552388144101258, "cota_in": 52.559803009033203, "cota_out": 49.897239685058594, "decl_pct": 3.8281407655740165, "diam_m": 0.8, "obs": "DECLIVE_MDE", "bacia": "B", "ID_LINK_ORIG": "L_B_0033", "ID_LINK_SEG": "L_B_0033_META_03_01", "META_ID": "META_03", "META_ORIG": "META_01;META_03", "SELECAO_REC": "CLIP_EXATO_POLIGONO_AUDITORIA", "COMP_REC_M": 69.552388144144331, "PERC_LINK_REC": 100.0, "X_IN_REC": 288387.98740739957, "Y_IN_REC": 9195580.8172737677, "X_OUT_REC": 288336.52280593105, "Y_OUT_REC": 9195627.6032705214 }, "geometry": { "type": "LineString", "coordinates": [ [ -34.916678892966374, -7.273386270538038 ], [ -34.917143061369643, -7.272961317976034 ] ] } },
{ "type": "Feature", "properties": { "id_link": "L_B_0034", "node_in": "N_B_0022", "node_out": "N_B_0042", "classe": "TRONCO", "origem": "TroncoB1_F001", "comp_m": 154.25500349808732, "cota_in": 49.897239685058594, "cota_out": 42.798110961914063, "decl_pct": 4.6022032103694821, "diam_m": 0.8, "obs": "DECLIVE_MDE", "bacia": "B", "ID_LINK_ORIG": "L_B_0034", "ID_LINK_SEG": "L_B_0034_META_03_01", "META_ID": "META_03", "META_ORIG": "META_01;META_03", "SELECAO_REC": "CLIP_EXATO_POLIGONO_AUDITORIA", "COMP_REC_M": 154.25500349815042, "PERC_LINK_REC": 100.0, "X_IN_REC": 288336.52280593105, "Y_IN_REC": 9195627.6032705214, "X_OUT_REC": 288229.73836118355, "Y_OUT_REC": 9195738.9053038433 }, "geometry": { "type": "LineString", "coordinates": [ [ -34.917143061369643, -7.272961317976034 ], [ -34.917174947647638, -7.272932125607422 ], [ -34.918105620449019, -7.271950971359833 ] ] } },
{ "type": "Feature", "properties": { "id_link": "L_B_0035", "node_in": "N_B_0042", "node_out": "N_B_0043", "classe": "TRONCO", "origem": "TroncoB1_F001", "comp_m": 58.129809795548411, "cota_in": 42.798110961914063, "cota_out": 40.784214019775391, "decl_pct": 3.4644822496785395, "diam_m": 0.8, "obs": "DECLIVE_MDE", "bacia": "B", "ID_LINK_ORIG": "L_B_0035", "ID_LINK_SEG": "L_B_0035_META_03_01", "META_ID": "META_03", "META_ORIG": "META_01;META_03", "SELECAO_REC": "CLIP_EXATO_POLIGONO_AUDITORIA", "COMP_REC_M": 58.129809796209067, "PERC_LINK_REC": 100.0, "X_IN_REC": 288229.73836118355, "Y_IN_REC": 9195738.9053038433, "X_OUT_REC": 288188.4350563531, "Y_OUT_REC": 9195708.1624229159 }, "geometry": { "type": "LineString", "coordinates": [ [ -34.918105620449019, -7.271950971359833 ], [ -34.918433429014328, -7.272273455448022 ], [ -34.918480761697047, -7.272227327096931 ] ] } },
{ "type": "Feature", "properties": { "id_link": "L_B_0036", "node_in": "N_B_0038", "node_out": "N_B_0036", "classe": "TRONCO", "origem": "TroncoB2_F001", "comp_m": 114.49472335484492, "cota_in": 38.503372192382813, "cota_out": 37.277458190917969, "decl_pct": 1.0707165933450578, "diam_m": 0.8, "obs": "DECLIVE_MDE", "bacia": "B", "ID_LINK_ORIG": "L_B_0036", "ID_LINK_SEG": "L_B_0036_META_02_01", "META_ID": "META_02", "META_ORIG": "META_02", "SELECAO_REC": "CLIP_EXATO_POLIGONO_AUDITORIA", "COMP_REC_M": 10.012590123914132, "PERC_LINK_REC": 8.7450232033001694, "X_IN_REC": 288244.34646672365, "Y_IN_REC": 9195315.4124684781, "X_OUT_REC": 288235.93017347925, "Y_OUT_REC": 9195320.8363019023 }, "geometry": { "type": "LineString", "coordinates": [ [ -34.917989615756973, -7.275780226778003 ], [ -34.91806560944304, -7.275730868517529 ] ] } },
{ "type": "Feature", "properties": { "id_link": "L_B_0037", "node_in": "N_B_0036", "node_out": "N_B_0034", "classe": "TRONCO", "origem": "TroncoB2_F001", "comp_m": 133.05569673316089, "cota_in": 37.277458190917969, "cota_out": 36.719928741455078, "decl_pct": 0.41901960092772189, "diam_m": 0.8, "obs": "DECLIVE_MDE", "bacia": "B", "ID_LINK_ORIG": "L_B_0037", "ID_LINK_SEG": "L_B_0037_META_02_01", "META_ID": "META_02", "META_ORIG": "META_02", "SELECAO_REC": "CLIP_EXATO_POLIGONO_AUDITORIA", "COMP_REC_M": 133.05569673329194, "PERC_LINK_REC": 100.0, "X_IN_REC": 288235.93017347925, "Y_IN_REC": 9195320.8363019023, "X_OUT_REC": 288123.45752221497, "Y_OUT_REC": 9195391.8761660382 }, "geometry": { "type": "LineString", "coordinates": [ [ -34.91806560944304, -7.275730868517529 ], [ -34.918228673006091, -7.275624957888504 ], [ -34.919000822355443, -7.275127961700603 ], [ -34.919081218396606, -7.2750843010752 ] ] } },
{ "type": "Feature", "properties": { "id_link": "L_B_0038", "node_in": "N_B_0034", "node_out": "N_B_0040", "classe": "TRONCO", "origem": "TroncoB2_F001", "comp_m": 127.72438826830773, "cota_in": 36.719928741455078, "cota_out": 32.932491302490234, "decl_pct": 2.9653204766255445, "diam_m": 0.8, "obs": "DECLIVE_MDE", "bacia": "B", "ID_LINK_ORIG": "L_B_0038", "ID_LINK_SEG": "L_B_0038_META_02_01", "META_ID": "META_02", "META_ORIG": "META_02", "SELECAO_REC": "CLIP_EXATO_POLIGONO_AUDITORIA", "COMP_REC_M": 127.72438826825864, "PERC_LINK_REC": 100.0, "X_IN_REC": 288123.45752221497, "Y_IN_REC": 9195391.8761660382, "X_OUT_REC": 288012.98741604842, "Y_OUT_REC": 9195455.8172613233 }, "geometry": { "type": "LineString", "coordinates": [ [ -34.919081218396606, -7.2750843010752 ], [ -34.919670812248754, -7.274764110111738 ], [ -34.920078965751621, -7.274501987109537 ] ] } },
{ "type": "Feature", "properties": { "id_link": "L_B_0039", "node_in": "N_B_0040", "node_out": "N_B_0044", "classe": "TRONCO", "origem": "TroncoB2_F001", "comp_m": 39.453574950721432, "cota_in": 32.932491302490234, "cota_out": 31.093723297119141, "decl_pct": 4.6605865442301848, "diam_m": 0.8, "obs": "DECLIVE_MDE", "bacia": "B", "ID_LINK_ORIG": "L_B_0039", "ID_LINK_SEG": "L_B_0039_META_02_01", "META_ID": "META_02", "META_ORIG": "META_02", "SELECAO_REC": "CLIP_EXATO_POLIGONO_AUDITORIA", "COMP_REC_M": 39.453574951007056, "PERC_LINK_REC": 100.0, "X_IN_REC": 288012.98741604842, "Y_IN_REC": 9195455.8172613233, "X_OUT_REC": 287974.84532361926, "Y_OUT_REC": 9195458.5010902584 }, "geometry": { "type": "LineString", "coordinates": [ [ -34.920078965751621, -7.274501987109537 ], [ -34.920078965751635, -7.274501987109521 ], [ -34.920333302022357, -7.274483721434732 ], [ -34.920395857960969, -7.274500643776975 ], [ -34.92042420349177, -7.274476259361537 ] ] } },
{ "type": "Feature", "properties": { "id_link": "L_B_0044", "node_in": "N_B_0032", "node_out": "N_B_0042", "classe": "TRONCO", "origem": "TroncoB3_F001", "comp_m": 61.203447253817203, "cota_in": 47.650627136230469, "cota_out": 42.798110961914063, "decl_pct": 7.9285014031848666, "diam_m": 0.8, "obs": "DECLIVE_MDE", "bacia": "B", "ID_LINK_ORIG": "L_B_0044", "ID_LINK_SEG": "L_B_0044_META_03_01", "META_ID": "META_03", "META_ORIG": "META_01;META_03", "SELECAO_REC": "CLIP_EXATO_POLIGONO_AUDITORIA", "COMP_REC_M": 4.6392895309593669, "PERC_LINK_REC": 7.580111479172591, "X_IN_REC": 288226.55362810363, "Y_IN_REC": 9195742.2788009252, "X_OUT_REC": 288229.73836118355, "Y_OUT_REC": 9195738.9053038433 }, "geometry": { "type": "LineString", "coordinates": [ [ -34.918134325615988, -7.271920350338768 ], [ -34.918105620449019, -7.271950971359833 ] ] } },
{ "type": "Feature", "properties": { "id_link": "D_B_01", "node_in": "N_B_0043", "node_out": "O_B_DISS_01", "classe": "DISSIPADOR", "origem": "Trechos_Dissipacao_B_1", "comp_m": 47.435920093314579, "cota_in": 40.784214019775391, "cota_out": 40.784214019775391, "decl_pct": 0.0, "diam_m": 1.2, "obs": "DECLIVE_MDE_REVERSO; REPRESENTACAO_PRELIMINAR", "bacia": "B", "ID_LINK_ORIG": "D_B_01", "ID_LINK_SEG": "D_B_01_META_03_01", "META_ID": "META_03", "META_ORIG": "META_01;META_03", "SELECAO_REC": "CLIP_EXATO_POLIGONO_AUDITORIA", "COMP_REC_M": 47.435920092314149, "PERC_LINK_REC": 99.999999999999986, "X_IN_REC": 288152.98741604708, "Y_IN_REC": 9195739.6843408737, "X_OUT_REC": 288188.4350563531, "Y_OUT_REC": 9195708.1624229159 }, "geometry": { "type": "LineString", "coordinates": [ [ -34.91880049524584, -7.271940986268724 ], [ -34.918480761697047, -7.272227327096931 ] ] } },
{ "type": "Feature", "properties": { "id_link": "D_B_02", "node_in": "N_B_0044", "node_out": "O_B_DISS_02", "classe": "DISSIPADOR", "origem": "Trechos_Dissipacao_B_2", "comp_m": 52.301107982226732, "cota_in": 31.093723297119141, "cota_out": 27.958951950073242, "decl_pct": 5.9936996900929413, "diam_m": 1.2, "obs": "DECLIVE_MDE; REPRESENTACAO_PRELIMINAR", "bacia": "B", "ID_LINK_ORIG": "D_B_02", "ID_LINK_SEG": "D_B_02_META_02_01", "META_ID": "META_02", "META_ORIG": "META_02", "SELECAO_REC": "CLIP_EXATO_POLIGONO_AUDITORIA", "COMP_REC_M": 52.301107981708547, "PERC_LINK_REC": 100.0, "X_IN_REC": 287974.8453236206, "Y_IN_REC": 9195458.5010902602, "X_OUT_REC": 287923.1117303858, "Y_OUT_REC": 9195450.8172613233 }, "geometry": { "type": "LineString", "coordinates": [ [ -34.920424203491756, -7.27447625936152 ], [ -34.920892898015424, -7.274543740855001 ] ] } }
]
}
