{
"type": "FeatureCollection",
"name": "areas_contribuicao_B_template",
"crs": { "type": "name", "properties": { "name": "urn:ogc:def:crs:OGC:1.3:CRS84" } },
"features": [
{"type":"Feature","properties":{"id_sc":"SC_B_0001","outlet":"N_B_0044","area_ha":8.6767962277769861,"pct_imp":30.0,"width_m":230.92283364145067,"slope_pc":49.048973301733255,"cn":76.77,"metodo":"VORONOI_PRELIM","editar":"SIM"},"geometry":{"type":"Polygon","coordinates":[[[-34.921049642789697,-7.271975632241954],[-34.920123375072542,-7.272773733384843],[-34.920375925962652,-7.276152723205223],[-34.920844929739133,-7.277185555067921],[-34.922152114663739,-7.27295629494246],[-34.922569967381769,-7.271265157344532],[-34.921049642789697,-7.271975632241954]]]}},
{"type":"Feature","properties":{"id_sc":"SC_B_0002","outlet":"N_B_0034","area_ha":6.1150322596126232,"pct_imp":30.0,"width_m":198.99240585358851,"slope_pc":20.503476837069197,"cn":76.77,"metodo":"VORONOI_PRELIM","editar":"SIM"},"geometry":{"type":"Polygon","coordinates":[[[-34.920375925962652,-7.276152723205223],[-34.918899786510558,-7.273630919728537],[-34.918709367181712,-7.27367082309484],[-34.918093756397155,-7.274044965986848],[-34.917876994866432,-7.27431688649674],[-34.920376802524814,-7.278231927605385],[-34.920685241986682,-7.277702204874606],[-34.920844929739133,-7.277185555067921],[-34.920375925962652,-7.276152723205223]]]}},
{"type":"Feature","properties":{"id_sc":"SC_B_0003","outlet":"N_B_0031","area_ha":5.9246690713007677,"pct_imp":30.0,"width_m":197.87073597827774,"slope_pc":13.121923663115304,"cn":76.77,"metodo":"VORONOI_PRELIM","editar":"SIM"},"geometry":{"type":"Polygon","coordinates":[[[-34.918222253323016,-7.270995023919768],[-34.91834677046554,-7.271090912592934],[-34.920132308978737,-7.271812353756989],[-34.921049642789697,-7.271975632241954],[-34.922569967381769,-7.271265157344532],[-34.922770173073133,-7.270454880781291],[-34.922099642087538,-7.270543060621499],[-34.921567895423323,-7.270572560192695],[-34.921295482863023,-7.270550488717103],[-34.920890219097807,-7.270525924521828],[-34.92054994330082,-7.270514778425058],[-34.920258704952808,-7.27039963081535],[-34.919959081661951,-7.270031707022851],[-34.919751891967991,-7.270118134274816],[-34.919559992998153,-7.270172688720868],[-34.919355743742003,-7.270260322520453],[-34.919187970629459,-7.270411989834904],[-34.919070329122199,-7.270554773936786],[-34.91897909184992,-7.270803890407582],[-34.91883828932702,-7.27082785378425],[-34.918552204188543,-7.270788870935875],[-34.91835634162625,-7.270697850765501],[-34.918222253323016,-7.270995023919768]]]}},
{"type":"Feature","properties":{"id_sc":"SC_B_0004","outlet":"N_B_0040","area_ha":2.6576733963737627,"pct_imp":30.0,"width_m":123.18901177456785,"slope_pc":23.797638259760337,"cn":76.77,"metodo":"VORONOI_PRELIM","editar":"SIM"},"geometry":{"type":"Polygon","coordinates":[[[-34.920123375072542,-7.272773733384843],[-34.918899786510558,-7.273630919728537],[-34.920375925962652,-7.276152723205223],[-34.920123375072542,-7.272773733384843]]]}},
{"type":"Feature","properties":{"id_sc":"SC_B_0005","outlet":"N_B_0036","area_ha":6.6735897977238663,"pct_imp":30.0,"width_m":199.15380642547436,"slope_pc":6.4741934302242896,"cn":76.77,"metodo":"VORONOI_PRELIM","editar":"SIM"},"geometry":{"type":"Polygon","coordinates":[[[-34.917876994866432,-7.27431688649674],[-34.917431938703565,-7.274538918127078],[-34.91697459894813,-7.275005258191634],[-34.91976311779171,-7.27928588402714],[-34.920376802524814,-7.278231927605385],[-34.917876994866432,-7.27431688649674]]]}},
{"type":"Feature","properties":{"id_sc":"SC_B_0006","outlet":"N_B_0043","area_ha":3.8281685542390202,"pct_imp":30.0,"width_m":181.70008451702705,"slope_pc":11.315198562506948,"cn":76.77,"metodo":"VORONOI_PRELIM","editar":"SIM"},"geometry":{"type":"Polygon","coordinates":[[[-34.921049642789697,-7.271975632241954],[-34.920132308978737,-7.271812353756989],[-34.918449990855521,-7.271876923474375],[-34.918038133977717,-7.272434364056461],[-34.918709367181712,-7.27367082309484],[-34.918899786510558,-7.273630919728537],[-34.920123375072542,-7.272773733384843],[-34.921049642789697,-7.271975632241954]]]}},
{"type":"Feature","properties":{"id_sc":"SC_B_0007","outlet":"N_B_0038","area_ha":26.455927278543903,"pct_imp":30.0,"width_m":458.08751472629166,"slope_pc":3.5623989922559938,"cn":76.77,"metodo":"VORONOI_PRELIM","editar":"SIM"},"geometry":{"type":"Polygon","coordinates":[[[-34.91697459894813,-7.275005258191634],[-34.916714838869979,-7.275111684045918],[-34.916493204023048,-7.275285081064176],[-34.91598663507277,-7.275805612112395],[-34.91295596102578,-7.279930384702237],[-34.913047726669888,-7.280045723502353],[-34.914951695269743,-7.279980096976088],[-34.915513558974688,-7.279742392961944],[-34.9160604300328,-7.279847157194834],[-34.916580712917579,-7.280032511899886],[-34.916951191292362,-7.28035360388399],[-34.917211268457109,-7.28146829083257],[-34.918346682986623,-7.281718485578573],[-34.91976311779171,-7.27928588402714],[-34.91697459894813,-7.275005258191634]]]}},
{"type":"Feature","properties":{"id_sc":"SC_B_0008","outlet":"N_B_0030","area_ha":0.40834583984710204,"pct_imp":30.0,"width_m":64.141967346318125,"slope_pc":5.9045076339721279,"cn":76.77,"metodo":"VORONOI_PRELIM","editar":"SIM"},"geometry":{"type":"Polygon","coordinates":[[[-34.918222253323016,-7.270995023919768],[-34.917826250361514,-7.271081626614372],[-34.917863794804845,-7.271661443387377],[-34.918325322663108,-7.271775293245811],[-34.91834677046554,-7.271090912592934],[-34.918222253323016,-7.270995023919768]]]}},
{"type":"Feature","properties":{"id_sc":"SC_B_0009","outlet":"N_B_0042","area_ha":0.46420638777345868,"pct_imp":30.0,"width_m":68.686107732670934,"slope_pc":45.787945885314613,"cn":76.77,"metodo":"VORONOI_PRELIM","editar":"SIM"},"geometry":{"type":"Polygon","coordinates":[[[-34.918449990855521,-7.271876923474375],[-34.918325322663108,-7.271775293245811],[-34.917863794804845,-7.271661443387377],[-34.917565529858742,-7.272127229749509],[-34.918038133977717,-7.272434364056461],[-34.918449990855521,-7.271876923474375]]]}},
{"type":"Feature","properties":{"id_sc":"SC_B_0010","outlet":"N_B_0032","area_ha":0.86522351326913371,"pct_imp":30.0,"width_m":70.315269086728904,"slope_pc":7.3371553376628267,"cn":76.77,"metodo":"VORONOI_PRELIM","editar":"SIM"},"geometry":{"type":"Polygon","coordinates":[[[-34.918449990855521,-7.271876923474375],[-34.920132308978737,-7.271812353756989],[-34.91834677046554,-7.271090912592934],[-34.918325322663108,-7.271775293245811],[-34.918449990855521,-7.271876923474375]]]}},
{"type":"Feature","properties":{"id_sc":"SC_B_0011","outlet":"N_B_0029","area_ha":0.47390249352891733,"pct_imp":30.0,"width_m":68.639097567261047,"slope_pc":3.954445207325072,"cn":76.77,"metodo":"VORONOI_PRELIM","editar":"SIM"},"geometry":{"type":"Polygon","coordinates":[[[-34.91835634162625,-7.270697850765501],[-34.918218282686993,-7.270633692695503],[-34.918020201230377,-7.270539803719322],[-34.917690787195077,-7.270336037839613],[-34.917668299438091,-7.270329136115697],[-34.917496442503911,-7.270924800156609],[-34.917826250361514,-7.271081626614372],[-34.918222253323016,-7.270995023919768],[-34.91835634162625,-7.270697850765501]]]}},
{"type":"Feature","properties":{"id_sc":"SC_B_0012","outlet":"N_B_0028","area_ha":0.92052972449014958,"pct_imp":30.0,"width_m":96.033995326383135,"slope_pc":24.31638735376432,"cn":76.77,"metodo":"VORONOI_PRELIM","editar":"SIM"},"geometry":{"type":"Polygon","coordinates":[[[-34.917826250361514,-7.271081626614372],[-34.917496442503911,-7.270924800156609],[-34.917131637521784,-7.270986631689587],[-34.917154815910763,-7.272172133911535],[-34.917565529858742,-7.272127229749509],[-34.917863794804845,-7.271661443387377],[-34.917826250361514,-7.271081626614372]]]}},
{"type":"Feature","properties":{"id_sc":"SC_B_0013","outlet":"N_B_0039","area_ha":1.7491981331765365,"pct_imp":30.0,"width_m":119.28804508137384,"slope_pc":2.5061210575618622,"cn":76.77,"metodo":"VORONOI_PRELIM","editar":"SIM"},"geometry":{"type":"Polygon","coordinates":[[[-34.917565529858742,-7.272127229749509],[-34.917154815910763,-7.272172133911535],[-34.917055845005564,-7.272246168882406],[-34.918016807085635,-7.273951144465324],[-34.918093756397155,-7.274044965986848],[-34.918709367181712,-7.27367082309484],[-34.918038133977717,-7.272434364056461],[-34.917565529858742,-7.272127229749509]]]}},
{"type":"Feature","properties":{"id_sc":"SC_B_0014","outlet":"N_B_0024","area_ha":0.65444390008025466,"pct_imp":30.0,"width_m":83.224955759545196,"slope_pc":12.903355860520433,"cn":76.77,"metodo":"VORONOI_PRELIM","editar":"SIM"},"geometry":{"type":"Polygon","coordinates":[[[-34.915314616472656,-7.269784253423745],[-34.915713927776288,-7.269917992579429],[-34.916142391691594,-7.269429333465753],[-34.915888008346982,-7.269052780965773],[-34.915784932268863,-7.268963614268005],[-34.915432150216965,-7.268961569428529],[-34.915314616472656,-7.269784253423745]]]}},
{"type":"Feature","properties":{"id_sc":"SC_B_0015","outlet":"N_B_0027","area_ha":0.89429953568713028,"pct_imp":30.0,"width_m":92.916319115706756,"slope_pc":4.8223497983478811,"cn":76.77,"metodo":"VORONOI_PRELIM","editar":"SIM"},"geometry":{"type":"Polygon","coordinates":[[[-34.917668299438091,-7.270329136115697],[-34.917094168168298,-7.270152928840079],[-34.916945179194883,-7.269982125195994],[-34.916942025207412,-7.269978028499672],[-34.916418934151032,-7.270703453685982],[-34.917131637521784,-7.270986631689587],[-34.917496442503911,-7.270924800156609],[-34.917668299438091,-7.270329136115697]]]}},
{"type":"Feature","properties":{"id_sc":"SC_B_0016","outlet":"N_B_0026","area_ha":1.1711269178397032,"pct_imp":30.0,"width_m":99.511373413689341,"slope_pc":16.983542326226743,"cn":76.77,"metodo":"VORONOI_PRELIM","editar":"SIM"},"geometry":{"type":"Polygon","coordinates":[[[-34.917154815910763,-7.272172133911535],[-34.917131637521784,-7.270986631689587],[-34.916418934151032,-7.270703453685982],[-34.916410145497011,-7.270704803693605],[-34.916506612475573,-7.271939406467],[-34.916572924925568,-7.272370079672246],[-34.917055845005564,-7.272246168882406],[-34.917154815910763,-7.272172133911535]]]}},
{"type":"Feature","properties":{"id_sc":"SC_B_0017","outlet":"N_B_0033","area_ha":1.2302144449519978,"pct_imp":30.0,"width_m":91.743723225513889,"slope_pc":10.40957479862942,"cn":76.77,"metodo":"VORONOI_PRELIM","editar":"SIM"},"geometry":{"type":"Polygon","coordinates":[[[-34.918016807085635,-7.273951144465324],[-34.916545606944901,-7.27277587684195],[-34.917093024585405,-7.274190757609904],[-34.917431938703565,-7.274538918127078],[-34.917876994866432,-7.27431688649674],[-34.918093756397155,-7.274044965986848],[-34.918016807085635,-7.273951144465324]]]}},
{"type":"Feature","properties":{"id_sc":"SC_B_0018","outlet":"N_B_0022","area_ha":1.0144335590852605,"pct_imp":30.0,"width_m":74.360457254487187,"slope_pc":6.8424383153592467,"cn":76.77,"metodo":"VORONOI_PRELIM","editar":"SIM"},"geometry":{"type":"Polygon","coordinates":[[[-34.917055845005564,-7.272246168882406],[-34.916572924925568,-7.272370079672246],[-34.916340776671944,-7.272552799812317],[-34.916545606944901,-7.27277587684195],[-34.918016807085635,-7.273951144465324],[-34.917055845005564,-7.272246168882406]]]}},
{"type":"Feature","properties":{"id_sc":"SC_B_0019","outlet":"N_B_0025","area_ha":1.0791820271560284,"pct_imp":30.0,"width_m":105.86632667001822,"slope_pc":24.696833338000221,"cn":76.77,"metodo":"VORONOI_PRELIM","editar":"SIM"},"geometry":{"type":"Polygon","coordinates":[[[-34.915713927776288,-7.269917992579429],[-34.916222859499307,-7.270671442191824],[-34.916410145497011,-7.270704803693605],[-34.916418934151032,-7.270703453685982],[-34.916942025207412,-7.269978028499672],[-34.916755793101331,-7.269736132471825],[-34.916684007581402,-7.269637808513937],[-34.916214702290361,-7.26953637149726],[-34.916142391691594,-7.269429333465753],[-34.915713927776288,-7.269917992579429]]]}},
{"type":"Feature","properties":{"id_sc":"SC_B_0020","outlet":"N_B_0035","area_ha":1.3210845632421802,"pct_imp":30.0,"width_m":113.6106279657143,"slope_pc":8.0151662407872255,"cn":76.77,"metodo":"VORONOI_PRELIM","editar":"SIM"},"geometry":{"type":"Polygon","coordinates":[[[-34.917431938703565,-7.274538918127078],[-34.917093024585405,-7.274190757609904],[-34.916531688670617,-7.273724878687313],[-34.915889352274682,-7.274066811689434],[-34.916714838869979,-7.275111684045918],[-34.91697459894813,-7.275005258191634],[-34.917431938703565,-7.274538918127078]]]}},
{"type":"Feature","properties":{"id_sc":"SC_B_0021","outlet":"N_B_0018","area_ha":0.99816492609510388,"pct_imp":30.0,"width_m":78.0624038228827,"slope_pc":9.0445464300350729,"cn":76.77,"metodo":"VORONOI_PRELIM","editar":"SIM"},"geometry":{"type":"Polygon","coordinates":[[[-34.916531688670617,-7.273724878687313],[-34.917093024585405,-7.274190757609904],[-34.916545606944901,-7.27277587684195],[-34.916340776671944,-7.272552799812317],[-34.915613042003159,-7.272785853655188],[-34.916531688670617,-7.273724878687313]]]}},
{"type":"Feature","properties":{"id_sc":"SC_B_0022","outlet":"N_B_0016","area_ha":1.3093614665464872,"pct_imp":30.0,"width_m":99.784783502911552,"slope_pc":13.151802440536054,"cn":76.77,"metodo":"VORONOI_PRELIM","editar":"SIM"},"geometry":{"type":"Polygon","coordinates":[[[-34.915613042003159,-7.272785853655188],[-34.914661205840247,-7.27281141751088],[-34.915889352274682,-7.274066811689434],[-34.916531688670617,-7.273724878687313],[-34.915613042003159,-7.272785853655188]]]}},
{"type":"Feature","properties":{"id_sc":"SC_B_0023","outlet":"N_B_0021","area_ha":2.7594245257820522,"pct_imp":30.0,"width_m":169.24801742930507,"slope_pc":17.14287296610787,"cn":76.77,"metodo":"VORONOI_PRELIM","editar":"SIM"},"geometry":{"type":"Polygon","coordinates":[[[-34.916572924925568,-7.272370079672246],[-34.916506612475573,-7.271939406467],[-34.915606157617745,-7.271209636340923],[-34.914474762852372,-7.272104033869361],[-34.914489818040863,-7.272782680572861],[-34.914661205840247,-7.27281141751088],[-34.915613042003159,-7.272785853655188],[-34.916340776671944,-7.272552799812317],[-34.916572924925568,-7.272370079672246]]]}},
{"type":"Feature","properties":{"id_sc":"SC_B_0024","outlet":"N_B_0045","area_ha":0.71018939750452148,"pct_imp":30.0,"width_m":75.445080750216704,"slope_pc":25.172311308029538,"cn":76.77,"metodo":"VORONOI_PRELIM","editar":"SIM"},"geometry":{"type":"Polygon","coordinates":[[[-34.915606157617745,-7.271209636340923],[-34.916506612475573,-7.271939406467],[-34.916410145497011,-7.270704803693605],[-34.916222859499307,-7.270671442191824],[-34.915606157617745,-7.271209636340923]]]}},
{"type":"Feature","properties":{"id_sc":"SC_B_0025","outlet":"N_B_0020","area_ha":4.1040100651209599,"pct_imp":30.0,"width_m":205.97193926735949,"slope_pc":16.480841166243803,"cn":76.77,"metodo":"VORONOI_PRELIM","editar":"SIM"},"geometry":{"type":"Polygon","coordinates":[[[-34.916222859499307,-7.270671442191824],[-34.915713927776288,-7.269917992579429],[-34.915314616472656,-7.269784253423745],[-34.914742991598764,-7.269856672744103],[-34.914137270564424,-7.270085408826603],[-34.913698152944718,-7.270456078598355],[-34.914474762852372,-7.272104033869361],[-34.915606157617745,-7.271209636340923],[-34.916222859499307,-7.270671442191824]]]}},
{"type":"Feature","properties":{"id_sc":"SC_B_0026","outlet":"N_B_0014","area_ha":1.9657076296866507,"pct_imp":30.0,"width_m":99.249007646933507,"slope_pc":10.94046589672708,"cn":76.77,"metodo":"VORONOI_PRELIM","editar":"SIM"},"geometry":{"type":"Polygon","coordinates":[[[-34.915889352274682,-7.274066811689434],[-34.914661205840247,-7.27281141751088],[-34.914489818040863,-7.272782680572861],[-34.914186502398145,-7.273116156438065],[-34.914719534824485,-7.273750390628789],[-34.916493204023048,-7.275285081064176],[-34.916714838869979,-7.275111684045918],[-34.915889352274682,-7.274066811689434]]]}},
{"type":"Feature","properties":{"id_sc":"SC_B_0027","outlet":"N_B_0023","area_ha":0.59466440646102092,"pct_imp":30.0,"width_m":74.64113078070983,"slope_pc":20.898203906002671,"cn":76.77,"metodo":"VORONOI_PRELIM","editar":"SIM"},"geometry":{"type":"Polygon","coordinates":[[[-34.914742991598764,-7.269856672744103],[-34.915314616472656,-7.269784253423745],[-34.915432150216965,-7.268961569428529],[-34.914862926461481,-7.26895826944235],[-34.914742991598764,-7.269856672744103]]]}},
{"type":"Feature","properties":{"id_sc":"SC_B_0028","outlet":"N_B_0010","area_ha":7.6759500469058333,"pct_imp":30.0,"width_m":283.82698908477437,"slope_pc":18.555867372349571,"cn":76.77,"metodo":"VORONOI_PRELIM","editar":"SIM"},"geometry":{"type":"Polygon","coordinates":[[[-34.914489818040863,-7.272782680572861],[-34.914474762852372,-7.272104033869361],[-34.913698152944718,-7.270456078598355],[-34.913203192807543,-7.270279925021171],[-34.912577858961136,-7.270358219322603],[-34.912032607028706,-7.270571105672545],[-34.911758222934949,-7.270770829322412],[-34.911611988382958,-7.271169109703245],[-34.913237556512286,-7.273846787341602],[-34.914186502398145,-7.273116156438065],[-34.914489818040863,-7.272782680572861]]]}},
{"type":"Feature","properties":{"id_sc":"SC_B_0029","outlet":"N_B_0011","area_ha":23.470692662627911,"pct_imp":30.0,"width_m":450.57292316002543,"slope_pc":6.9054697548464734,"cn":76.77,"metodo":"VORONOI_PRELIM","editar":"SIM"},"geometry":{"type":"Polygon","coordinates":[[[-34.91598663507277,-7.275805612112395],[-34.914719534824485,-7.273750390628789],[-34.914186502398145,-7.273116156438065],[-34.913237556512286,-7.273846787341602],[-34.912571167426556,-7.274876423931429],[-34.910338765593551,-7.279501736749521],[-34.910289378559895,-7.279615640763983],[-34.910418804833832,-7.279724804268449],[-34.911946380065707,-7.279757126363318],[-34.91279732676302,-7.279730999561568],[-34.91295596102578,-7.279930384702237],[-34.91598663507277,-7.275805612112395]]]}},
{"type":"Feature","properties":{"id_sc":"SC_B_0030","outlet":"N_B_0037","area_ha":1.0388037037474596,"pct_imp":30.0,"width_m":68.517869734359323,"slope_pc":33.250289189556817,"cn":76.77,"metodo":"VORONOI_PRELIM","editar":"SIM"},"geometry":{"type":"Polygon","coordinates":[[[-34.914719534824485,-7.273750390628789],[-34.91598663507277,-7.275805612112395],[-34.916493204023048,-7.275285081064176],[-34.914719534824485,-7.273750390628789]]]}},
{"type":"Feature","properties":{"id_sc":"SC_B_0031","outlet":"N_B_0019","area_ha":0.74989092203748009,"pct_imp":30.0,"width_m":81.726075915377081,"slope_pc":47.957788450481466,"cn":76.77,"metodo":"VORONOI_PRELIM","editar":"SIM"},"geometry":{"type":"Polygon","coordinates":[[[-34.914137270564424,-7.270085408826603],[-34.914742991598764,-7.269856672744103],[-34.914862926461481,-7.26895826944235],[-34.914253395768469,-7.268954734988665],[-34.914234834728582,-7.268951767781258],[-34.914137270564424,-7.270085408826603]]]}},
{"type":"Feature","properties":{"id_sc":"SC_B_0032","outlet":"N_B_0003","area_ha":9.0786528555404136,"pct_imp":30.0,"width_m":209.74100865649055,"slope_pc":20.503860356495625,"cn":76.77,"metodo":"VORONOI_PRELIM","editar":"SIM"},"geometry":{"type":"Polygon","coordinates":[[[-34.912571167426556,-7.274876423931429],[-34.911040501032801,-7.272197097824424],[-34.910769170086944,-7.272453536084014],[-34.910338765593551,-7.279501736749521],[-34.912571167426556,-7.274876423931429]]]}},
{"type":"Feature","properties":{"id_sc":"SC_B_0033","outlet":"N_B_0017","area_ha":1.5198741893979848,"pct_imp":30.0,"width_m":118.99286171864927,"slope_pc":9.184621700369231,"cn":76.77,"metodo":"VORONOI_PRELIM","editar":"SIM"},"geometry":{"type":"Polygon","coordinates":[[[-34.914137270564424,-7.270085408826603],[-34.914234834728582,-7.268951767781258],[-34.913613124611608,-7.268852379395767],[-34.913468293252365,-7.268735183319452],[-34.913202563891268,-7.270266879649464],[-34.913203192807543,-7.270279925021171],[-34.913698152944718,-7.270456078598355],[-34.914137270564424,-7.270085408826603]]]}},
{"type":"Feature","properties":{"id_sc":"SC_B_0034","outlet":"N_B_0015","area_ha":0.86313820963734611,"pct_imp":30.0,"width_m":73.147886249464264,"slope_pc":25.311834886325219,"cn":76.77,"metodo":"VORONOI_PRELIM","editar":"SIM"},"geometry":{"type":"Polygon","coordinates":[[[-34.913202563891268,-7.270266879649464],[-34.913468293252365,-7.268735183319452],[-34.913190068380871,-7.268510046209627],[-34.912662435091171,-7.268520050212427],[-34.913202563891268,-7.270266879649464]]]}},
{"type":"Feature","properties":{"id_sc":"SC_B_0035","outlet":"N_B_0013","area_ha":1.4846872559938318,"pct_imp":30.0,"width_m":107.06233659894744,"slope_pc":27.737057091499967,"cn":76.77,"metodo":"VORONOI_PRELIM","editar":"SIM"},"geometry":{"type":"Polygon","coordinates":[[[-34.912577858961136,-7.270358219322603],[-34.913203192807543,-7.270279925021171],[-34.913202563891268,-7.270266879649464],[-34.912662435091171,-7.268520050212427],[-34.912544152726454,-7.268522292779042],[-34.911966110169416,-7.268622025165831],[-34.912577858961136,-7.270358219322603]]]}},
{"type":"Feature","properties":{"id_sc":"SC_B_0036","outlet":"N_B_0008","area_ha":4.116347194193307,"pct_imp":30.0,"width_m":171.91287945164754,"slope_pc":4.3396772654006082,"cn":76.77,"metodo":"VORONOI_PRELIM","editar":"SIM"},"geometry":{"type":"Polygon","coordinates":[[[-34.913237556512286,-7.273846787341602],[-34.911611988382958,-7.271169109703245],[-34.91133390395882,-7.271380052885097],[-34.911080352901479,-7.272048868065017],[-34.911040501032801,-7.272197097824424],[-34.912571167426556,-7.274876423931429],[-34.913237556512286,-7.273846787341602]]]}},
{"type":"Feature","properties":{"id_sc":"SC_B_0037","outlet":"N_B_0012","area_ha":1.4658719172925605,"pct_imp":30.0,"width_m":103.28721089654059,"slope_pc":13.590674573124172,"cn":76.77,"metodo":"VORONOI_PRELIM","editar":"SIM"},"geometry":{"type":"Polygon","coordinates":[[[-34.912032607028706,-7.270571105672545],[-34.912577858961136,-7.270358219322603],[-34.911966110169416,-7.268622025165831],[-34.911662341858651,-7.268674435433951],[-34.911667231660637,-7.268885221817719],[-34.911285646498953,-7.26892710232306],[-34.912032607028706,-7.270571105672545]]]}},
{"type":"Feature","properties":{"id_sc":"SC_B_0038","outlet":"N_B_0007","area_ha":1.9539600415879446,"pct_imp":30.0,"width_m":137.6869067912977,"slope_pc":6.5813487648692357,"cn":76.77,"metodo":"VORONOI_PRELIM","editar":"SIM"},"geometry":{"type":"Polygon","coordinates":[[[-34.911611988382958,-7.271169109703245],[-34.911758222934949,-7.270770829322412],[-34.910292171720194,-7.26989924528081],[-34.91024583220161,-7.27052516305534],[-34.91010653665117,-7.270624488119492],[-34.910168245440921,-7.271195178526522],[-34.910383605095369,-7.27144757057476],[-34.91133390395882,-7.271380052885097],[-34.911611988382958,-7.271169109703245]]]}},
{"type":"Feature","properties":{"id_sc":"SC_B_0039","outlet":"N_B_0005","area_ha":3.5640726199801169,"pct_imp":30.0,"width_m":85.821837325185811,"slope_pc":7.6281760081915158,"cn":76.77,"metodo":"VORONOI_PRELIM","editar":"SIM"},"geometry":{"type":"Polygon","coordinates":[[[-34.910338765593551,-7.279501736749521],[-34.910769170086944,-7.272453536084014],[-34.910251282127348,-7.272496843622774],[-34.91022665506501,-7.273181491062649],[-34.91026727063381,-7.273259682183729],[-34.910247095896914,-7.273894764247739],[-34.910281759062833,-7.274586384356212],[-34.910172550482372,-7.274685650779965],[-34.910003886388516,-7.279374844419285],[-34.910289378559895,-7.279615640763983],[-34.910338765593551,-7.279501736749521]]]}},
{"type":"Feature","properties":{"id_sc":"SC_B_0040","outlet":"N_B_0009","area_ha":1.8940806229113987,"pct_imp":30.0,"width_m":114.2444293008696,"slope_pc":3.2382898877728099,"cn":76.77,"metodo":"VORONOI_PRELIM","editar":"SIM"},"geometry":{"type":"Polygon","coordinates":[[[-34.911758222934949,-7.270770829322412],[-34.912032607028706,-7.270571105672545],[-34.911285646498953,-7.26892710232306],[-34.911173011106342,-7.268939464449008],[-34.911090873326785,-7.269397979426647],[-34.910565569981472,-7.269395419189145],[-34.910346093815818,-7.269170909681568],[-34.910292171720194,-7.26989924528081],[-34.911758222934949,-7.270770829322412]]]}},
{"type":"Feature","properties":{"id_sc":"SC_B_0041","outlet":"N_B_0006","area_ha":0.1442736465320841,"pct_imp":30.0,"width_m":33.877762987502003,"slope_pc":7.3801302988872051,"cn":76.77,"metodo":"VORONOI_PRELIM","editar":"SIM"},"geometry":{"type":"Polygon","coordinates":[[[-34.910168245440921,-7.271195178526522],[-34.91010653665117,-7.270624488119492],[-34.909998674448367,-7.270701399499742],[-34.909778002314987,-7.271060727948642],[-34.910168245440921,-7.271195178526522]]]}},
{"type":"Feature","properties":{"id_sc":"SC_B_0042","outlet":"N_B_0041","area_ha":2.1726234219198268,"pct_imp":30.0,"width_m":81.032518867869484,"slope_pc":5.7704480390709829,"cn":76.77,"metodo":"VORONOI_PRELIM","editar":"SIM"},"geometry":{"type":"Polygon","coordinates":[[[-34.910172550482372,-7.274685650779965],[-34.910011985295966,-7.274831598287621],[-34.90998679498599,-7.275273822782597],[-34.90965307653542,-7.275786657975355],[-34.909479841241733,-7.27708669963713],[-34.909727896152518,-7.278302454133209],[-34.909773729635262,-7.27918071997052],[-34.910003886388516,-7.279374844419285],[-34.910172550482372,-7.274685650779965]]]}},
{"type":"Feature","properties":{"id_sc":"SC_B_0043","outlet":"N_B_0041","area_ha":0.26892704616867802,"pct_imp":30.0,"width_m":36.071239100071494,"slope_pc":6.0172542358644208,"cn":76.77,"metodo":"VORONOI_PRELIM","editar":"SIM"},"geometry":{"type":"Polygon","coordinates":[[[-34.910251282127348,-7.272496843622774],[-34.909813612126356,-7.272179796906815],[-34.909628463338841,-7.272074186137893],[-34.910022979883138,-7.272789384893809],[-34.91022665506501,-7.273181491062649],[-34.910251282127348,-7.272496843622774]]]}},
{"type":"Feature","properties":{"id_sc":"SC_B_0044","outlet":"N_B_0004","area_ha":0.41841932776337942,"pct_imp":30.0,"width_m":52.962439472671051,"slope_pc":8.5476389550113918,"cn":76.77,"metodo":"VORONOI_PRELIM","editar":"SIM"},"geometry":{"type":"Polygon","coordinates":[[[-34.911040501032801,-7.272197097824424],[-34.911080352901479,-7.272048868065017],[-34.909813612126356,-7.272179796906815],[-34.910251282127348,-7.272496843622774],[-34.910769170086944,-7.272453536084014],[-34.911040501032801,-7.272197097824424]]]}},
{"type":"Feature","properties":{"id_sc":"SC_B_0045","outlet":"N_B_0002","area_ha":1.0246779737589242,"pct_imp":30.0,"width_m":89.502110067489497,"slope_pc":7.6601766844571246,"cn":76.77,"metodo":"VORONOI_PRELIM","editar":"SIM"},"geometry":{"type":"Polygon","coordinates":[[[-34.91133390395882,-7.271380052885097],[-34.910383605095369,-7.27144757057476],[-34.909623245237206,-7.272064726487475],[-34.909628463338841,-7.272074186137893],[-34.909813612126356,-7.272179796906815],[-34.911080352901479,-7.272048868065017],[-34.91133390395882,-7.271380052885097]]]}},
{"type":"Feature","properties":{"id_sc":"SC_B_0046","outlet":"N_B_0001","area_ha":0.48761800430877428,"pct_imp":30.0,"width_m":64.028904199343941,"slope_pc":2.900345834874289,"cn":76.77,"metodo":"VORONOI_PRELIM","editar":"SIM"},"geometry":{"type":"Polygon","coordinates":[[[-34.910383605095369,-7.27144757057476],[-34.910168245440921,-7.271195178526522],[-34.909778002314987,-7.271060727948642],[-34.90972284350665,-7.271150544958607],[-34.909605530589261,-7.27203261243306],[-34.909623245237206,-7.272064726487475],[-34.910383605095369,-7.27144757057476]]]}}
]
}
