{"type":"FeatureCollection","name":"Bacia A revisada D8","features":[{"type":"Feature","properties":{"id":1,"camada":"Bacia A revisada D8"},"geometry":{"type":"Polygon","coordinates":[[[-34.91550658259036,-7.26916459253501],[-34.91555185249685,-7.26916440124036],[-34.91555166092103,-7.269119197384153],[-34.91550639101907,-7.269119388677604],[-34.91550658259036,-7.26916459253501]],[[-34.911204215668484,-7.2687759091953135],[-34.91106840571555,-7.268776481733239],[-34.911068214598274,-7.268731277757325],[-34.911022944616036,-7.2687314685930735],[-34.9110231357288,-7.268776672570187],[-34.91097786574082,-7.26877686340262],[-34.91097805685027,-7.268822067380838],[-34.91020846679119,-7.268825310861937],[-34.910208848860044,-7.268915718858849],[-34.91025411888232,-7.2689155280995585],[-34.91025450096511,-7.2690059360936905],[-34.9102997709952,-7.269005745327489],[-34.91030015309191,-7.269096153318847],[-34.91034542312983,-7.269095962545732],[-34.910345614184536,-7.26914116654007],[-34.910390884225755,-7.2691409757612435],[-34.91039107528619,-7.269186179754287],[-34.91093431573993,-7.269183890041871],[-34.91093412462524,-7.269138686063215],[-34.910979394650596,-7.269138495225704],[-34.9109792035326,-7.269093291248151],[-34.911024473552224,-7.269093100407323],[-34.91102428243093,-7.269047896430874],[-34.91106955244481,-7.269047705586731],[-34.91106936132021,-7.2690025016113875],[-34.911114631328346,-7.2690023107639306],[-34.91111444020046,-7.26895710678969],[-34.91125025020398,-7.268956534223831],[-34.91125005906374,-7.268911330253094],[-34.911340599050945,-7.26891094852235],[-34.911340407902884,-7.2688657445539135],[-34.91143094787617,-7.268865362807511],[-34.91143056556563,-7.268774954875156],[-34.911385295588644,-7.268775145748215],[-34.91138510443973,-7.268729941780697],[-34.911204024537646,-7.268730705222996],[-34.911204215668484,-7.2687759091953135]],[[-34.91165519489187,-7.268367164795828],[-34.91160992496167,-7.268367355680662],[-34.911610307286395,-7.268457763605128],[-34.91165557722563,-7.268457572717895],[-34.91165576839435,-7.268502776678787],[-34.91170103833689,-7.26850258578584],[-34.91170161186392,-7.268638197664351],[-34.91174688181881,-7.268638006763292],[-34.9117472641853,-7.2687284146794235],[-34.911792534148006,-7.268728223771451],[-34.91179196058653,-7.26859261190071],[-34.91188250048115,-7.268592230078421],[-34.91188230928739,-7.268547026123716],[-34.9120633890439,-7.268546262429772],[-34.912063197833284,-7.268501058479769],[-34.911927388031295,-7.2685016312534],[-34.91192681444745,-7.268366019392032],[-34.91188154452457,-7.26836621030395],[-34.911881353336916,-7.268321006348771],[-34.911836083417334,-7.2683211972549735],[-34.91183589223543,-7.2682759932985],[-34.911654812562986,-7.2682767568733775],[-34.91165519489187,-7.268367164795828]],[[-34.91677643997928,-7.269701680455911],[-34.91677663169306,-7.26974688427842],[-34.916821901624054,-7.269746692841735],[-34.91682209334358,-7.269791896662949],[-34.916867363277866,-7.269791705220546],[-34.916867555003144,-7.269836909040458],[-34.91691282494073,-7.269836717592339],[-34.91691320840398,-7.269927125229475],[-34.91695847834939,-7.2699269337744346],[-34.91695867008738,-7.2699721375916555],[-34.91700394003608,-7.269971946130899],[-34.91700432352477,-7.270062353762655],[-34.91704959348129,-7.270062162294978],[-34.91704978523199,-7.270107366109511],[-34.91709505519181,-7.2701071746361166],[-34.91709524694826,-7.270152378449349],[-34.917140516911374,-7.270152186970236],[-34.917140708673564,-7.270197390782174],[-34.91718597863998,-7.270197199297342],[-34.917186170407916,-7.2702424031079795],[-34.917955759726425,-7.270239147154623],[-34.91795595157245,-7.270284350944713],[-34.91800122152586,-7.270284159376208],[-34.91800141337764,-7.270329363164996],[-34.918046683334346,-7.270329171590774],[-34.91804687519187,-7.270374375378266],[-34.918092145151874,-7.2703741837983245],[-34.91809233701514,-7.270419387584519],[-34.91813760697845,-7.270419195998857],[-34.918137798847454,-7.270464399783752],[-34.9183188787065,-7.270463633391145],[-34.918319070594826,-7.270508837171129],[-34.91836434056105,-7.270508645560486],[-34.918364532455115,-7.270553849339175],[-34.918409802424634,-7.270553657722813],[-34.91840999432445,-7.270598861500199],[-34.918455264297265,-7.270598669878118],[-34.91845545620282,-7.270643873654208],[-34.918500726178934,-7.270643682026408],[-34.918500918090245,-7.270688885801201],[-34.918591458047835,-7.270688502529649],[-34.918591649969414,-7.270733706301936],[-34.91863691995089,-7.2707335146581835],[-34.91863711187822,-7.270778718429171],[-34.91895400174591,-7.2707773767880495],[-34.91895380978693,-7.270732173025488],[-34.919134889666275,-7.270731406278901],[-34.91913469769044,-7.270686202521061],[-34.91917996765269,-7.270686010824329],[-34.919179775673555,-7.2706408070676],[-34.919225045630064,-7.270640615367557],[-34.91922485364763,-7.270595411611936],[-34.91927012359838,-7.270595219908582],[-34.91926993161266,-7.270550016154073],[-34.919315201557666,-7.27054982444741],[-34.91931500956864,-7.270504620694005],[-34.919360279507906,-7.270504428984031],[-34.919360087515585,-7.270459225231738],[-34.9194053574491,-7.270459033518454],[-34.91940516545348,-7.2704138297672705],[-34.91945043538126,-7.270413638050675],[-34.91945024338234,-7.2703684343006],[-34.91949551330436,-7.270368242580694],[-34.91949532130216,-7.2703230388317275],[-34.91954059121843,-7.2703228471085115],[-34.91954039921293,-7.270277643360656],[-34.919812018657694,-7.270276492933773],[-34.919811826626294,-7.270231289193047],[-34.9200834459998,-7.270230138610856],[-34.920083253942494,-7.270184934877268],[-34.92012852382926,-7.270184743098972],[-34.920128715891096,-7.270229946831355],[-34.920309795444005,-7.270229179668204],[-34.920309987525144,-7.270274383395677],[-34.920355257414826,-7.270274191592397],[-34.92035544950172,-7.270319395318566],[-34.9204007193947,-7.270319203509565],[-34.920400911487334,-7.270364407234439],[-34.92044618138361,-7.270364215419718],[-34.920446373481994,-7.2704094191432915],[-34.92049164338156,-7.27040922732285],[-34.9204918354857,-7.270454431045122],[-34.92053710538856,-7.270454239218963],[-34.92053729749844,-7.270499442939934],[-34.920582567404594,-7.270499251108054],[-34.92058275952022,-7.270544454827724],[-34.92062802942968,-7.270544262990126],[-34.920628221551056,-7.270589466708494],[-34.92067349146381,-7.270589274865175],[-34.92067368359093,-7.270634478582247],[-34.92071895350697,-7.270634286733206],[-34.92071914563985,-7.270679490448978],[-34.92094549522428,-7.270678531130024],[-34.92094568738098,-7.270723734839673],[-34.922122704843154,-7.27071874453017],[-34.92212289711865,-7.270763948208377],[-34.922168167009,-7.270763756211236],[-34.92216835929024,-7.270808959888142],[-34.92234943885744,-7.270808191849601],[-34.922349631158,-7.270853395521585],[-34.922394901051256,-7.270853203499454],[-34.92239509335756,-7.270898407170141],[-34.92262144282801,-7.270897446985734],[-34.92262163515816,-7.27094265065029],[-34.922666905053084,-7.270942458598656],[-34.92266613572178,-7.27076164394468],[-34.92271140559739,-7.270761451893357],[-34.92271082859824,-7.270625840905498],[-34.92275609845906,-7.270625648853279],[-34.92275513679575,-7.270399630544313],[-34.92280040663274,-7.2703994384936115],[-34.922799444977514,-7.270173420188304],[-34.92284471479066,-7.27017322813912],[-34.92284375314354,-7.269947209837467],[-34.92288902293286,-7.269947017789801],[-34.922888061293826,-7.26972099949181],[-34.922933331059305,-7.26972080744566],[-34.92293236942836,-7.269494789151326],[-34.922977639170014,-7.269494597106698],[-34.92297667754716,-7.269268578816021],[-34.92302194726498,-7.269268386772912],[-34.92302117797072,-7.26908757214349],[-34.92306644766923,-7.269087380100691],[-34.92306548605644,-7.268861361817809],[-34.92311075573111,-7.268861169776529],[-34.92310979412642,-7.268635151497303],[-34.923155063777266,-7.268634959457544],[-34.92315410218066,-7.268408941181979],[-34.923199371807684,-7.268408749143739],[-34.923198410219186,-7.268182730871839],[-34.92324367982238,-7.268182538835119],[-34.92324271824199,-7.267956520566874],[-34.92328798782135,-7.267956328531674],[-34.923287218561065,-7.267775513920195],[-34.92333248812111,-7.26777532188531],[-34.92332095130371,-7.265063102603269],[-34.92327568201479,-7.265063294565745],[-34.92326799344019,-7.263255148139605],[-34.92331326254841,-7.263254956225398],[-34.9233121094046,-7.262983734255619],[-34.923357378484496,-7.262983542344145],[-34.92335622535779,-7.262712320378192],[-34.92340149440936,-7.262712128469448],[-34.923400341299775,-7.262440906507323],[-34.923445610323014,-7.262440714601309],[-34.923444841589784,-7.26225989996282],[-34.923399572584614,-7.2622600918640074],[-34.92339899606114,-7.262124480880524],[-34.92335372706829,-7.26212467277358],[-34.92335295840558,-7.2619438581227795],[-34.92330768942956,-7.261944050006497],[-34.92330711295898,-7.261808439013779],[-34.923261843995284,-7.2618086308893695],[-34.9232612675493,-7.261673019892181],[-34.92321599859792,-7.26167321175964],[-34.92321523003854,-7.261492397090563],[-34.923169961103994,-7.261492588948687],[-34.92316938471089,-7.261356977942267],[-34.92312411578867,-7.26135716979226],[-34.923123347299786,-7.261176355110874],[-34.9230780783944,-7.261176546951531],[-34.92307750205418,-7.261040935935875],[-34.92303223316111,-7.2610411277684035],[-34.923031464742735,-7.260860313074708],[-34.9229861958665,-7.2608605048979005],[-34.922985619579165,-7.260724893873016],[-34.922940350715244,-7.2607250856880805],[-34.92293958236738,-7.260544270982077],[-34.922894313520295,-7.260544462787806],[-34.922893737285825,-7.260408851753688],[-34.922848468451065,-7.260409043551289],[-34.92284770017369,-7.260228228832977],[-34.922802431355755,-7.260228420621243],[-34.922801855174164,-7.260092809577892],[-34.92275658636855,-7.2600930013580305],[-34.922755818161676,-7.259912186627411],[-34.92271054937289,-7.259912378398216],[-34.92270997324417,-7.259776767345636],[-34.9226647044677,-7.259776959108314],[-34.92266393633132,-7.259596144365387],[-34.922618667571676,-7.259596336118731],[-34.92261809149583,-7.259460725056922],[-34.922572822748506,-7.259460916802138],[-34.92257205468262,-7.259280102046904],[-34.92252678595212,-7.259280293782787],[-34.92252620992914,-7.259144682711744],[-34.922480941210964,-7.2591448744395],[-34.92248017321556,-7.258964059671964],[-34.92243490451421,-7.258964251390387],[-34.922433752585015,-7.258693029228996],[-34.92238848390953,-7.258693220935674],[-34.922387332051606,-7.25842199876363],[-34.92234206340198,-7.258422190458565],[-34.92234091161532,-7.25815096827587],[-34.92229564299154,-7.258151159959059],[-34.92229449127616,-7.2578799377657175],[-34.92224922267824,-7.257880129437163],[-34.92224826297175,-7.257654110934068],[-34.92220299439516,-7.2576543025949745],[-34.92220184281495,-7.257383080380903],[-34.922156574264214,-7.257383272030066],[-34.922150433393725,-7.255936753458761],[-34.922105164986164,-7.255936945064825],[-34.922103821869854,-7.255620519105969],[-34.92205855349266,-7.255620710699086],[-34.922057402325045,-7.255349488437704],[-34.922012133973695,-7.255349680019079],[-34.92201079103223,-7.255033254034715],[-34.92196552271123,-7.255033445603141],[-34.92196456352671,-7.25480742703401],[-34.92191929522704,-7.254807618591903],[-34.92191948705698,-7.254852822307123],[-34.92182895044495,-7.254853205411805],[-34.921829142267086,-7.254898409129342],[-34.92173860564111,-7.254898792218415],[-34.92173879745546,-7.2549439959382696],[-34.92169352913613,-7.254944187477253],[-34.92169372094719,-7.254989391198222],[-34.92160318429581,-7.254989774265088],[-34.92160337609908,-7.2550349779883705],[-34.92151283943377,-7.255035361039625],[-34.92151303122924,-7.255080564765225],[-34.921422494549994,-7.255080947800869],[-34.921422686337664,-7.255126151528786],[-34.9213321496445,-7.255126534548819],[-34.921332341424375,-7.255171738279052],[-34.921241804717276,-7.255172121283476],[-34.92124199648935,-7.255217325016026],[-34.92115145976832,-7.25521770800484],[-34.92115126800526,-7.255172504269877],[-34.921105999647416,-7.25517269575632],[-34.9211058078901,-7.255127492020062],[-34.921015271179755,-7.2551278749770205],[-34.92101507943269,-7.255082671238255],[-34.92096981108019,-7.255082862708771],[-34.92096961933886,-7.255037658968703],[-34.92042639906733,-7.2550399562490195],[-34.92042620738136,-7.2549947524943965],[-34.92029040229942,-7.2549953267094915],[-34.92029059397185,-7.255040530467728],[-34.92024532560424,-7.255040721864954],[-34.920245517273386,-7.255085925624302],[-34.92020024890004,-7.255086117018227],[-34.92020044056589,-7.255131320778684],[-34.92015517218681,-7.255131512169308],[-34.92015555551318,-7.2552219196923495],[-34.92011028712384,-7.2552221110808786],[-34.92011047878435,-7.255267314843461],[-34.92006521038928,-7.255267506228689],[-34.920065402046504,-7.255312709992383],[-34.92002013364569,-7.255312901374309],[-34.92002032529964,-7.255358105139112],[-34.91997505689309,-7.255358296517739],[-34.91997524854374,-7.25540350028365],[-34.91992998013146,-7.255403691658976],[-34.91993017177882,-7.255448895426001],[-34.9198849033608,-7.255449086798027],[-34.91988509500488,-7.2554942905661575],[-34.919839826581125,-7.255494481934882],[-34.91984001822191,-7.255539685704123],[-34.919794749792416,-7.2555398770695465],[-34.91979494142993,-7.255585080839897],[-34.91974967299469,-7.25558527220202],[-34.919749864628905,-7.255630475973482],[-34.919659327745734,-7.255630858686618],[-34.91965951937216,-7.255676062460394],[-34.91961425092422,-7.255676253811408],[-34.919614442547356,-7.255721457586294],[-34.91956917409368,-7.2557216489340055],[-34.919569365713535,-7.255766852710002],[-34.91947882879348,-7.255767235394319],[-34.91947902040553,-7.255812439172627],[-34.91943375193915,-7.25581263050923],[-34.91943394354792,-7.255857834288652],[-34.919343406602465,-7.2558582169507515],[-34.91934359820343,-7.255903420732483],[-34.91929832972435,-7.255903612057978],[-34.919298521322034,-7.255948815840822],[-34.919253252837215,-7.255949007163016],[-34.91925344443161,-7.255994210946969],[-34.91916290744928,-7.255994593580247],[-34.91916309903587,-7.256039797366508],[-34.919117830538354,-7.256039988677593],[-34.919118022121665,-7.256085192464971],[-34.91907275361841,-7.256085383772752],[-34.91907294519843,-7.256130587561235],[-34.91902767668944,-7.256130778865717],[-34.91902786826617,-7.25617598265531],[-34.918982599751445,-7.256176173956488],[-34.91898279132489,-7.256221377747193],[-34.91893752280442,-7.256221569045071],[-34.91893771437458,-7.25626677283688],[-34.91889244584837,-7.256266964131454],[-34.91889263741525,-7.256312167924376],[-34.9188473688833,-7.256312359215647],[-34.918847560446885,-7.25635756300968],[-34.918757023370304,-7.256357945581114],[-34.91875721492608,-7.256403149377459],[-34.918711946381435,-7.256403340657621],[-34.91871232948767,-7.256493748252429],[-34.91866706093277,-7.2564939395304915],[-34.91866744403487,-7.256584347127332],[-34.91862217546972,-7.256584538403297],[-34.91862255856769,-7.256674946002166],[-34.91857728999229,-7.256675137276032],[-34.91857767308614,-7.25676554487693],[-34.918532404500496,-7.256765736148698],[-34.91853278759022,-7.25685614375162],[-34.91848751899432,-7.256856335021289],[-34.91848790207992,-7.256946742626246],[-34.918442633473774,-7.256946933893816],[-34.9184428250139,-7.256992137697353],[-34.918397556402006,-7.25699232896162],[-34.9183979394769,-7.25708273657082],[-34.918352670854766,-7.257082927832988],[-34.91835286238953,-7.257128131638648],[-34.91830759376166,-7.257128322897513],[-34.91830797682585,-7.257218730510957],[-34.918262708187726,-7.2572189217677225],[-34.91826289971715,-7.257264125575507],[-34.91821763107328,-7.2572643168289686],[-34.918217822599416,-7.257309520637862],[-34.918172553949816,-7.257309711888021],[-34.918172936996726,-7.257400119507931],[-34.91812766833687,-7.2574003107559895],[-34.918127859857655,-7.257445514567005],[-34.918173128522014,-7.257445323317743],[-34.91817351157628,-7.257535730937083],[-34.918218780248445,-7.257535539680906],[-34.918218971781926,-7.257580743489229],[-34.91826424045738,-7.257580552227342],[-34.91826462353704,-7.257670959841298],[-34.9183098922203,-7.257670768572497],[-34.918310083766485,-7.257715972378133],[-34.91835535245303,-7.25771578110362],[-34.91835803429138,-7.258348634355674],[-34.918312765541636,-7.258348825647037],[-34.91831544755687,-7.258981678897358],[-34.918360716369804,-7.2589814875891445],[-34.91836109954347,-7.259071895192407],[-34.9184063683642,-7.259071703877277],[-34.918406943147424,-7.259207315277852],[-34.91845221198047,-7.259207123954604],[-34.91845259518445,-7.259297531552105],[-34.9184978640253,-7.2592973402219405],[-34.9184982472432,-7.259387747816657],[-34.91854351609186,-7.2593875564795765],[-34.91854389932369,-7.259477964071505],[-34.917910135204544,-7.259480642414094],[-34.91791032675909,-7.259525846226766],[-34.917774520117355,-7.259526420045974],[-34.91777471165958,-7.259571623862161],[-34.91772944277204,-7.259571815127417],[-34.91772963431098,-7.259617018944713],[-34.917639096523196,-7.259617401464107],[-34.917639288054325,-7.259662605283715],[-34.917548750252614,-7.2596629877874825],[-34.91754894177594,-7.259708191609401],[-34.91750367286873,-7.2597083828557265],[-34.91750386438877,-7.259753586678755],[-34.91741332656165,-7.259753969160286],[-34.917413518073886,-7.259799172985624],[-34.917368249153974,-7.2597993642208305],[-34.91736844066291,-7.259844568047278],[-34.91732317173726,-7.259844759279179],[-34.917323363242915,-7.259889963106734],[-34.91723282537891,-7.259890345559416],[-34.91723301687676,-7.259935549389283],[-34.91718774793841,-7.259935740610064],[-34.917187939432964,-7.25998094444104],[-34.91637309825205,-7.259984385665817],[-34.91637290683877,-7.259939181813193],[-34.91596548614026,-7.259940901866985],[-34.91596567751292,-7.259986105730428],[-34.91551298768654,-7.259988016485025],[-34.91551317901527,-7.2600332203603966],[-34.915105758026314,-7.260034939664875],[-34.91510594931564,-7.260080143550964],[-34.91492487327069,-7.260080907573872],[-34.914925064543176,-7.260126111464675],[-34.91478925748308,-7.260126684438123],[-34.914789448743235,-7.260171888332436],[-34.91469891068804,-7.260172270294594],[-34.914699101940386,-7.260217474191215],[-34.91456329483486,-7.260218047104241],[-34.91456348607489,-7.260263251004371],[-34.9144729479894,-7.260263632926248],[-34.91447313922162,-7.260308836828684],[-34.91438260112221,-7.260309218734929],[-34.91438279234662,-7.260354422639673],[-34.91433752329057,-7.260354613587235],[-34.91433771451169,-7.260399817493086],[-34.91424717638689,-7.2604001993770835],[-34.91424736760019,-7.260445403285242],[-34.91420209853145,-7.260445594221679],[-34.91420228974146,-7.260490798130944],[-34.91406648251433,-7.260491370916804],[-34.91406667371203,-7.260536574829576],[-34.91393086646035,-7.260537147578461],[-34.91393105764572,-7.260582351494742],[-34.913795250369496,-7.260582924206648],[-34.91379544154254,-7.260628128126437],[-34.913659634241775,-7.260628700801366],[-34.9136598254025,-7.260673904724664],[-34.913478748966305,-7.260674668232915],[-34.913478557823645,-7.260629464304815],[-34.91316167404488,-7.260630800262256],[-34.913161482935045,-7.26058559632566],[-34.91302567559651,-7.260586168807614],[-34.913025484501446,-7.26054096486732],[-34.912934946278675,-7.260541346497012],[-34.91293475519386,-7.260496142554223],[-34.91279894786409,-7.260496714961343],[-34.91279875679404,-7.260451511014859],[-34.91270821857712,-7.260451892594661],[-34.912708027517326,-7.260406688645681],[-34.91261748930455,-7.260407070205047],[-34.91261729825501,-7.260361866253572],[-34.91243622183286,-7.260362629313399],[-34.912436412864345,-7.260407833269675],[-34.91234587463691,-7.260408214774937],[-34.912346065660586,-7.260453418733518],[-34.91230079654053,-7.260453609480585],[-34.912300987560904,-7.260498813440271],[-34.912210449308084,-7.2604991949232796],[-34.91221064032066,-7.26054439888527],[-34.91198429464466,-7.260545352519884],[-34.91198448563588,-7.260590556487779],[-34.911803409055054,-7.260591319319111],[-34.91180360002943,-7.2606365232917085],[-34.911622523411005,-7.260637286055696],[-34.91162271436854,-7.260682490032997],[-34.9113058302077,-7.260683824704778],[-34.91130563928177,-7.26063862071908],[-34.91116983177951,-7.26063919265004],[-34.91116964086835,-7.260593988660651],[-34.91103383336865,-7.260594560547433],[-34.91103402426626,-7.260639764540419],[-34.91098875509274,-7.260639955161528],[-34.91098894598706,-7.26068515915562],[-34.9109436768078,-7.260685349773418],[-34.91094386769882,-7.260730553768612],[-34.910898598513825,-7.260730744383099],[-34.910898980290504,-7.2608211523756045],[-34.91085371109526,-7.260821342987982],[-34.910853901980914,-7.260866546985292],[-34.91080863277993,-7.26086673759436],[-34.91080882366229,-7.260911941592772],[-34.91076355445558,-7.260912132198529],[-34.910763745334634,-7.2609573361980475],[-34.910718476122184,-7.260957526800495],[-34.91071866699795,-7.261002730801118],[-34.91067339777977,-7.261002921400254],[-34.91067358865224,-7.261048125401983],[-34.91062831942832,-7.261048315997808],[-34.910628510297485,-7.261093520000635],[-34.91058324106783,-7.261093710593152],[-34.91058343193371,-7.261138914597088],[-34.910538162698316,-7.261139105186294],[-34.9105383535609,-7.261184309191332],[-34.91044781507742,-7.261184690358614],[-34.910448005932196,-7.261229894365954],[-34.910402736684105,-7.261230084944028],[-34.910402927535586,-7.261275288952472],[-34.91026711977047,-7.26127586066324],[-34.91026731060961,-7.261321064675186],[-34.910131502819965,-7.261321636348965],[-34.91013169364678,-7.261366840364411],[-34.90999588583261,-7.2613674120012],[-34.909996076647104,-7.261412616020148],[-34.90995080736876,-7.261412806557925],[-34.90995118899238,-7.261503214597931],[-34.909905919703775,-7.2615034051335945],[-34.9099064921348,-7.261639017196488],[-34.90986122283144,-7.261639207731237],[-34.90986198607181,-7.261820023818561],[-34.90981671674916,-7.261820214353595],[-34.9098172891787,-7.26195582642169],[-34.90977201984128,-7.26195601695581],[-34.909772783079674,-7.262136833050064],[-34.90972751372297,-7.262137023584467],[-34.90972827696281,-7.262317839682002],[-34.90968300758682,-7.262318030216687],[-34.909683198395314,-7.262363234242031],[-34.90963792901359,-7.262363424773404],[-34.90963811981878,-7.262408628799849],[-34.90959285043133,-7.262408819327912],[-34.90959323203634,-7.262499227382921],[-34.909547962638634,-7.26249941790887],[-34.90954815343845,-7.262544621937428],[-34.909502884035,-7.262544812460064],[-34.90950307483153,-7.262590016489728],[-34.90945780542235,-7.262590207009052],[-34.90945799621557,-7.262635411039817],[-34.90936745738451,-7.26263579206733],[-34.90936764816992,-7.2626809961004],[-34.90932237874805,-7.26268118660859],[-34.90932256953017,-7.2627263906427615],[-34.90927730010255,-7.262726581147638],[-34.90927749088137,-7.262771785182912],[-34.90923222144802,-7.262771975684477],[-34.909232603000284,-7.262862383757139],[-34.90918733355669,-7.26286257425659],[-34.90918752433012,-7.262907778293975],[-34.909142254880784,-7.262907968790114],[-34.909142636422295,-7.262998376866999],[-34.909097366962705,-7.262998567361023],[-34.90909755773077,-7.2630437714005165],[-34.90873540197406,-7.263045295199913],[-34.90873521124213,-7.263000091150836],[-34.908327785963245,-7.26300180506933],[-34.90832816734701,-7.263092213188948],[-34.90837343683636,-7.2630920227692055],[-34.90837381823403,-7.2631824308860535],[-34.90841908773119,-7.263182240459407],[-34.90841946914278,-7.263272648573479],[-34.90846473864775,-7.2632724581399275],[-34.908465120073245,-7.263362866251222],[-34.908510389586034,-7.263362675810765],[-34.908510580305126,-7.263407879865072],[-34.90855584982121,-7.263407689418908],[-34.90855623127209,-7.263498097524844],[-34.90860150079599,-7.263497907071772],[-34.90860169152777,-7.263543111123403],[-34.90864696105497,-7.263542920664623],[-34.90864715179249,-7.26358812471496],[-34.908828229907165,-7.2635873628299406],[-34.90882842066397,-7.263632566875395],[-34.90887369019412,-7.263632376391665],[-34.908874071720426,-7.263722784479888],[-34.908919341258375,-7.263722593989251],[-34.90891972279859,-7.2638130020746985],[-34.908964992344366,-7.263812811577155],[-34.90896556467739,-7.263948423701024],[-34.90901083423549,-7.263948233195377],[-34.90901140659303,-7.264083845314799],[-34.909056676163466,-7.2640836548010475],[-34.90905724854554,-7.26421926691602],[-34.909102518128314,-7.2642190763941645],[-34.90910347214539,-7.264445096577901],[-34.90905820254003,-7.2644452871057466],[-34.90905839334259,-7.264490491143408],[-34.90901312373149,-7.26449068166794],[-34.909013314530746,-7.264535885706702],[-34.90896804491392,-7.264536076227921],[-34.90896823570987,-7.264581280267788],[-34.908922966087296,-7.264581470785693],[-34.908923347673834,-7.264671878867537],[-34.90887807804101,-7.264672069383327],[-34.90887826883159,-7.264717273425303],[-34.90883299919303,-7.264717463937779],[-34.908833380768804,-7.264807872023847],[-34.908878650416405,-7.264807681508977],[-34.90888132164663,-7.265440538084049],[-34.90892659135627,-7.265440347547899],[-34.90892926288868,-7.266073204087614],[-34.908974532660345,-7.266073013530183],[-34.90897491433638,-7.266163421603372],[-34.909020184115874,-7.266163231039031],[-34.90902037496023,-7.266208435074284],[-34.90906564474303,-7.2662082445042335],[-34.909065835593125,-7.266253448538197],[-34.909111105379225,-7.266253257962436],[-34.90911148709212,-7.26634366602768],[-34.909156756886034,-7.266343475445011],[-34.909156947748826,-7.266388679476291],[-34.90920221754604,-7.266388488887912],[-34.90920240841457,-7.266433692917899],[-34.90924767821509,-7.2664335023238085],[-34.90924805996485,-7.266523910381105],[-34.90929332977318,-7.266523719780105],[-34.909293711536854,-7.266614127834627],[-34.90933898135301,-7.266613937226718],[-34.9093393631306,-7.266704345278468],[-34.90938463295457,-7.2667041546636515],[-34.90938501474608,-7.266794562712618],[-34.909430284577866,-7.266794372090891],[-34.909430666383294,-7.266884780137087],[-34.9094759362229,-7.266884589508452],[-34.909476318042245,-7.266974997551871],[-34.90952158788967,-7.266974806916326],[-34.90952177880569,-7.267020010936696],[-34.90956704865641,-7.267019820295441],[-34.90956743050115,-7.267110228333498],[-34.909612700359695,-7.267110037685335],[-34.90961308221835,-7.267200445720616],[-34.90965835208472,-7.267200255065541],[-34.90965873395728,-7.267290663098047],[-34.90970400383147,-7.267290472436063],[-34.90970438571796,-7.267380880465792],[-34.90974965559996,-7.267380689796898],[-34.909750037500366,-7.267471097823853],[-34.90979530739019,-7.2674709071480486],[-34.909795880263495,-7.26760651918417],[-34.90984115016566,-7.267606328500259],[-34.90984153209634,-7.26769673652147],[-34.909886802006326,-7.267696545830648],[-34.90988737492505,-7.267832157858157],[-34.90993264484737,-7.2678319671592275],[-34.90993398173205,-7.268148395211706],[-34.909979251684796,-7.268148204499873],[-34.90997963367186,-7.268238612511618],[-34.91002490363243,-7.268238421792875],[-34.91002471263377,-7.268193217788249],[-34.910069982588595,-7.268193027066191],[-34.91006979158663,-7.268147823062669],[-34.91011506153573,-7.268147632337294],[-34.91011487053046,-7.268102428334878],[-34.91016014047381,-7.26810223760619],[-34.91015994946524,-7.268057033604877],[-34.9104315690726,-7.268055889145154],[-34.91043137803814,-7.268010685150934],[-34.910476647963904,-7.268010494393048],[-34.91047645692614,-7.267965290399933],[-34.91052172684617,-7.267965099638731],[-34.9105215358051,-7.267919895646725],[-34.9105668057194,-7.267919704882209],[-34.910566614675034,-7.267874500891301],[-34.91133620295443,-7.267871257224358],[-34.91133639407564,-7.26791646119488],[-34.911381663967965,-7.267916270349121],[-34.911382046223075,-7.268006678287483],[-34.91142731612322,-7.268006487434811],[-34.91142769839226,-7.268096895370395],[-34.911472968300224,-7.2680967045108105],[-34.91147315944109,-7.268141908477259],[-34.911654239078814,-7.268141144988994],[-34.91165404791987,-7.268095941027344],[-34.91169931782173,-7.268095750145192],[-34.911699126659485,-7.268050546184646],[-34.91165385676214,-7.2680507370655985],[-34.91165347445035,-7.267960329141817],[-34.911744014225725,-7.2679599473801995],[-34.911743631900734,-7.267869539460841],[-34.911834171653155,-7.267869157685967],[-34.91183398048345,-7.267823953728545],[-34.91192452022194,-7.267823571938017],[-34.911924329044425,-7.267778367982899],[-34.91206013862944,-7.267777795266856],[-34.91206032982053,-7.267822999218374],[-34.91201505995556,-7.267823190129435],[-34.912015633522564,-7.267958801987019],[-34.91215144315451,-7.267958229229498],[-34.91215125195072,-7.267913025280666],[-34.912287061558104,-7.267912452486122],[-34.91228687034198,-7.26786724854079],[-34.91233214020415,-7.267867057601449],[-34.91233156654955,-7.267731445768488],[-34.9124221062431,-7.267731063883465],[-34.91242134135122,-7.267550248114459],[-34.91260242065135,-7.26754948430945],[-34.91260261189057,-7.267594688247042],[-34.91264788171707,-7.267594497283308],[-34.91264864670422,-7.267775313027937],[-34.91273918638971,-7.2677749310773265],[-34.9127395689087,-7.267865338944267],[-34.91278483875865,-7.267865147959792],[-34.91278522129156,-7.267955555823956],[-34.91283049114933,-7.267955364832565],[-34.91283068242214,-7.2680005687633065],[-34.91287595228321,-7.268000377766203],[-34.91287690868816,-7.268226397412477],[-34.91292217857061,-7.268226206404858],[-34.91292256115019,-7.268316614260301],[-34.91296783104046,-7.268316423245767],[-34.9129680223366,-7.268361627172148],[-34.91301329223016,-7.268361436151899],[-34.91301367483515,-7.268451844001971],[-34.913240024329866,-7.2684508888210235],[-34.91324021565679,-7.268496092739918],[-34.913285485556585,-7.268495901688985],[-34.91328567688926,-7.268541105606585],[-34.91333094679236,-7.268540914549938],[-34.913331138130765,-7.268586118466241],[-34.91324059831431,-7.268586500577419],[-34.9132407896449,-7.268631704496026],[-34.913195519730316,-7.2686318955460445],[-34.91319590238613,-7.268722303385374],[-34.91337698207329,-7.26872153914861],[-34.9133775561204,-7.268857150892488],[-34.9134228260527,-7.268856959818411],[-34.913423017408704,-7.26890216373165],[-34.91355882721182,-7.268901590478731],[-34.91355863584226,-7.2688563865690945],[-34.91360390576967,-7.268856195476961],[-34.9136037143968,-7.268810991568435],[-34.91369425423891,-7.268810609373028],[-34.91369444562082,-7.268855813279151],[-34.913830255388376,-7.268855239948583],[-34.91382987259867,-7.26876483214344],[-34.91378460268641,-7.2687650232557415],[-34.91378421991063,-7.268674615447817],[-34.91373895000619,-7.268674806553204],[-34.91373875862465,-7.2686296026479],[-34.913648218821145,-7.26862998484273],[-34.913648410193645,-7.268675188750436],[-34.913512600465666,-7.268675762012427],[-34.91351240910672,-7.268630558101121],[-34.913557679012754,-7.268630367019505],[-34.91355748765052,-7.268585163109301],[-34.91360275755081,-7.268584972024371],[-34.91360237482096,-7.2684945642060805],[-34.91373818448737,-7.268493990931414],[-34.913737993110715,-7.268448787025728],[-34.913964342507676,-7.268447831483677],[-34.91396472530741,-7.268538239282945],[-34.91410053495804,-7.2685376658963445],[-34.9141007263733,-7.2685828697922314],[-34.91419126614331,-7.268582487509526],[-34.914191074719014,-7.26853728361604],[-34.914417424100066,-7.268536327836289],[-34.91441761554697,-7.268581531723768],[-34.91446288542403,-7.268581340553075],[-34.91446307687667,-7.268626544439259],[-34.91450834675703,-7.268626353262851],[-34.91450853821542,-7.268671557147736],[-34.914599077981514,-7.268671174778975],[-34.91459946092003,-7.268761582543661],[-34.91464473081029,-7.268761391350106],[-34.9146449222859,-7.268806595231106],[-34.91469019217946,-7.268806404031836],[-34.91469038366081,-7.268851607911537],[-34.91473565355766,-7.2688514167065525],[-34.91473584504477,-7.268896620584961],[-34.914781114944915,-7.268896429374261],[-34.91478130643776,-7.2689416332513686],[-34.91487184624342,-7.268941250814024],[-34.914872037746534,-7.268986454688636],[-34.91496257755635,-7.26898607223083],[-34.9149623860442,-7.26894086835862],[-34.9150981957362,-7.268940294641662],[-34.915098387261914,-7.268985498510265],[-34.9152794668522,-7.268984733486316],[-34.91527965839722,-7.269029937350017],[-34.91541546809065,-7.26902936353105],[-34.915415659650456,-7.269074567391053],[-34.91546092955034,-7.269074376107834],[-34.91546112111588,-7.269119579966539],[-34.91550639101907,-7.269119388677604],[-34.915505624746146,-7.268938573247022],[-34.91582251390761,-7.268937234131736],[-34.91582270550564,-7.268982437981109],[-34.915732165742305,-7.268982820610452],[-34.91573235733252,-7.269028024462134],[-34.91577762721933,-7.269027833148518],[-34.91577781881529,-7.269073036998904],[-34.915823088705395,-7.269072845679572],[-34.91582328030711,-7.269118049528661],[-34.915913820092676,-7.269117666874049],[-34.915914203317854,-7.269208074567132],[-34.915959473217846,-7.269207883230651],[-34.91596004807835,-7.269343494765959],[-34.916050587901786,-7.2693431120722405],[-34.91605039627136,-7.269297908229635],[-34.91609566617672,-7.269297716877206],[-34.916095857811676,-7.26934292071861],[-34.91614112772033,-7.2693427293604636],[-34.91614131936103,-7.269387933200566],[-34.916096049447845,-7.269388124559914],[-34.91609624108525,-7.269433328401125],[-34.91618678091943,-7.2694329456755105],[-34.9161869725671,-7.269478149514221],[-34.91623224248687,-7.26947795814344],[-34.91623262579492,-7.269568365818174],[-34.916277895722516,-7.269568174440474],[-34.916278470707326,-7.269703785948255],[-34.91677643997928,-7.269701680455911]],[[-34.91337640803716,-7.268585927403881],[-34.913376599381316,-7.2686311313188865],[-34.913331329470395,-7.268631322382447],[-34.913331138130765,-7.268586118466241],[-34.91337640803716,-7.268585927403881]],[[-34.91342186929101,-7.268630940250812],[-34.9134220606409,-7.26867614416452],[-34.91337679072669,-7.268676335233795],[-34.913376599381316,-7.2686311313188865],[-34.91342186929101,-7.268630940250812]],[[-34.91346733055389,-7.26867595309073],[-34.91346752190953,-7.268721157003147],[-34.91342225199202,-7.268721348078135],[-34.9134220606409,-7.26867614416452],[-34.91346733055389,-7.26867595309073]],[[-34.91351279182582,-7.268720965923643],[-34.9135129831872,-7.268766169834762],[-34.913467713266385,-7.268766360915466],[-34.91346752190953,-7.268721157003147],[-34.91351279182582,-7.268720965923643]],[[-34.913558253106785,-7.268765978749543],[-34.913558444473914,-7.268811182659367],[-34.913513174549806,-7.268811373745787],[-34.9135129831872,-7.268766169834762],[-34.913558253106785,-7.268765978749543]],[[-34.915959281600124,-7.269162679385358],[-34.916004551494375,-7.269162488045566],[-34.916004743116616,-7.269207691889655],[-34.915959473217846,-7.269207883230651],[-34.915959281600124,-7.269162679385358]],[[-34.916277704063354,-7.269522970604357],[-34.91636824390583,-7.269522587837818],[-34.91636843557403,-7.26956779167153],[-34.916277895722516,-7.269568174440474],[-34.916277704063354,-7.269522970604357]],[[-34.91645916709911,-7.269612612715738],[-34.91645897542065,-7.2695674088845275],[-34.91654951526238,-7.269567026079469],[-34.91654970694988,-7.269612229908273],[-34.91645916709911,-7.269612612715738]],[[-34.916685708419145,-7.269656859488323],[-34.91668551671686,-7.269611655663217],[-34.916730786636734,-7.269611464239171],[-34.91673097834355,-7.269656668063072],[-34.916685708419145,-7.269656859488323]],[[-34.91990159827284,-7.270050090729504],[-34.919901406238516,-7.270004886990715],[-34.91999194598447,-7.270004503475365],[-34.91999213802783,-7.270049707211745],[-34.91990159827284,-7.270050090729504]],[[-34.91981125053944,-7.27009567797031],[-34.919811058512934,-7.2700504742292065],[-34.9198563283935,-7.270050282481613],[-34.91985652042452,-7.270095486221513],[-34.91981125053944,-7.27009567797031]],[[-34.919675632890986,-7.270141456934234],[-34.91967544087682,-7.270096253189615],[-34.91976598065312,-7.270095869714592],[-34.919766172676326,-7.270141073456803],[-34.919675632890986,-7.270141456934234]],[[-34.91944966739296,-7.270232823049805],[-34.919449475398956,-7.270187619299352],[-34.91949474530289,-7.270187427584264],[-34.919494937301415,-7.2702326313335135],[-34.91944966739296,-7.270232823049805]],[[-34.91935912757237,-7.270233206468847],[-34.91935931955856,-7.270278410221615],[-34.919314049641905,-7.270278601925567],[-34.919313857660235,-7.270233398171594],[-34.91935912757237,-7.270233206468847]],[[-34.919314241624804,-7.2703238056794435],[-34.9192689717024,-7.2703239973800855],[-34.91926877972403,-7.270278793625004],[-34.919314049641905,-7.270278601925567],[-34.919314241624804,-7.2703238056794435]],[[-34.919269163682,-7.270369201135074],[-34.91922389375385,-7.2703693928324045],[-34.91922370177877,-7.270324189076212],[-34.9192689717024,-7.2703239973800855],[-34.919269163682,-7.270369201135074]],[[-34.922574442061,-7.270490806035494],[-34.922574249747655,-7.27044560236878],[-34.92266478943926,-7.270445218296568],[-34.92266498176165,-7.270490421960869],[-34.922574442061,-7.270490806035494]],[[-34.92207666588447,-7.270538121802994],[-34.92207647361963,-7.2704929181231055],[-34.92230282292958,-7.270491958151007],[-34.92230301521702,-7.270537161824865],[-34.92207666588447,-7.270538121802994]],[[-34.92076383915068,-7.270543687450236],[-34.92076364701697,-7.270498483735385],[-34.920899456713364,-7.270497908158476],[-34.92089964886065,-7.270543111869712],[-34.92076383915068,-7.270543687450236]],[[-34.92144307979286,-7.27058601283793],[-34.921442887590096,-7.270540809141258],[-34.92175977676735,-7.270539465582744],[-34.92175996900177,-7.270584669270976],[-34.92144307979286,-7.27058601283793]]]}},{"type":"Feature","properties":{"id":1,"camada":"Bacia B revisada D8"},"geometry":{"type":"Polygon","coordinates":[[[-34.91056556998147,-7.269395419189146],[-34.91034609381581,-7.269170909681573],[-34.91024583220161,-7.270525163055333],[-34.90999867444837,-7.270701399499741],[-34.90972284350665,-7.271150544958608],[-34.90960553058926,-7.272032612433064],[-34.91002297988314,-7.272789384893803],[-34.91026727063381,-7.273259682183735],[-34.91024709589691,-7.273894764247746],[-34.91028175906283,-7.274586384356209],[-34.91001198529597,-7.274831598287617],[-34.90998679498599,-7.2752738227826],[-34.90965307653542,-7.275786657975356],[-34.90947984124173,-7.277086699637136],[-34.90972789615252,-7.278302454133205],[-34.90977372963526,-7.279180719970515],[-34.91041880483383,-7.279724804268441],[-34.91194638006571,-7.27975712636332],[-34.91279732676302,-7.27973099956157],[-34.91304772666989,-7.280045723502359],[-34.91495169526974,-7.279980096976095],[-34.91551355897469,-7.279742392961943],[-34.9160604300328,-7.279847157194842],[-34.91658071291758,-7.280032511899893],[-34.91695119129236,-7.280353603883988],[-34.91721126845711,-7.281468290832565],[-34.91834668298662,-7.28171848557858],[-34.92068524198668,-7.277702204874614],[-34.92215211466374,-7.272956294942466],[-34.92277017307313,-7.270454880781286],[-34.92209964208754,-7.270543060621506],[-34.92156789542332,-7.270572560192688],[-34.92129548286302,-7.27055048871711],[-34.92089021909781,-7.270525924521826],[-34.92054994330082,-7.270514778425053],[-34.92025870495281,-7.270399630815358],[-34.91995908166195,-7.270031707022861],[-34.91975189196799,-7.270118134274822],[-34.91955999299815,-7.270172688720865],[-34.919355743742,-7.270260322520454],[-34.91918797062946,-7.270411989834904],[-34.9190703291222,-7.270554773936794],[-34.91897909184992,-7.270803890407592],[-34.91883828932702,-7.270827853784254],[-34.91855220418854,-7.270788870935871],[-34.91821828268699,-7.270633692695502],[-34.91802020123038,-7.270539803719316],[-34.91769078719508,-7.270336037839617],[-34.9170941681683,-7.270152928840084],[-34.91694517919488,-7.269982125195985],[-34.91675579310133,-7.26973613247182],[-34.9166840075814,-7.26963780851394],[-34.91621470229036,-7.269536371497254],[-34.91588800834698,-7.269052780965779],[-34.91578493226886,-7.268963614268004],[-34.91425339576847,-7.268954734988666],[-34.91361312461161,-7.268852379395759],[-34.91319006838087,-7.268510046209622],[-34.91254415272645,-7.268522292779037],[-34.91166234185865,-7.268674435433946],[-34.91166723166064,-7.268885221817714],[-34.91117301110634,-7.268939464449001],[-34.91109087332678,-7.269397979426645],[-34.91056556998147,-7.269395419189146]]]}}]}