{
"type": "FeatureCollection",
"name": "bacia_B_modelo",
"crs": { "type": "name", "properties": { "name": "urn:ogc:def:crs:OGC:1.3:CRS84" } },
"features": [
{"type":"Feature","properties":{"id":1,"camada":"Bacia B"},"geometry":{"type":"Polygon","coordinates":[[[-34.910565569981472,-7.269395419189145],[-34.910346093815818,-7.269170909681568],[-34.91024583220161,-7.27052516305534],[-34.909998674448367,-7.270701399499742],[-34.90972284350665,-7.271150544958607],[-34.909605530589261,-7.27203261243306],[-34.910022979883138,-7.272789384893809],[-34.91026727063381,-7.273259682183729],[-34.910247095896914,-7.273894764247739],[-34.910281759062833,-7.274586384356212],[-34.910011985295966,-7.274831598287621],[-34.90998679498599,-7.275273822782597],[-34.90965307653542,-7.275786657975355],[-34.909479841241733,-7.27708669963713],[-34.909727896152518,-7.278302454133209],[-34.909773729635262,-7.27918071997052],[-34.910418804833832,-7.279724804268449],[-34.911946380065707,-7.279757126363318],[-34.91279732676302,-7.279730999561568],[-34.913047726669888,-7.280045723502353],[-34.914951695269743,-7.279980096976088],[-34.915513558974688,-7.279742392961944],[-34.9160604300328,-7.279847157194834],[-34.916580712917579,-7.280032511899886],[-34.916951191292362,-7.28035360388399],[-34.917211268457109,-7.28146829083257],[-34.918346682986623,-7.281718485578573],[-34.920685241986682,-7.277702204874606],[-34.922152114663739,-7.27295629494246],[-34.922770173073133,-7.270454880781291],[-34.922099642087538,-7.270543060621499],[-34.921567895423323,-7.270572560192695],[-34.921295482863023,-7.270550488717103],[-34.920890219097807,-7.270525924521828],[-34.92054994330082,-7.270514778425058],[-34.920258704952808,-7.27039963081535],[-34.919959081661951,-7.270031707022851],[-34.919751891967991,-7.270118134274816],[-34.919559992998153,-7.270172688720868],[-34.919355743742003,-7.270260322520453],[-34.919187970629459,-7.270411989834904],[-34.919070329122199,-7.270554773936786],[-34.91897909184992,-7.270803890407582],[-34.91883828932702,-7.27082785378425],[-34.918552204188543,-7.270788870935875],[-34.918218282686993,-7.270633692695503],[-34.918020201230377,-7.270539803719322],[-34.917690787195077,-7.270336037839613],[-34.917094168168298,-7.270152928840079],[-34.916945179194883,-7.269982125195994],[-34.916755793101331,-7.269736132471825],[-34.916684007581402,-7.269637808513937],[-34.916214702290361,-7.26953637149726],[-34.915888008346982,-7.269052780965773],[-34.915784932268863,-7.268963614268005],[-34.914253395768469,-7.268954734988665],[-34.913613124611608,-7.268852379395767],[-34.913190068380871,-7.268510046209627],[-34.912544152726454,-7.268522292779042],[-34.911662341858651,-7.268674435433951],[-34.911667231660637,-7.268885221817719],[-34.911173011106342,-7.268939464449008],[-34.911090873326785,-7.269397979426647],[-34.910565569981472,-7.269395419189145]]]}}
]
}
