{"type":"FeatureCollection","name":"Bacia B","features":[{"type":"Feature","properties":{"id":1,"camada":"Bacia B"},"geometry":{"type":"Polygon","coordinates":[[[-34.91056556998147,-7.269395419189146],[-34.91034609381581,-7.269170909681573],[-34.91024583220161,-7.270525163055333],[-34.90999867444837,-7.270701399499741],[-34.90972284350665,-7.271150544958608],[-34.90960553058926,-7.272032612433064],[-34.91002297988314,-7.272789384893803],[-34.91026727063381,-7.273259682183735],[-34.91024709589691,-7.273894764247746],[-34.91028175906283,-7.274586384356209],[-34.91001198529597,-7.274831598287617],[-34.90998679498599,-7.2752738227826],[-34.90965307653542,-7.275786657975356],[-34.90947984124173,-7.277086699637136],[-34.90972789615252,-7.278302454133205],[-34.90977372963526,-7.279180719970515],[-34.91041880483383,-7.279724804268441],[-34.91194638006571,-7.27975712636332],[-34.91279732676302,-7.27973099956157],[-34.91304772666989,-7.280045723502359],[-34.91495169526974,-7.279980096976095],[-34.91551355897469,-7.279742392961943],[-34.9160604300328,-7.279847157194842],[-34.91658071291758,-7.280032511899893],[-34.91695119129236,-7.280353603883988],[-34.91721126845711,-7.281468290832565],[-34.91834668298662,-7.28171848557858],[-34.92068524198668,-7.277702204874614],[-34.92215211466374,-7.272956294942466],[-34.92277017307313,-7.270454880781286],[-34.92209964208754,-7.270543060621506],[-34.92156789542332,-7.270572560192688],[-34.92129548286302,-7.27055048871711],[-34.92089021909781,-7.270525924521826],[-34.92054994330082,-7.270514778425053],[-34.92025870495281,-7.270399630815358],[-34.91995908166195,-7.270031707022861],[-34.91975189196799,-7.270118134274822],[-34.91955999299815,-7.270172688720865],[-34.919355743742,-7.270260322520454],[-34.91918797062946,-7.270411989834904],[-34.9190703291222,-7.270554773936794],[-34.91897909184992,-7.270803890407592],[-34.91883828932702,-7.270827853784254],[-34.91855220418854,-7.270788870935871],[-34.91821828268699,-7.270633692695502],[-34.91802020123038,-7.270539803719316],[-34.91769078719508,-7.270336037839617],[-34.9170941681683,-7.270152928840084],[-34.91694517919488,-7.269982125195985],[-34.91675579310133,-7.26973613247182],[-34.9166840075814,-7.26963780851394],[-34.91621470229036,-7.269536371497254],[-34.91588800834698,-7.269052780965779],[-34.91578493226886,-7.268963614268004],[-34.91425339576847,-7.268954734988666],[-34.91361312461161,-7.268852379395759],[-34.91319006838087,-7.268510046209622],[-34.91254415272645,-7.268522292779037],[-34.91166234185865,-7.268674435433946],[-34.91166723166064,-7.268885221817714],[-34.91117301110634,-7.268939464449001],[-34.91109087332678,-7.269397979426645],[-34.91056556998147,-7.269395419189146]]]}}]}