{"type":"FeatureCollection","name":"Bacia A","features":[{"type":"Feature","properties":{"id":1,"camada":"Bacia A"},"geometry":{"type":"Polygon","coordinates":[[[-34.90886857810155,-7.263623598635601],[-34.90913072292987,-7.264358279823244],[-34.90884904627643,-7.264729170244628],[-34.90895233887566,-7.266083437180428],[-34.90921464328861,-7.266433665945666],[-34.90939851297942,-7.266781312384802],[-34.90968456849742,-7.267276519858302],[-34.90990642423689,-7.267799942576718],[-34.91001412969808,-7.268501023087762],[-34.91032777673006,-7.269105990846765],[-34.91057255815478,-7.269431507616854],[-34.9111390890158,-7.269412124424949],[-34.91121911508405,-7.268977896383956],[-34.91187105844102,-7.268565769061169],[-34.9126727007454,-7.268534441592356],[-34.91319766654463,-7.268454495797019],[-34.9136028487047,-7.268843691494813],[-34.91474193898395,-7.268993708739679],[-34.91579578037619,-7.26894976547739],[-34.91602025105222,-7.269222604755669],[-34.91623683192925,-7.269510871138171],[-34.91671965137535,-7.269636795856397],[-34.91692487085643,-7.269898891202725],[-34.91710235919889,-7.27015358524705],[-34.917743876839,-7.270330356383681],[-34.91803530805741,-7.270549375462085],[-34.91866437967704,-7.270804588263763],[-34.9189626451247,-7.270755642580536],[-34.91929017569686,-7.27026865598319],[-34.91965655439244,-7.270131256713545],[-34.91995374307668,-7.270008580248202],[-34.92027369898813,-7.270387231568488],[-34.92055007117387,-7.270510426276265],[-34.92136348210289,-7.270532480847087],[-34.92232731156624,-7.270510084147967],[-34.92276624758457,-7.270439568398177],[-34.92333702394652,-7.267624642133484],[-34.92331361414057,-7.265755914877409],[-34.92326230891435,-7.263431819657913],[-34.92344219276342,-7.26234340398511],[-34.92291062767869,-7.26053795748463],[-34.92245754088186,-7.25896623131045],[-34.92214095016713,-7.257146464429042],[-34.92213683150391,-7.255985860651645],[-34.92195168035085,-7.254816089858118],[-34.92119895204706,-7.255229967789997],[-34.92094437220259,-7.255053337629827],[-34.92031324198317,-7.255010634989259],[-34.9197540790091,-7.255601931052133],[-34.9193552932075,-7.255882955915804],[-34.9190041137425,-7.256156989175424],[-34.91871219176307,-7.256447351872528],[-34.91853298215491,-7.256826336000882],[-34.91831545892011,-7.257160735520841],[-34.9181219054292,-7.257415270485292],[-34.91835355007824,-7.257743570424508],[-34.91831788163211,-7.258941882227166],[-34.91854259002578,-7.259459306944375],[-34.91787380322502,-7.259506246859574],[-34.9175524234454,-7.259684813383737],[-34.91712406648417,-7.259997140339086],[-34.91607937241284,-7.259949329995874],[-34.91499154365309,-7.260070313501627],[-34.91448844583035,-7.260269906328373],[-34.91418100486919,-7.26047755309002],[-34.91363150614938,-7.260666004346668],[-34.91319239517216,-7.260628066678306],[-34.91251360266727,-7.260348676084313],[-34.91219693839848,-7.260520677849967],[-34.9113987782726,-7.260707370633412],[-34.91106918659528,-7.26057585201007],[-34.91083093037422,-7.260861644476382],[-34.91055752590027,-7.261154822735254],[-34.91035644271849,-7.261266816264957],[-34.90996547058002,-7.261407307029007],[-34.90980173559733,-7.261918140158579],[-34.90970829409786,-7.262315099765901],[-34.90951585930269,-7.262542807543464],[-34.90923772760075,-7.262787136187582],[-34.90911136564564,-7.263032728013967],[-34.90832023597224,-7.263010539186989],[-34.90849359757177,-7.263359997411051],[-34.90860894960671,-7.263561573236577],[-34.90886857810155,-7.263623598635601]]]}}]}