{
"type": "FeatureCollection",
"name": "rede_linhas_B_nodal",
"crs": { "type": "name", "properties": { "name": "urn:ogc:def:crs:OGC:1.3:CRS84" } },
"features": [
{"type":"Feature","properties":{"id_link":"L_B_0001","node_in":"N_B_0001","node_out":"N_B_0002","classe":"COLETOR","origem":"ColetorB1_F001","comp_m":107.97038234729256,"cota_in":121.68566131591797,"cota_out":117.58277893066406,"decl_pct":3.8000072761220425,"diam_m":0.6,"obs":"DECLIVE_MDE"},"geometry":{"type":"LineString","coordinates":[[-34.909797731526858,-7.271295927207817],[-34.910028675661273,-7.271524594764999],[-34.910370827115003,-7.271992002516035],[-34.910412581093169,-7.272051227736367]]}},
{"type":"Feature","properties":{"id_link":"L_B_0002","node_in":"N_B_0002","node_out":"N_B_0003","classe":"COLETOR","origem":"ColetorB1_F001","comp_m":107.96487129845748,"cota_in":117.58277893066406,"cota_out":112.58860778808594,"decl_pct":4.6257371333053934,"diam_m":0.6,"obs":"DECLIVE_MDE"},"geometry":{"type":"LineString","coordinates":[[-34.910412581093169,-7.272051227736367],[-34.910515430580119,-7.27219711274057],[-34.910583719409622,-7.272257105514524],[-34.910724316164774,-7.272421088548554],[-34.910866772817144,-7.272571667957997],[-34.910988302416449,-7.27275869534198],[-34.911020722227704,-7.27281028423144]]}},
{"type":"Feature","properties":{"id_link":"L_B_0003","node_in":"N_B_0004","node_out":"N_B_0005","classe":"COLETOR","origem":"ColetorB1_F002","comp_m":66.017206008827088,"cota_in":117.33136749267578,"cota_out":115.79794311523438,"decl_pct":2.3227647308133181,"diam_m":0.6,"obs":"DECLIVE_MDE"},"geometry":{"type":"LineString","coordinates":[[-34.910426255040193,-7.27218313617233],[-34.910471878959768,-7.272548455414027],[-34.910476072041725,-7.272777121689312]]}},
{"type":"Feature","properties":{"id_link":"L_B_0004","node_in":"N_B_0006","node_out":"N_B_0002","classe":"COLETOR","origem":"ColetorB1_F003","comp_m":163.62129796761479,"cota_in":121.73796844482422,"cota_out":117.58277893066406,"decl_pct":2.5395162889996046,"diam_m":0.6,"obs":"DECLIVE_MDE"},"geometry":{"type":"LineString","coordinates":[[-34.909938783849285,-7.270887720208143],[-34.910275253123658,-7.270917877721383],[-34.910334348275555,-7.271296535988903],[-34.910412581093169,-7.272051227736367]]}},
{"type":"Feature","properties":{"id_link":"L_B_0005","node_in":"N_B_0002","node_out":"N_B_0004","classe":"COLETOR","origem":"ColetorB1_F003","comp_m":14.668178935352751,"cota_in":117.58277893066406,"cota_out":117.33136749267578,"decl_pct":1.7139921669644884,"diam_m":0.6,"obs":"DECLIVE_MDE"},"geometry":{"type":"LineString","coordinates":[[-34.910412581093169,-7.272051227736367],[-34.910426255040193,-7.27218313617233]]}},
{"type":"Feature","properties":{"id_link":"L_B_0006","node_in":"N_B_0007","node_out":"N_B_0008","classe":"COLETOR","origem":"ColetorB1_F004","comp_m":281.69998766754463,"cota_in":119.14454650878906,"cota_out":109.52175903320312,"decl_pct":3.4159701444298656,"diam_m":0.6,"obs":"DECLIVE_MDE"},"geometry":{"type":"LineString","coordinates":[[-34.910326693718304,-7.270845898135657],[-34.910662519658452,-7.270723921054455],[-34.910912421102942,-7.270676939303643],[-34.910958743439529,-7.270754247743708],[-34.911188221324281,-7.271315899849892],[-34.911354214352684,-7.271820409291549],[-34.911579164460207,-7.272492190093846]]}},
{"type":"Feature","properties":{"id_link":"L_B_0007","node_in":"N_B_0009","node_out":"N_B_0010","classe":"COLETOR","origem":"ColetorB1_F005","comp_m":388.51677875008897,"cota_in":116.99341583251953,"cota_out":98.531539916992188,"decl_pct":4.7518863856849878,"diam_m":0.6,"obs":"DECLIVE_MDE"},"geometry":{"type":"LineString","coordinates":[[-34.911142072995581,-7.269478394563582],[-34.911640634557109,-7.270677121585755],[-34.911853649291736,-7.27119769864861],[-34.911994393081862,-7.271622896828197],[-34.912200009633985,-7.272093270831459],[-34.912801917908823,-7.271752055563867]]}},
{"type":"Feature","properties":{"id_link":"L_B_0008","node_in":"N_B_0010","node_out":"N_B_0011","classe":"COLETOR","origem":"ColetorB1_F005","comp_m":427.15689525897756,"cota_in":98.531539916992188,"cota_out":62.823890686035156,"decl_pct":8.3593755894559827,"diam_m":0.6,"obs":"DECLIVE_MDE"},"geometry":{"type":"LineString","coordinates":[[-34.912801917908823,-7.271752055563867],[-34.91305171387517,-7.272090664090877],[-34.913279022336631,-7.272315727967753],[-34.913468115801074,-7.272584323708373],[-34.913576290341211,-7.272785376310019],[-34.913892351852802,-7.273200455837297],[-34.914066487505174,-7.273409458354932],[-34.914151452697126,-7.273589111867047],[-34.914735909705193,-7.274253375178666],[-34.915155652301131,-7.274800118752059]]}},
{"type":"Feature","properties":{"id_link":"L_B_0009","node_in":"N_B_0012","node_out":"N_B_0010","classe":"COLETOR","origem":"ColetorB1_F006","comp_m":307.73575521970821,"cota_in":110.01205444335938,"cota_out":98.531539916992188,"decl_pct":3.7306404379857208,"diam_m":0.6,"obs":"DECLIVE_MDE"},"geometry":{"type":"LineString","coordinates":[[-34.911795652811001,-7.269182304473126],[-34.911985989490454,-7.269580673946714],[-34.912320636676334,-7.270498131321286],[-34.91255944054376,-7.271351099410876],[-34.912649108806846,-7.27159471402382],[-34.912801917908823,-7.271752055563867]]}},
{"type":"Feature","properties":{"id_link":"L_B_0010","node_in":"N_B_0013","node_out":"N_B_0014","classe":"COLETOR","origem":"ColetorB1_F007","comp_m":702.48336119246505,"cota_in":107.85828399658203,"cota_out":58.916793823242188,"decl_pct":6.9669251795888369,"diam_m":0.6,"obs":"DECLIVE_MDE"},"geometry":{"type":"LineString","coordinates":[[-34.91245035121527,-7.268952294388249],[-34.912992561286273,-7.270275223627198],[-34.913479586956406,-7.271463829424841],[-34.913764736030416,-7.271820481560227],[-34.914052034431272,-7.272231982839465],[-34.914642057718481,-7.272963860500778],[-34.91494811886021,-7.273393142411832],[-34.915255999105611,-7.273780475045234],[-34.915679180620408,-7.274361417452936]]}},
{"type":"Feature","properties":{"id_link":"L_B_0011","node_in":"N_B_0015","node_out":"N_B_0016","classe":"COLETOR","origem":"ColetorB1_F008","comp_m":667.57635105325755,"cota_in":105.37587738037109,"cota_out":55.190128326416016,"decl_pct":7.5176043870900076,"diam_m":0.6,"obs":"DECLIVE_MDE"},"geometry":{"type":"LineString","coordinates":[[-34.913081641936174,-7.268757665610035],[-34.913517284584699,-7.269805953512959],[-34.913793577524125,-7.270560686627885],[-34.914011734082841,-7.271069279906287],[-34.914134752858573,-7.27127240582197],[-34.914498614775582,-7.27177049671545],[-34.914954021929262,-7.272308652238512],[-34.915409215730804,-7.272894388908895],[-34.915883154684302,-7.273498683297938],[-34.916189229986706,-7.273863901962832]]}},
{"type":"Feature","properties":{"id_link":"L_B_0012","node_in":"N_B_0017","node_out":"N_B_0018","classe":"COLETOR","origem":"ColetorB1_F009","comp_m":595.46100671696388,"cota_in":100.972900390625,"cota_out":52.559803009033203,"decl_pct":8.1303556127905523,"diam_m":0.6,"obs":"DECLIVE_MDE"},"geometry":{"type":"LineString","coordinates":[[-34.913824840413831,-7.268886225003871],[-34.913902729593438,-7.269083714673033],[-34.914149761186309,-7.269717053080563],[-34.914265792805182,-7.269963426421134],[-34.914408231486917,-7.27033599032578],[-34.914575387720653,-7.270737473682406],[-34.914949615443923,-7.271268963300387],[-34.915268230827074,-7.271674458879046],[-34.915666023368082,-7.272132138883753],[-34.915938075633775,-7.272517738648787],[-34.916406120485796,-7.27311619657936],[-34.916678892966374,-7.273386270538038]]}},
{"type":"Feature","properties":{"id_link":"L_B_0013","node_in":"N_B_0019","node_out":"N_B_0020","classe":"COLETOR","origem":"ColetorB1_F010","comp_m":204.89696792644355,"cota_in":92.289581298828125,"cota_out":70.556640625,"decl_pct":10.606765387387327,"diam_m":0.6,"obs":"DECLIVE_MDE"},"geometry":{"type":"LineString","coordinates":[[-34.914650016463121,-7.268957034945656],[-34.914677135512591,-7.269006959573392],[-34.914825426377298,-7.269268123108541],[-34.914944730372845,-7.269563089574271],[-34.914985130547443,-7.269689986493006],[-34.915012086602061,-7.269885449535532],[-34.91507611980871,-7.270162278189468],[-34.915183345567939,-7.270621870988635],[-34.915269462736759,-7.270592610684144]]}},
{"type":"Feature","properties":{"id_link":"L_B_0014","node_in":"N_B_0020","node_out":"N_B_0021","classe":"COLETOR","origem":"ColetorB1_F010","comp_m":153.21334134072998,"cota_in":70.556640625,"cota_out":57.638088226318359,"decl_pct":8.4317411823505442,"diam_m":0.6,"obs":"DECLIVE_MDE"},"geometry":{"type":"LineString","coordinates":[[-34.915269462736759,-7.270592610684144],[-34.915269462736759,-7.270592610684144],[-34.915536785677411,-7.270950049156186],[-34.91597563989388,-7.271486657507352],[-34.916130356462027,-7.271678434836341]]}},
{"type":"Feature","properties":{"id_link":"L_B_0015","node_in":"N_B_0021","node_out":"N_B_0022","classe":"COLETOR","origem":"ColetorB1_F010","comp_m":180.71075721045634,"cota_in":57.638088226318359,"cota_out":49.897239685058594,"decl_pct":4.2835571389060965,"diam_m":0.6,"obs":"DECLIVE_MDE"},"geometry":{"type":"LineString","coordinates":[[-34.916130356462027,-7.271678434836341],[-34.916197199033689,-7.271761288777088],[-34.916308985629016,-7.271910082087401],[-34.916629019847733,-7.272301570326595],[-34.917061397012624,-7.272864712153232],[-34.917143061369643,-7.272961317976034]]}},
{"type":"Feature","properties":{"id_link":"L_B_0016","node_in":"N_B_0023","node_out":"N_B_0020","classe":"COLETOR","origem":"ColetorB1_F011","comp_m":193.24082824751363,"cota_in":84.946273803710938,"cota_out":70.556640625,"decl_pct":7.4464766629337209,"diam_m":0.6,"obs":"DECLIVE_MDE"},"geometry":{"type":"LineString","coordinates":[[-34.915068725710753,-7.269012768761316],[-34.915185803520323,-7.269506000593037],[-34.915352065064667,-7.270091941172916],[-34.915489216264312,-7.270407794238671],[-34.915269462736759,-7.270592610684144]]}},
{"type":"Feature","properties":{"id_link":"L_B_0017","node_in":"N_B_0024","node_out":"N_B_0021","classe":"COLETOR","origem":"ColetorB1_F012","comp_m":287.50538505680612,"cota_in":72.570457458496094,"cota_out":57.638088226318359,"decl_pct":5.1937702764166849,"diam_m":0.6,"obs":"DECLIVE_MDE"},"geometry":{"type":"LineString","coordinates":[[-34.915766739926084,-7.269112200658456],[-34.915947610530985,-7.270186917395964],[-34.916079191882403,-7.270750893026906],[-34.916091997291161,-7.271244565047656],[-34.916107258837904,-7.271566953449813],[-34.916130356462027,-7.271678434836341]]}},
{"type":"Feature","properties":{"id_link":"L_B_0018","node_in":"N_B_0025","node_out":"N_B_0026","classe":"COLETOR","origem":"ColetorB1_F013","comp_m":204.05926122263651,"cota_in":61.720058441162109,"cota_out":50.771980285644531,"decl_pct":5.3651464236032904,"diam_m":0.6,"obs":"DECLIVE_MDE"},"geometry":{"type":"LineString","coordinates":[[-34.916506842845386,-7.269759240620432],[-34.916685024455241,-7.27053830638875],[-34.91675140867109,-7.270939895629158],[-34.916786981413225,-7.271577628079244]]}},
{"type":"Feature","properties":{"id_link":"L_B_0019","node_in":"N_B_0027","node_out":"N_B_0028","classe":"COLETOR","origem":"ColetorB1_F014","comp_m":139.45251341878165,"cota_in":55.402122497558594,"cota_out":49.7247314453125,"decl_pct":4.0712002337287778,"diam_m":0.6,"obs":"DECLIVE_MDE"},"geometry":{"type":"LineString","coordinates":[[-34.91728783693776,-7.270320756328006],[-34.917499131659255,-7.271563745203238]]}},
{"type":"Feature","properties":{"id_link":"L_B_0020","node_in":"N_B_0029","node_out":"N_B_0030","classe":"COLETOR","origem":"ColetorB1_F015","comp_m":112.49564600512983,"cota_in":53.561653137207031,"cota_out":45.244766235351562,"decl_pct":7.3930744852793833,"diam_m":0.6,"obs":"DECLIVE_MDE"},"geometry":{"type":"LineString","coordinates":[[-34.917994912447767,-7.270524160835615],[-34.91821282180625,-7.271517667299189]]}},
{"type":"Feature","properties":{"id_link":"L_B_0021","node_in":"N_B_0031","node_out":"N_B_0032","classe":"COLETOR","origem":"ColetorB1_F016","comp_m":103.00381874076153,"cota_in":49.035385131835938,"cota_out":47.650627136230469,"decl_pct":1.3443753955283997,"diam_m":0.6,"obs":"DECLIVE_MDE"},"geometry":{"type":"LineString","coordinates":[[-34.91872608638689,-7.270853111367522],[-34.918809424106698,-7.271297685489433],[-34.918816996741036,-7.271388552479755],[-34.918613720784585,-7.271470743881029],[-34.918453735025288,-7.271525195173072]]}},
{"type":"Feature","properties":{"id_link":"L_B_0022","node_in":"N_B_0033","node_out":"N_B_0034","classe":"COLETOR","origem":"ColetorB2_F001","comp_m":314.17755033790985,"cota_in":51.967029571533203,"cota_out":36.719928741455078,"decl_pct":4.8530204700110779,"diam_m":0.6,"obs":"DECLIVE_MDE"},"geometry":{"type":"LineString","coordinates":[[-34.916857922059535,-7.27331720748653],[-34.917314020071466,-7.273700015375389],[-34.917807027157352,-7.274099707285109],[-34.918204544657769,-7.274356654147727],[-34.918676545453664,-7.274733952146129],[-34.919081218396606,-7.2750843010752]]}},
{"type":"Feature","properties":{"id_link":"L_B_0023","node_in":"N_B_0035","node_out":"N_B_0036","classe":"COLETOR","origem":"ColetorB2_F002","comp_m":284.5513292071679,"cota_in":54.973152160644531,"cota_out":37.277458190917969,"decl_pct":6.2188055909038447,"diam_m":0.6,"obs":"DECLIVE_MDE"},"geometry":{"type":"LineString","coordinates":[[-34.916225213784273,-7.273931300585867],[-34.917319393010011,-7.274965721747065],[-34.91806560944304,-7.275730868517529]]}},
{"type":"Feature","properties":{"id_link":"L_B_0024","node_in":"N_B_0037","node_out":"N_B_0038","classe":"COLETOR","origem":"ColetorB2_F003","comp_m":267.20030922733145,"cota_in":60.706134796142578,"cota_out":38.503372192382812,"decl_pct":8.3094075257487319,"diam_m":0.6,"obs":"DECLIVE_MDE"},"geometry":{"type":"LineString","coordinates":[[-34.915461770205852,-7.274611943808322],[-34.916929425627572,-7.276053447470366],[-34.917196614803387,-7.276295283440997]]}},
{"type":"Feature","properties":{"id_link":"L_B_0025","node_in":"N_B_0039","node_out":"N_B_0040","classe":"COLETOR","origem":"ColetorB2_F004","comp_m":337.17127765351279,"cota_in":48.641410827636719,"cota_out":32.932491302490234,"decl_pct":4.6590325351762125,"diam_m":0.6,"obs":"DECLIVE_MDE"},"geometry":{"type":"LineString","coordinates":[[-34.91762281710988,-7.272691710392502],[-34.919473246594364,-7.27406171274815],[-34.920078965751621,-7.274501987109537]]}},
{"type":"Feature","properties":{"id_link":"L_B_0026","node_in":"N_B_0041","node_out":"N_B_0005","classe":"TRONCO","origem":"TroncoB1_F001","comp_m":51.848047727325522,"cota_in":118.57159423828125,"cota_out":115.79794311523438,"decl_pct":5.3495767818179107,"diam_m":0.8,"obs":"DECLIVE_MDE"},"geometry":{"type":"LineString","coordinates":[[-34.910006933919163,-7.272760296055812],[-34.910476072041725,-7.272777121689312]]}},
{"type":"Feature","properties":{"id_link":"L_B_0027","node_in":"N_B_0005","node_out":"N_B_0003","classe":"TRONCO","origem":"TroncoB1_F001","comp_m":60.26641945984553,"cota_in":115.79794311523438,"cota_out":112.58860778808594,"decl_pct":5.3252463907977177,"diam_m":0.8,"obs":"DECLIVE_MDE"},"geometry":{"type":"LineString","coordinates":[[-34.910476072041725,-7.272777121689312],[-34.911020722227704,-7.27281028423144]]}},
{"type":"Feature","properties":{"id_link":"L_B_0028","node_in":"N_B_0003","node_out":"N_B_0008","classe":"TRONCO","origem":"TroncoB1_F001","comp_m":73.528360098295522,"cota_in":112.58860778808594,"cota_out":109.52175903320312,"decl_pct":4.1709739626763493,"diam_m":0.8,"obs":"DECLIVE_MDE"},"geometry":{"type":"LineString","coordinates":[[-34.911020722227704,-7.27281028423144],[-34.911137429610768,-7.272817390197992],[-34.911579164460207,-7.272492190093846]]}},
{"type":"Feature","properties":{"id_link":"L_B_0029","node_in":"N_B_0008","node_out":"N_B_0011","classe":"TRONCO","origem":"TroncoB1_F001","comp_m":602.88675252315886,"cota_in":109.52175903320312,"cota_out":62.823890686035156,"decl_pct":7.7457114709738377,"diam_m":0.8,"obs":"DECLIVE_MDE"},"geometry":{"type":"LineString","coordinates":[[-34.911579164460207,-7.272492190093846],[-34.911733515701407,-7.272378558306402],[-34.911878779981343,-7.27226414571876],[-34.91225291965771,-7.272817531628827],[-34.913597669730436,-7.27448057419776],[-34.914330059151283,-7.275453450839163],[-34.914714050123067,-7.275164777441169],[-34.915155652301131,-7.274800118752059]]}},
{"type":"Feature","properties":{"id_link":"L_B_0030","node_in":"N_B_0011","node_out":"N_B_0014","classe":"TRONCO","origem":"TroncoB1_F001","comp_m":75.505470468595334,"cota_in":62.823890686035156,"cota_out":58.916793823242188,"decl_pct":5.1745877994602143,"diam_m":0.8,"obs":"DECLIVE_MDE"},"geometry":{"type":"LineString","coordinates":[[-34.915155652301131,-7.274800118752059],[-34.915636483981707,-7.274403064807604],[-34.915679180620408,-7.274361417452936]]}},
{"type":"Feature","properties":{"id_link":"L_B_0031","node_in":"N_B_0014","node_out":"N_B_0016","classe":"TRONCO","origem":"TroncoB1_F001","comp_m":78.750848133642705,"cota_in":58.916793823242188,"cota_out":55.190128326416016,"decl_pct":4.7322226809569106,"diam_m":0.8,"obs":"DECLIVE_MDE"},"geometry":{"type":"LineString","coordinates":[[-34.915679180620408,-7.274361417452936],[-34.916189229986706,-7.273863901962832]]}},
{"type":"Feature","properties":{"id_link":"L_B_0032","node_in":"N_B_0016","node_out":"N_B_0018","classe":"TRONCO","origem":"TroncoB1_F001","comp_m":75.603388450384202,"cota_in":55.190128326416016,"cota_out":52.559803009033203,"decl_pct":3.4791103564213937,"diam_m":0.8,"obs":"DECLIVE_MDE"},"geometry":{"type":"LineString","coordinates":[[-34.916189229986706,-7.273863901962832],[-34.916678892888548,-7.273386270650859],[-34.916678892966374,-7.273386270538038]]}},
{"type":"Feature","properties":{"id_link":"L_B_0033","node_in":"N_B_0018","node_out":"N_B_0022","classe":"TRONCO","origem":"TroncoB1_F001","comp_m":69.552388144101258,"cota_in":52.559803009033203,"cota_out":49.897239685058594,"decl_pct":3.8281407655740165,"diam_m":0.8,"obs":"DECLIVE_MDE"},"geometry":{"type":"LineString","coordinates":[[-34.916678892966374,-7.273386270538038],[-34.917143061369643,-7.272961317976034]]}},
{"type":"Feature","properties":{"id_link":"L_B_0034","node_in":"N_B_0022","node_out":"N_B_0042","classe":"TRONCO","origem":"TroncoB1_F001","comp_m":154.25500349808732,"cota_in":49.897239685058594,"cota_out":42.798110961914062,"decl_pct":4.6022032103694821,"diam_m":0.8,"obs":"DECLIVE_MDE"},"geometry":{"type":"LineString","coordinates":[[-34.917143061369643,-7.272961317976034],[-34.917174947647631,-7.272932125607422],[-34.918105620449019,-7.271950971359833]]}},
{"type":"Feature","properties":{"id_link":"L_B_0035","node_in":"N_B_0042","node_out":"N_B_0043","classe":"TRONCO","origem":"TroncoB1_F001","comp_m":58.129809795548411,"cota_in":42.798110961914062,"cota_out":40.784214019775391,"decl_pct":3.4644822496785395,"diam_m":0.8,"obs":"DECLIVE_MDE"},"geometry":{"type":"LineString","coordinates":[[-34.918105620449019,-7.271950971359833],[-34.918433429014328,-7.272273455448022],[-34.918480761697047,-7.272227327096931]]}},
{"type":"Feature","properties":{"id_link":"L_B_0036","node_in":"N_B_0038","node_out":"N_B_0036","classe":"TRONCO","origem":"TroncoB2_F001","comp_m":114.49472335484492,"cota_in":38.503372192382812,"cota_out":37.277458190917969,"decl_pct":1.0707165933450578,"diam_m":0.8,"obs":"DECLIVE_MDE"},"geometry":{"type":"LineString","coordinates":[[-34.917196614803387,-7.276295283440997],[-34.91806560944304,-7.275730868517529]]}},
{"type":"Feature","properties":{"id_link":"L_B_0037","node_in":"N_B_0036","node_out":"N_B_0034","classe":"TRONCO","origem":"TroncoB2_F001","comp_m":133.05569673316089,"cota_in":37.277458190917969,"cota_out":36.719928741455078,"decl_pct":0.41901960092772189,"diam_m":0.8,"obs":"DECLIVE_MDE"},"geometry":{"type":"LineString","coordinates":[[-34.91806560944304,-7.275730868517529],[-34.918228673006091,-7.275624957888504],[-34.919000822355443,-7.275127961700603],[-34.919081218396606,-7.2750843010752]]}},
{"type":"Feature","properties":{"id_link":"L_B_0038","node_in":"N_B_0034","node_out":"N_B_0040","classe":"TRONCO","origem":"TroncoB2_F001","comp_m":127.72438826830773,"cota_in":36.719928741455078,"cota_out":32.932491302490234,"decl_pct":2.9653204766255445,"diam_m":0.8,"obs":"DECLIVE_MDE"},"geometry":{"type":"LineString","coordinates":[[-34.919081218396606,-7.2750843010752],[-34.919670812248754,-7.274764110111738],[-34.920078965751621,-7.274501987109537]]}},
{"type":"Feature","properties":{"id_link":"L_B_0039","node_in":"N_B_0040","node_out":"N_B_0044","classe":"TRONCO","origem":"TroncoB2_F001","comp_m":39.453574950721432,"cota_in":32.932491302490234,"cota_out":31.093723297119141,"decl_pct":4.6605865442301848,"diam_m":0.8,"obs":"DECLIVE_MDE"},"geometry":{"type":"LineString","coordinates":[[-34.920078965751621,-7.274501987109537],[-34.920078965751635,-7.274501987109521],[-34.920333302022357,-7.274483721434732],[-34.920395857960969,-7.274500643776975],[-34.92042420349177,-7.274476259361537]]}},
{"type":"Feature","properties":{"id_link":"L_B_0040","node_in":"N_B_0045","node_out":"N_B_0026","classe":"TRONCO","origem":"TroncoB3_F001","comp_m":67.969584561030857,"cota_in":56.943119049072266,"cota_out":50.771980285644531,"decl_pct":9.0792650908239416,"diam_m":0.8,"obs":"DECLIVE_MDE"},"geometry":{"type":"LineString","coordinates":[[-34.91617344217299,-7.271625427455896],[-34.916786981413217,-7.271577628079244],[-34.916786981413225,-7.271577628079244]]}},
{"type":"Feature","properties":{"id_link":"L_B_0041","node_in":"N_B_0026","node_out":"N_B_0028","classe":"TRONCO","origem":"TroncoB3_F001","comp_m":78.669970411956783,"cota_in":50.771980285644531,"cota_out":49.7247314453125,"decl_pct":1.3311926200659452,"diam_m":0.8,"obs":"DECLIVE_MDE"},"geometry":{"type":"LineString","coordinates":[[-34.916786981413225,-7.271577628079244],[-34.917499131659248,-7.271563745203238],[-34.917499131659255,-7.271563745203238]]}},
{"type":"Feature","properties":{"id_link":"L_B_0042","node_in":"N_B_0028","node_out":"N_B_0030","classe":"TRONCO","origem":"TroncoB3_F001","comp_m":78.989694249328977,"cota_in":49.7247314453125,"cota_out":45.244766235351562,"decl_pct":5.6715819101920317,"diam_m":0.8,"obs":"DECLIVE_MDE"},"geometry":{"type":"LineString","coordinates":[[-34.917499131659255,-7.271563745203238],[-34.918212821806236,-7.271517667299189],[-34.91821282180625,-7.271517667299189]]}},
{"type":"Feature","properties":{"id_link":"L_B_0043","node_in":"N_B_0032","node_out":"N_B_0030","classe":"TRONCO","origem":"TroncoB3_F001","comp_m":26.621230486580302,"cota_in":47.650627136230469,"cota_out":45.244766235351562,"decl_pct":9.0373767737434036,"diam_m":0.8,"obs":"DECLIVE_MDE"},"geometry":{"type":"LineString","coordinates":[[-34.918453735025288,-7.271525195173072],[-34.91821282180625,-7.271517667299189]]}},
{"type":"Feature","properties":{"id_link":"L_B_0044","node_in":"N_B_0032","node_out":"N_B_0042","classe":"TRONCO","origem":"TroncoB3_F001","comp_m":61.203447253817203,"cota_in":47.650627136230469,"cota_out":42.798110961914062,"decl_pct":7.9285014031848666,"diam_m":0.8,"obs":"DECLIVE_MDE"},"geometry":{"type":"LineString","coordinates":[[-34.918453735025288,-7.271525195173072],[-34.91838680944425,-7.27165101490101],[-34.918105620449019,-7.271950971359833]]}},
{"type":"Feature","properties":{"id_link":"D_B_01","node_in":"N_B_0043","node_out":"O_B_DISS_01","classe":"DISSIPADOR","origem":"Trechos_Dissipacao_B_1","comp_m":47.435920093314579,"cota_in":40.784214019775391,"cota_out":40.784214019775391,"decl_pct":0.0,"diam_m":1.2,"obs":"DECLIVE_MDE_REVERSO; REPRESENTACAO_PRELIMINAR"},"geometry":{"type":"LineString","coordinates":[[-34.91880049524584,-7.271940986268724],[-34.918480761697047,-7.272227327096931]]}},
{"type":"Feature","properties":{"id_link":"D_B_02","node_in":"N_B_0044","node_out":"O_B_DISS_02","classe":"DISSIPADOR","origem":"Trechos_Dissipacao_B_2","comp_m":52.301107982226732,"cota_in":31.093723297119141,"cota_out":27.958951950073242,"decl_pct":5.9936996900929413,"diam_m":1.2,"obs":"DECLIVE_MDE; REPRESENTACAO_PRELIMINAR"},"geometry":{"type":"LineString","coordinates":[[-34.920424203491756,-7.27447625936152],[-34.920892898015424,-7.274543740855001]]}}
]
}
