{
"type": "FeatureCollection",
"name": "rede_nos_A",
"crs": { "type": "name", "properties": { "name": "urn:ogc:def:crs:OGC:1.3:CRS84" } },
"features": [
{"type":"Feature","properties":{"id_node":"N_A_0001","tipo":"CABECEIRA","cota_m":113.26374816894531,"deg_in":0,"deg_out":1,"compon":1},"geometry":{"type":"Point","coordinates":[-34.909904819337676,-7.263093212724127]}},
{"type":"Feature","properties":{"id_node":"N_A_0002","tipo":"OUTFALL_PROV","cota_m":107.10474395751953,"deg_in":1,"deg_out":0,"compon":1},"geometry":{"type":"Point","coordinates":[-34.910181024103316,-7.26132142805473]}},
{"type":"Feature","properties":{"id_node":"N_A_0003","tipo":"CABECEIRA","cota_m":111.07921600341797,"deg_in":0,"deg_out":1,"compon":2},"geometry":{"type":"Point","coordinates":[-34.910525280605803,-7.263133976898641]}},
{"type":"Feature","properties":{"id_node":"N_A_0004","tipo":"JUNCAO","cota_m":103.98895263671875,"deg_in":2,"deg_out":1,"compon":2},"geometry":{"type":"Point","coordinates":[-34.910818463889292,-7.261241666452748]}},
{"type":"Feature","properties":{"id_node":"N_A_0005","tipo":"CABECEIRA","cota_m":109.44850158691406,"deg_in":0,"deg_out":1,"compon":2},"geometry":{"type":"Point","coordinates":[-34.91118061183343,-7.263112079975769]}},
{"type":"Feature","properties":{"id_node":"N_A_0006","tipo":"JUNCAO","cota_m":96.21295166015625,"deg_in":2,"deg_out":1,"compon":2},"geometry":{"type":"Point","coordinates":[-34.911422153733767,-7.261429213920206]}},
{"type":"Feature","properties":{"id_node":"N_A_0007","tipo":"CABECEIRA","cota_m":105.00653839111328,"deg_in":0,"deg_out":1,"compon":2},"geometry":{"type":"Point","coordinates":[-34.911828600618236,-7.263166759962536]}},
{"type":"Feature","properties":{"id_node":"N_A_0008","tipo":"JUNCAO","cota_m":88.823944091796875,"deg_in":4,"deg_out":1,"compon":2},"geometry":{"type":"Point","coordinates":[-34.912064491286309,-7.261469836192386]}},
{"type":"Feature","properties":{"id_node":"N_A_0009","tipo":"JUNCAO","cota_m":89.016212463378906,"deg_in":1,"deg_out":2,"compon":2},"geometry":{"type":"Point","coordinates":[-34.912064510669452,-7.261443367529826]}},
{"type":"Feature","properties":{"id_node":"N_A_0010","tipo":"CABECEIRA","cota_m":93.866134643554688,"deg_in":0,"deg_out":1,"compon":2},"geometry":{"type":"Point","coordinates":[-34.912481222577185,-7.263184102850415]}},
{"type":"Feature","properties":{"id_node":"N_A_0011","tipo":"JUNCAO","cota_m":81.775154113769531,"deg_in":2,"deg_out":1,"compon":2},"geometry":{"type":"Point","coordinates":[-34.912718901786249,-7.261590268138717]}},
{"type":"Feature","properties":{"id_node":"N_A_0012","tipo":"CABECEIRA","cota_m":81.200202941894531,"deg_in":0,"deg_out":1,"compon":2},"geometry":{"type":"Point","coordinates":[-34.91314565004577,-7.263198524494574]}},
{"type":"Feature","properties":{"id_node":"N_A_0013","tipo":"JUNCAO","cota_m":79.295501708984375,"deg_in":2,"deg_out":2,"compon":2},"geometry":{"type":"Point","coordinates":[-34.913188225122255,-7.261711960527489]}},
{"type":"Feature","properties":{"id_node":"N_A_0014","tipo":"OUTFALL_PROV","cota_m":79.295501708984375,"deg_in":1,"deg_out":0,"compon":2},"geometry":{"type":"Point","coordinates":[-34.913188800052467,-7.261692997470433]}},
{"type":"Feature","properties":{"id_node":"N_A_0015","tipo":"OUTFALL_PROV","cota_m":68.918708801269531,"deg_in":1,"deg_out":0,"compon":2},"geometry":{"type":"Point","coordinates":[-34.914192894794802,-7.263403653915644]}},
{"type":"Feature","properties":{"id_node":"N_A_0016","tipo":"JUNCAO","cota_m":71.330734252929688,"deg_in":1,"deg_out":2,"compon":2},"geometry":{"type":"Point","coordinates":[-34.913959458528694,-7.262078656732067]}},
{"type":"Feature","properties":{"id_node":"N_A_0017","tipo":"CABECEIRA","cota_m":63.086246490478516,"deg_in":0,"deg_out":1,"compon":2},"geometry":{"type":"Point","coordinates":[-34.914820955390041,-7.263504341566024]}},
{"type":"Feature","properties":{"id_node":"N_A_0018","tipo":"JUNCAO","cota_m":56.698802947998047,"deg_in":2,"deg_out":1,"compon":2},"geometry":{"type":"Point","coordinates":[-34.915340009091729,-7.26258786635434]}},
{"type":"Feature","properties":{"id_node":"N_A_0019","tipo":"JUNCAO","cota_m":54.322368621826172,"deg_in":3,"deg_out":1,"compon":2},"geometry":{"type":"Point","coordinates":[-34.915703164651177,-7.262288829079337]}},
{"type":"Feature","properties":{"id_node":"N_A_0020","tipo":"CABECEIRA","cota_m":58.663017272949219,"deg_in":0,"deg_out":1,"compon":2},"geometry":{"type":"Point","coordinates":[-34.915458241526572,-7.263520787904532]}},
{"type":"Feature","properties":{"id_node":"N_A_0021","tipo":"CABECEIRA","cota_m":56.262020111083984,"deg_in":0,"deg_out":1,"compon":2},"geometry":{"type":"Point","coordinates":[-34.916130758054898,-7.263484458665801]}},
{"type":"Feature","properties":{"id_node":"N_A_0022","tipo":"OUTFALL_PROV","cota_m":45.737747192382812,"deg_in":3,"deg_out":0,"compon":2},"geometry":{"type":"Point","coordinates":[-34.917312227813404,-7.262847956943806]}},
{"type":"Feature","properties":{"id_node":"N_A_0023","tipo":"CABECEIRA","cota_m":118.89931488037109,"deg_in":0,"deg_out":1,"compon":3},"geometry":{"type":"Point","coordinates":[-34.910832892266654,-7.267873378887813]}},
{"type":"Feature","properties":{"id_node":"N_A_0024","tipo":"JUNCAO","cota_m":116.56578063964844,"deg_in":2,"deg_out":1,"compon":3},"geometry":{"type":"Point","coordinates":[-34.911176668122977,-7.267741510895167]}},
{"type":"Feature","properties":{"id_node":"N_A_0025","tipo":"JUNCAO","cota_m":112.76572418212891,"deg_in":2,"deg_out":1,"compon":3},"geometry":{"type":"Point","coordinates":[-34.911775811719941,-7.267517492875568]}},
{"type":"Feature","properties":{"id_node":"N_A_0026","tipo":"JUNCAO","cota_m":107.72267150878906,"deg_in":2,"deg_out":1,"compon":3},"geometry":{"type":"Point","coordinates":[-34.912398166940456,-7.267285162115834]}},
{"type":"Feature","properties":{"id_node":"N_A_0027","tipo":"JUNCAO","cota_m":101.90216827392578,"deg_in":2,"deg_out":1,"compon":3},"geometry":{"type":"Point","coordinates":[-34.913007847259159,-7.267062089866982]}},
{"type":"Feature","properties":{"id_node":"N_A_0028","tipo":"JUNCAO","cota_m":102.05509185791016,"deg_in":1,"deg_out":2,"compon":3},"geometry":{"type":"Point","coordinates":[-34.913649048732971,-7.268433879595959]}},
{"type":"Feature","properties":{"id_node":"N_A_0029","tipo":"OUTFALL_PROV","cota_m":107.18984985351562,"deg_in":1,"deg_out":0,"compon":4},"geometry":{"type":"Point","coordinates":[-34.91244311573886,-7.267346735061376]}},
{"type":"Feature","properties":{"id_node":"N_A_0030","tipo":"CABECEIRA","cota_m":108.54859161376953,"deg_in":0,"deg_out":1,"compon":4},"geometry":{"type":"Point","coordinates":[-34.912536098128975,-7.267549764228542]}},
{"type":"Feature","properties":{"id_node":"N_A_0031","tipo":"CABECEIRA","cota_m":112.37059783935547,"deg_in":0,"deg_out":1,"compon":5},"geometry":{"type":"Point","coordinates":[-34.911811328863045,-7.267588611942745]}},
{"type":"Feature","properties":{"id_node":"N_A_0032","tipo":"OUTFALL_PROV","cota_m":111.36269378662109,"deg_in":1,"deg_out":0,"compon":5},"geometry":{"type":"Point","coordinates":[-34.91192408052455,-7.267823573949912]}},
{"type":"Feature","properties":{"id_node":"N_A_0033","tipo":"CABECEIRA","cota_m":116.55980682373047,"deg_in":0,"deg_out":1,"compon":6},"geometry":{"type":"Point","coordinates":[-34.911168282847513,-7.267797999590838]}},
{"type":"Feature","properties":{"id_node":"N_A_0034","tipo":"OUTFALL_PROV","cota_m":116.15007019042969,"deg_in":1,"deg_out":0,"compon":6},"geometry":{"type":"Point","coordinates":[-34.911200721067807,-7.26787182850695]}},
{"type":"Feature","properties":{"id_node":"N_A_0035","tipo":"CABECEIRA","cota_m":117.48436737060547,"deg_in":0,"deg_out":1,"compon":7},"geometry":{"type":"Point","coordinates":[-34.910839450095935,-7.268822651801067]}},
{"type":"Feature","properties":{"id_node":"N_A_0036","tipo":"OUTFALL_PROV","cota_m":117.38584136962891,"deg_in":1,"deg_out":0,"compon":7},"geometry":{"type":"Point","coordinates":[-34.910979303092155,-7.269116848072525]}},
{"type":"Feature","properties":{"id_node":"N_A_0037","tipo":"CABECEIRA","cota_m":123.53831481933594,"deg_in":0,"deg_out":1,"compon":8},"geometry":{"type":"Point","coordinates":[-34.909294079230612,-7.266497659900068]}},
{"type":"Feature","properties":{"id_node":"N_A_0038","tipo":"OUTFALL_PROV","cota_m":121.11541748046875,"deg_in":1,"deg_out":0,"compon":8},"geometry":{"type":"Point","coordinates":[-34.910466778612992,-7.268010536138515]}},
{"type":"Feature","properties":{"id_node":"N_A_0039","tipo":"CABECEIRA","cota_m":118.15927886962891,"deg_in":0,"deg_out":1,"compon":3},"geometry":{"type":"Point","coordinates":[-34.910459411207604,-7.266300427711832]}},
{"type":"Feature","properties":{"id_node":"N_A_0040","tipo":"CABECEIRA","cota_m":115.66951751708984,"deg_in":0,"deg_out":1,"compon":3},"geometry":{"type":"Point","coordinates":[-34.911061608483578,-7.265948645013095]}},
{"type":"Feature","properties":{"id_node":"N_A_0041","tipo":"CABECEIRA","cota_m":111.72206878662109,"deg_in":0,"deg_out":1,"compon":3},"geometry":{"type":"Point","coordinates":[-34.911592936274303,-7.265606409881965]}},
{"type":"Feature","properties":{"id_node":"N_A_0042","tipo":"OUTFALL_PROV","cota_m":100.91004180908203,"deg_in":1,"deg_out":0,"compon":3},"geometry":{"type":"Point","coordinates":[-34.912156739869026,-7.265277592589273]}},
{"type":"Feature","properties":{"id_node":"N_A_0043","tipo":"OUTFALL_PROV","cota_m":88.613487243652344,"deg_in":1,"deg_out":0,"compon":3},"geometry":{"type":"Point","coordinates":[-34.912652289786287,-7.264859279537982]}},
{"type":"Feature","properties":{"id_node":"N_A_0044","tipo":"JUNCAO","cota_m":96.908012390136719,"deg_in":1,"deg_out":3,"compon":3},"geometry":{"type":"Point","coordinates":[-34.9142437469173,-7.268215003972741]}},
{"type":"Feature","properties":{"id_node":"N_A_0045","tipo":"CABECEIRA","cota_m":121.13532257080078,"deg_in":0,"deg_out":1,"compon":2},"geometry":{"type":"Point","coordinates":[-34.908783704928531,-7.263352003351405]}},
{"type":"Feature","properties":{"id_node":"N_A_0046","tipo":"JUNCAO","cota_m":102.44920349121094,"deg_in":2,"deg_out":1,"compon":2},"geometry":{"type":"Point","coordinates":[-34.912084049904458,-7.265147248516365]}},
{"type":"Feature","properties":{"id_node":"N_A_0047","tipo":"CABECEIRA","cota_m":113.23907470703125,"deg_in":0,"deg_out":1,"compon":2},"geometry":{"type":"Point","coordinates":[-34.910071709813224,-7.263243092977658]}},
{"type":"Feature","properties":{"id_node":"N_A_0048","tipo":"JUNCAO","cota_m":111.69416809082031,"deg_in":2,"deg_out":1,"compon":2},"geometry":{"type":"Point","coordinates":[-34.911554003950997,-7.265505352535708]}},
{"type":"Feature","properties":{"id_node":"N_A_0049","tipo":"CABECEIRA","cota_m":117.24396514892578,"deg_in":0,"deg_out":1,"compon":2},"geometry":{"type":"Point","coordinates":[-34.909436429491159,-7.26331768092948]}},
{"type":"Feature","properties":{"id_node":"N_A_0050","tipo":"JUNCAO","cota_m":115.53829956054688,"deg_in":2,"deg_out":1,"compon":2},"geometry":{"type":"Point","coordinates":[-34.911022984923846,-7.265853361638754]}},
{"type":"Feature","properties":{"id_node":"N_A_0051","tipo":"CABECEIRA","cota_m":121.21202850341797,"deg_in":0,"deg_out":1,"compon":2},"geometry":{"type":"Point","coordinates":[-34.908805456136207,-7.26343515672957]}},
{"type":"Feature","properties":{"id_node":"N_A_0052","tipo":"JUNCAO","cota_m":118.15679931640625,"deg_in":1,"deg_out":1,"compon":2},"geometry":{"type":"Point","coordinates":[-34.910407018979924,-7.266244796269857]}},
{"type":"Feature","properties":{"id_node":"N_A_0053","tipo":"CABECEIRA","cota_m":110.2110595703125,"deg_in":0,"deg_out":1,"compon":2},"geometry":{"type":"Point","coordinates":[-34.910895307702269,-7.263200545274589]}},
{"type":"Feature","properties":{"id_node":"N_A_0054","tipo":"JUNCAO","cota_m":76.958816528320312,"deg_in":2,"deg_out":1,"compon":2},"geometry":{"type":"Point","coordinates":[-34.913626719168782,-7.263993183727224]}},
{"type":"Feature","properties":{"id_node":"N_A_0055","tipo":"CABECEIRA","cota_m":106.61613464355469,"deg_in":0,"deg_out":1,"compon":2},"geometry":{"type":"Point","coordinates":[-34.91165266949475,-7.263287297225743]}},
{"type":"Feature","properties":{"id_node":"N_A_0056","tipo":"JUNCAO","cota_m":89.775810241699219,"deg_in":2,"deg_out":1,"compon":2},"geometry":{"type":"Point","coordinates":[-34.91261937663981,-7.264791113022377]}},
{"type":"Feature","properties":{"id_node":"N_A_0057","tipo":"CABECEIRA","cota_m":92.401626586914062,"deg_in":0,"deg_out":1,"compon":2},"geometry":{"type":"Point","coordinates":[-34.912547542068673,-7.263262156236743]}},
{"type":"Feature","properties":{"id_node":"N_A_0058","tipo":"JUNCAO","cota_m":60.479644775390625,"deg_in":2,"deg_out":1,"compon":2},"geometry":{"type":"Point","coordinates":[-34.915223436570962,-7.263616150244539]}},
{"type":"Feature","properties":{"id_node":"N_A_0059","tipo":"CABECEIRA","cota_m":55.210258483886719,"deg_in":0,"deg_out":1,"compon":9},"geometry":{"type":"Point","coordinates":[-34.917800998652041,-7.265804610020543]}},
{"type":"Feature","properties":{"id_node":"N_A_0060","tipo":"JUNCAO","cota_m":54.140972137451172,"deg_in":1,"deg_out":2,"compon":9},"geometry":{"type":"Point","coordinates":[-34.917752211270901,-7.265328817668504]}},
{"type":"Feature","properties":{"id_node":"N_A_0061","tipo":"JUNCAO","cota_m":47.143692016601562,"deg_in":1,"deg_out":1,"compon":9},"geometry":{"type":"Point","coordinates":[-34.917670280190798,-7.264117098848712]}},
{"type":"Feature","properties":{"id_node":"N_A_0062","tipo":"CABECEIRA","cota_m":55.460086822509766,"deg_in":0,"deg_out":1,"compon":9},"geometry":{"type":"Point","coordinates":[-34.918466282284676,-7.265643918844847]}},
{"type":"Feature","properties":{"id_node":"N_A_0063","tipo":"JUNCAO","cota_m":55.438350677490234,"deg_in":1,"deg_out":2,"compon":9},"geometry":{"type":"Point","coordinates":[-34.918410159417668,-7.265282916822579]}},
{"type":"Feature","properties":{"id_node":"N_A_0064","tipo":"JUNCAO","cota_m":45.684066772460938,"deg_in":2,"deg_out":2,"compon":9},"geometry":{"type":"Point","coordinates":[-34.918209609264508,-7.263992898804549]}},
{"type":"Feature","properties":{"id_node":"N_A_0065","tipo":"OUTFALL_PROV","cota_m":45.684066772460938,"deg_in":1,"deg_out":0,"compon":9},"geometry":{"type":"Point","coordinates":[-34.918206428909592,-7.263972441390232]}},
{"type":"Feature","properties":{"id_node":"N_A_0066","tipo":"CABECEIRA","cota_m":54.601333618164062,"deg_in":0,"deg_out":1,"compon":9},"geometry":{"type":"Point","coordinates":[-34.919084284321073,-7.26563173587525]}},
{"type":"Feature","properties":{"id_node":"N_A_0067","tipo":"JUNCAO","cota_m":54.542720794677734,"deg_in":2,"deg_out":1,"compon":9},"geometry":{"type":"Point","coordinates":[-34.919023129244557,-7.26526859562869]}},
{"type":"Feature","properties":{"id_node":"N_A_0068","tipo":"JUNCAO","cota_m":45.462467193603516,"deg_in":2,"deg_out":1,"compon":9},"geometry":{"type":"Point","coordinates":[-34.918797792676258,-7.263930532727069]}},
{"type":"Feature","properties":{"id_node":"N_A_0069","tipo":"JUNCAO","cota_m":49.974773406982422,"deg_in":1,"deg_out":1,"compon":9},"geometry":{"type":"Point","coordinates":[-34.91971956507669,-7.265281780715664]}},
{"type":"Feature","properties":{"id_node":"N_A_0070","tipo":"JUNCAO","cota_m":40.939559936523438,"deg_in":2,"deg_out":1,"compon":9},"geometry":{"type":"Point","coordinates":[-34.919350522685264,-7.263389654309792]}},
{"type":"Feature","properties":{"id_node":"N_A_0071","tipo":"JUNCAO","cota_m":46.520084381103516,"deg_in":1,"deg_out":1,"compon":10},"geometry":{"type":"Point","coordinates":[-34.920390257861648,-7.265273615380733]}},
{"type":"Feature","properties":{"id_node":"N_A_0072","tipo":"OUTFALL_PROV","cota_m":39.0726318359375,"deg_in":1,"deg_out":0,"compon":10},"geometry":{"type":"Point","coordinates":[-34.920031496377831,-7.263327144043281]}},
{"type":"Feature","properties":{"id_node":"N_A_0073","tipo":"CABECEIRA","cota_m":46.272987365722656,"deg_in":0,"deg_out":1,"compon":9},"geometry":{"type":"Point","coordinates":[-34.920458856802398,-7.265293896793314]}},
{"type":"Feature","properties":{"id_node":"N_A_0074","tipo":"OUTFALL_PROV","cota_m":30.917213439941406,"deg_in":3,"deg_out":0,"compon":9},"geometry":{"type":"Point","coordinates":[-34.921889603084708,-7.26463972729961]}},
{"type":"Feature","properties":{"id_node":"N_A_0075","tipo":"JUNCAO","cota_m":31.917379379272461,"deg_in":1,"deg_out":3,"compon":9},"geometry":{"type":"Point","coordinates":[-34.92186608244549,-7.264007288121345]}},
{"type":"Feature","properties":{"id_node":"N_A_0076","tipo":"JUNCAO","cota_m":30.389497756958008,"deg_in":2,"deg_out":1,"compon":9},"geometry":{"type":"Point","coordinates":[-34.921841791369843,-7.263354124463413]}},
{"type":"Feature","properties":{"id_node":"N_A_0077","tipo":"JUNCAO","cota_m":29.454181671142578,"deg_in":2,"deg_out":1,"compon":9},"geometry":{"type":"Point","coordinates":[-34.921753559331563,-7.262680761627062]}},
{"type":"Feature","properties":{"id_node":"N_A_0078","tipo":"CABECEIRA","cota_m":49.632591247558594,"deg_in":0,"deg_out":1,"compon":10},"geometry":{"type":"Point","coordinates":[-34.919788260033258,-7.265278492227607]}},
{"type":"Feature","properties":{"id_node":"N_A_0079","tipo":"CABECEIRA","cota_m":54.403026580810547,"deg_in":0,"deg_out":1,"compon":9},"geometry":{"type":"Point","coordinates":[-34.91909833655108,-7.265277584706411]}},
{"type":"Feature","properties":{"id_node":"N_A_0080","tipo":"CABECEIRA","cota_m":55.375591278076172,"deg_in":0,"deg_out":1,"compon":9},"geometry":{"type":"Point","coordinates":[-34.918495523350892,-7.265301185312748]}},
{"type":"Feature","properties":{"id_node":"N_A_0081","tipo":"OUTFALL_PROV","cota_m":54.652225494384766,"deg_in":1,"deg_out":0,"compon":9},"geometry":{"type":"Point","coordinates":[-34.917813394808775,-7.265330861522243]}},
{"type":"Feature","properties":{"id_node":"N_A_0082","tipo":"OUTFALL_PROV","cota_m":50.984340667724609,"deg_in":1,"deg_out":0,"compon":9},"geometry":{"type":"Point","coordinates":[-34.917172856103385,-7.265361317757256]}},
{"type":"Feature","properties":{"id_node":"N_A_0083","tipo":"CABECEIRA","cota_m":52.860866546630859,"deg_in":0,"deg_out":1,"compon":2},"geometry":{"type":"Point","coordinates":[-34.916490714003714,-7.265431049881349]}},
{"type":"Feature","properties":{"id_node":"N_A_0084","tipo":"JUNCAO","cota_m":51.343353271484375,"deg_in":3,"deg_out":1,"compon":2},"geometry":{"type":"Point","coordinates":[-34.916908484378936,-7.264171932497844]}},
{"type":"Feature","properties":{"id_node":"N_A_0085","tipo":"JUNCAO","cota_m":53.278118133544922,"deg_in":1,"deg_out":2,"compon":2},"geometry":{"type":"Point","coordinates":[-34.916807767056675,-7.263549948300236]}},
{"type":"Feature","properties":{"id_node":"N_A_0086","tipo":"OUTFALL_PROV","cota_m":55.689315795898438,"deg_in":1,"deg_out":0,"compon":2},"geometry":{"type":"Point","coordinates":[-34.916652820124852,-7.266580161429696]}},
{"type":"Feature","properties":{"id_node":"N_A_0087","tipo":"JUNCAO","cota_m":56.732429504394531,"deg_in":1,"deg_out":2,"compon":2},"geometry":{"type":"Point","coordinates":[-34.916250021148279,-7.26423762102077]}},
{"type":"Feature","properties":{"id_node":"N_A_0088","tipo":"JUNCAO","cota_m":56.701618194580078,"deg_in":2,"deg_out":1,"compon":2},"geometry":{"type":"Point","coordinates":[-34.916151225200679,-7.263609613562193]}},
{"type":"Feature","properties":{"id_node":"N_A_0089","tipo":"CABECEIRA","cota_m":60.392959594726562,"deg_in":0,"deg_out":1,"compon":2},"geometry":{"type":"Point","coordinates":[-34.915971283520506,-7.26665377034468]}},
{"type":"Feature","properties":{"id_node":"N_A_0090","tipo":"JUNCAO","cota_m":58.61834716796875,"deg_in":2,"deg_out":1,"compon":2},"geometry":{"type":"Point","coordinates":[-34.91550106663481,-7.263622054282552]}},
{"type":"Feature","properties":{"id_node":"N_A_0091","tipo":"CABECEIRA","cota_m":59.308200836181641,"deg_in":0,"deg_out":1,"compon":2},"geometry":{"type":"Point","coordinates":[-34.915676557212954,-7.264282781810548]}},
{"type":"Feature","properties":{"id_node":"N_A_0092","tipo":"CABECEIRA","cota_m":56.379844665527344,"deg_in":0,"deg_out":1,"compon":2},"geometry":{"type":"Point","coordinates":[-34.916297315521334,-7.264242843284352]}},
{"type":"Feature","properties":{"id_node":"N_A_0093","tipo":"OUTFALL_PROV","cota_m":47.357082366943359,"deg_in":1,"deg_out":0,"compon":2},"geometry":{"type":"Point","coordinates":[-34.917585168925953,-7.264093238013415]}},
{"type":"Feature","properties":{"id_node":"N_A_0094","tipo":"CABECEIRA","cota_m":64.650238037109375,"deg_in":0,"deg_out":1,"compon":2},"geometry":{"type":"Point","coordinates":[-34.91533750839325,-7.266656447725427]}},
{"type":"Feature","properties":{"id_node":"N_A_0095","tipo":"JUNCAO","cota_m":63.461761474609375,"deg_in":2,"deg_out":1,"compon":2},"geometry":{"type":"Point","coordinates":[-34.914841744523521,-7.263752340755221]}},
{"type":"Feature","properties":{"id_node":"N_A_0096","tipo":"CABECEIRA","cota_m":70.337326049804688,"deg_in":0,"deg_out":1,"compon":2},"geometry":{"type":"Point","coordinates":[-34.914670246743768,-7.2666738146371]}},
{"type":"Feature","properties":{"id_node":"N_A_0097","tipo":"JUNCAO","cota_m":70.120803833007812,"deg_in":2,"deg_out":2,"compon":2},"geometry":{"type":"Point","coordinates":[-34.914206150030012,-7.263879282931044]}},
{"type":"Feature","properties":{"id_node":"N_A_0098","tipo":"OUTFALL_PROV","cota_m":70.120803833007812,"deg_in":1,"deg_out":0,"compon":2},"geometry":{"type":"Point","coordinates":[-34.914202499495417,-7.263858548502048]}},
{"type":"Feature","properties":{"id_node":"N_A_0099","tipo":"OUTFALL_PROV","cota_m":79.110260009765625,"deg_in":1,"deg_out":0,"compon":2},"geometry":{"type":"Point","coordinates":[-34.91407654662806,-7.266752181436286]}},
{"type":"Feature","properties":{"id_node":"N_A_0100","tipo":"JUNCAO","cota_m":82.656761169433594,"deg_in":1,"deg_out":2,"compon":2},"geometry":{"type":"Point","coordinates":[-34.913158143050396,-7.264443061002408]}},
{"type":"Feature","properties":{"id_node":"N_A_0101","tipo":"OUTFALL_PROV","cota_m":76.513107299804688,"deg_in":1,"deg_out":0,"compon":2},"geometry":{"type":"Point","coordinates":[-34.913902254326523,-7.265902913396798]}},
{"type":"Feature","properties":{"id_node":"N_A_0102","tipo":"JUNCAO","cota_m":77.195121765136719,"deg_in":1,"deg_out":2,"compon":2},"geometry":{"type":"Point","coordinates":[-34.913601989190305,-7.264263115591629]}},
{"type":"Feature","properties":{"id_node":"N_A_0103","tipo":"CABECEIRA","cota_m":38.669918060302734,"deg_in":0,"deg_out":1,"compon":9},"geometry":{"type":"Point","coordinates":[-34.920151336032447,-7.263368881375809]}},
{"type":"Feature","properties":{"id_node":"N_A_0104","tipo":"CABECEIRA","cota_m":42.338443756103516,"deg_in":0,"deg_out":1,"compon":9},"geometry":{"type":"Point","coordinates":[-34.920198745739846,-7.264040854961884]}},
{"type":"Feature","properties":{"id_node":"N_A_0105","tipo":"OUTFALL_PROV","cota_m":30.911811828613281,"deg_in":1,"deg_out":0,"compon":9},"geometry":{"type":"Point","coordinates":[-34.921886483932234,-7.264006877360588]}},
{"type":"Feature","properties":{"id_node":"N_A_0106","tipo":"CABECEIRA","cota_m":45.611049652099609,"deg_in":0,"deg_out":1,"compon":9},"geometry":{"type":"Point","coordinates":[-34.920337012455157,-7.264671778493274]}},
{"type":"Feature","properties":{"id_node":"N_A_0107","tipo":"CABECEIRA","cota_m":46.785980224609375,"deg_in":0,"deg_out":1,"compon":3},"geometry":{"type":"Point","coordinates":[-34.920364329572692,-7.26532804927456]}},
{"type":"Feature","properties":{"id_node":"N_A_0108","tipo":"JUNCAO","cota_m":45.454902648925781,"deg_in":2,"deg_out":1,"compon":3},"geometry":{"type":"Point","coordinates":[-34.920463741291563,-7.265947655126639]}},
{"type":"Feature","properties":{"id_node":"N_A_0109","tipo":"OUTFALL_PROV","cota_m":31.622295379638672,"deg_in":3,"deg_out":0,"compon":3},"geometry":{"type":"Point","coordinates":[-34.921947550068289,-7.265948067019142]}},
{"type":"Feature","properties":{"id_node":"N_A_0110","tipo":"CABECEIRA","cota_m":54.602622985839844,"deg_in":0,"deg_out":1,"compon":3},"geometry":{"type":"Point","coordinates":[-34.919088575866489,-7.265694653354253]}},
{"type":"Feature","properties":{"id_node":"N_A_0111","tipo":"CABECEIRA","cota_m":54.234375,"deg_in":0,"deg_out":1,"compon":3},"geometry":{"type":"Point","coordinates":[-34.919149763960519,-7.265978190852187]}},
{"type":"Feature","properties":{"id_node":"N_A_0112","tipo":"JUNCAO","cota_m":50.735774993896484,"deg_in":2,"deg_out":1,"compon":3},"geometry":{"type":"Point","coordinates":[-34.919232061620818,-7.266560220324258]}},
{"type":"Feature","properties":{"id_node":"N_A_0113","tipo":"CABECEIRA","cota_m":45.100105285644531,"deg_in":0,"deg_out":1,"compon":3},"geometry":{"type":"Point","coordinates":[-34.920486006361216,-7.266000856351023]}},
{"type":"Feature","properties":{"id_node":"N_A_0114","tipo":"JUNCAO","cota_m":43.956615447998047,"deg_in":2,"deg_out":1,"compon":3},"geometry":{"type":"Point","coordinates":[-34.920568672535978,-7.266580717654489]}},
{"type":"Feature","properties":{"id_node":"N_A_0115","tipo":"CABECEIRA","cota_m":32.645336151123047,"deg_in":0,"deg_out":1,"compon":3},"geometry":{"type":"Point","coordinates":[-34.921907141938966,-7.26534610472507]}},
{"type":"Feature","properties":{"id_node":"N_A_0116","tipo":"JUNCAO","cota_m":36.072437286376953,"deg_in":1,"deg_out":2,"compon":3},"geometry":{"type":"Point","coordinates":[-34.921962657744466,-7.266601762296536]}},
{"type":"Feature","properties":{"id_node":"N_A_0117","tipo":"CABECEIRA","cota_m":44.748062133789062,"deg_in":0,"deg_out":1,"compon":3},"geometry":{"type":"Point","coordinates":[-34.920580279885968,-7.266634273021154]}},
{"type":"Feature","properties":{"id_node":"N_A_0118","tipo":"JUNCAO","cota_m":33.01202392578125,"deg_in":2,"deg_out":1,"compon":3},"geometry":{"type":"Point","coordinates":[-34.921971270776766,-7.267261201082722]}},
{"type":"Feature","properties":{"id_node":"N_A_0119","tipo":"CABECEIRA","cota_m":40.287742614746094,"deg_in":0,"deg_out":1,"compon":3},"geometry":{"type":"Point","coordinates":[-34.920691934491394,-7.267333169182066]}},
{"type":"Feature","properties":{"id_node":"N_A_0120","tipo":"JUNCAO","cota_m":37.494678497314453,"deg_in":2,"deg_out":2,"compon":3},"geometry":{"type":"Point","coordinates":[-34.920772534846421,-7.267900336496054]}},
{"type":"Feature","properties":{"id_node":"N_A_0121","tipo":"JUNCAO","cota_m":37.494678497314453,"deg_in":1,"deg_out":1,"compon":3},"geometry":{"type":"Point","coordinates":[-34.920775324519617,-7.267919966774623]}},
{"type":"Feature","properties":{"id_node":"N_A_0122","tipo":"CABECEIRA","cota_m":47.393653869628906,"deg_in":0,"deg_out":1,"compon":3},"geometry":{"type":"Point","coordinates":[-34.919903030416762,-7.266589224724123]}},
{"type":"Feature","properties":{"id_node":"N_A_0123","tipo":"JUNCAO","cota_m":39.380046844482422,"deg_in":2,"deg_out":2,"compon":3},"geometry":{"type":"Point","coordinates":[-34.920141461093351,-7.267901858787499]}},
{"type":"Feature","properties":{"id_node":"N_A_0124","tipo":"CABECEIRA","cota_m":50.390205383300781,"deg_in":0,"deg_out":1,"compon":3},"geometry":{"type":"Point","coordinates":[-34.919264913160305,-7.266603407943607]}},
{"type":"Feature","properties":{"id_node":"N_A_0125","tipo":"OUTFALL_PROV","cota_m":42.040752410888672,"deg_in":2,"deg_out":0,"compon":3},"geometry":{"type":"Point","coordinates":[-34.9194624160967,-7.267904734109243]}},
{"type":"Feature","properties":{"id_node":"N_A_0126","tipo":"CABECEIRA","cota_m":51.374828338623047,"deg_in":0,"deg_out":1,"compon":3},"geometry":{"type":"Point","coordinates":[-34.918607968465842,-7.266640633911344]}},
{"type":"Feature","properties":{"id_node":"N_A_0127","tipo":"JUNCAO","cota_m":45.812713623046875,"deg_in":3,"deg_out":1,"compon":3},"geometry":{"type":"Point","coordinates":[-34.918829509640666,-7.267966148301547]}},
{"type":"Feature","properties":{"id_node":"N_A_0128","tipo":"CABECEIRA","cota_m":53.586463928222656,"deg_in":0,"deg_out":1,"compon":3},"geometry":{"type":"Point","coordinates":[-34.91795550184645,-7.266660617022806]}},
{"type":"Feature","properties":{"id_node":"N_A_0129","tipo":"JUNCAO","cota_m":49.535263061523438,"deg_in":2,"deg_out":2,"compon":3},"geometry":{"type":"Point","coordinates":[-34.918167379078099,-7.268007060801364]}},
{"type":"Feature","properties":{"id_node":"N_A_0130","tipo":"CABECEIRA","cota_m":53.165458679199219,"deg_in":0,"deg_out":1,"compon":3},"geometry":{"type":"Point","coordinates":[-34.917330498051889,-7.266716842749648]}},
{"type":"Feature","properties":{"id_node":"N_A_0131","tipo":"JUNCAO","cota_m":51.665386199951172,"deg_in":3,"deg_out":1,"compon":3},"geometry":{"type":"Point","coordinates":[-34.917557367893266,-7.26802364567326]}},
{"type":"Feature","properties":{"id_node":"N_A_0132","tipo":"JUNCAO","cota_m":51.704093933105469,"deg_in":1,"deg_out":1,"compon":3},"geometry":{"type":"Point","coordinates":[-34.917561663876441,-7.268048391022923]}},
{"type":"Feature","properties":{"id_node":"N_A_0133","tipo":"CABECEIRA","cota_m":55.444015502929688,"deg_in":0,"deg_out":1,"compon":3},"geometry":{"type":"Point","coordinates":[-34.91668100275745,-7.266759775506704]}},
{"type":"Feature","properties":{"id_node":"N_A_0134","tipo":"JUNCAO","cota_m":54.984043121337891,"deg_in":1,"deg_out":2,"compon":3},"geometry":{"type":"Point","coordinates":[-34.916875527663912,-7.268051423541178]}},
{"type":"Feature","properties":{"id_node":"N_A_0135","tipo":"JUNCAO","cota_m":53.671772003173828,"deg_in":5,"deg_out":1,"compon":3},"geometry":{"type":"Point","coordinates":[-34.916881423452054,-7.268078325076945]}},
{"type":"Feature","properties":{"id_node":"N_A_0136","tipo":"JUNCAO","cota_m":55.702465057373047,"deg_in":1,"deg_out":2,"compon":3},"geometry":{"type":"Point","coordinates":[-34.916890396773695,-7.268124874107394]}},
{"type":"Feature","properties":{"id_node":"N_A_0137","tipo":"CABECEIRA","cota_m":60.202003479003906,"deg_in":0,"deg_out":1,"compon":3},"geometry":{"type":"Point","coordinates":[-34.916048549804273,-7.26675754765481]}},
{"type":"Feature","properties":{"id_node":"N_A_0138","tipo":"JUNCAO","cota_m":58.254493713378906,"deg_in":2,"deg_out":2,"compon":3},"geometry":{"type":"Point","coordinates":[-34.916246079489198,-7.268130502148892]}},
{"type":"Feature","properties":{"id_node":"N_A_0139","tipo":"OUTFALL_PROV","cota_m":58.254493713378906,"deg_in":2,"deg_out":0,"compon":3},"geometry":{"type":"Point","coordinates":[-34.916249259102358,-7.268152602310177]}},
{"type":"Feature","properties":{"id_node":"N_A_0140","tipo":"OUTFALL_PROV","cota_m":65.1036376953125,"deg_in":1,"deg_out":0,"compon":3},"geometry":{"type":"Point","coordinates":[-34.915383274572363,-7.266773464114346]}},
{"type":"Feature","properties":{"id_node":"N_A_0141","tipo":"JUNCAO","cota_m":70.903800964355469,"deg_in":2,"deg_out":2,"compon":3},"geometry":{"type":"Point","coordinates":[-34.91560178912097,-7.268175975443592]}},
{"type":"Feature","properties":{"id_node":"N_A_0142","tipo":"OUTFALL_PROV","cota_m":70.572288513183594,"deg_in":1,"deg_out":0,"compon":3},"geometry":{"type":"Point","coordinates":[-34.914704307306529,-7.266794735872242]}},
{"type":"Feature","properties":{"id_node":"N_A_0143","tipo":"JUNCAO","cota_m":84.388076782226562,"deg_in":2,"deg_out":2,"compon":3},"geometry":{"type":"Point","coordinates":[-34.914937123406439,-7.268199280998443]}},
{"type":"Feature","properties":{"id_node":"N_A_0144","tipo":"CABECEIRA","cota_m":55.242034912109375,"deg_in":0,"deg_out":1,"compon":3},"geometry":{"type":"Point","coordinates":[-34.917816567354386,-7.265871817510322]}},
{"type":"Feature","properties":{"id_node":"N_A_0145","tipo":"JUNCAO","cota_m":53.805240631103516,"deg_in":2,"deg_out":1,"compon":3},"geometry":{"type":"Point","coordinates":[-34.917958877976368,-7.266617632311712]}},
{"type":"Feature","properties":{"id_node":"N_A_0146","tipo":"CABECEIRA","cota_m":55.388656616210938,"deg_in":0,"deg_out":1,"compon":3},"geometry":{"type":"Point","coordinates":[-34.918477120927683,-7.265725498785262]}},
{"type":"Feature","properties":{"id_node":"N_A_0147","tipo":"JUNCAO","cota_m":51.713390350341797,"deg_in":2,"deg_out":1,"compon":3},"geometry":{"type":"Point","coordinates":[-34.918605350105587,-7.266595810221857]}},
{"type":"Feature","properties":{"id_node":"N_A_0148","tipo":"OUTFALL_PROV","cota_m":18.441564559936523,"deg_in":1,"deg_out":0,"compon":3},"geometry":{"type":"Point","coordinates":[-34.922006730258673,-7.270176201804994]}},
{"type":"Feature","properties":{"id_node":"N_A_0149","tipo":"JUNCAO","cota_m":21.870588302612305,"deg_in":2,"deg_out":1,"compon":3},"geometry":{"type":"Point","coordinates":[-34.922043050335297,-7.269331631375687]}},
{"type":"Feature","properties":{"id_node":"N_A_0150","tipo":"JUNCAO","cota_m":30.225093841552734,"deg_in":1,"deg_out":2,"compon":3},"geometry":{"type":"Point","coordinates":[-34.922016651418524,-7.268707437563024]}},
{"type":"Feature","properties":{"id_node":"N_A_0151","tipo":"JUNCAO","cota_m":27.665307998657227,"deg_in":3,"deg_out":1,"compon":3},"geometry":{"type":"Point","coordinates":[-34.921978614146383,-7.267894171854705]}},
{"type":"Feature","properties":{"id_node":"N_A_0152","tipo":"CABECEIRA","cota_m":38.036991119384766,"deg_in":0,"deg_out":1,"compon":3},"geometry":{"type":"Point","coordinates":[-34.920985808183438,-7.268647824990772]}},
{"type":"Feature","properties":{"id_node":"N_A_0153","tipo":"CABECEIRA","cota_m":35.423969268798828,"deg_in":0,"deg_out":1,"compon":3},"geometry":{"type":"Point","coordinates":[-34.921148194298027,-7.269396388469024]}},
{"type":"Feature","properties":{"id_node":"N_A_0154","tipo":"OUTFALL_PROV","cota_m":31.364458084106445,"deg_in":1,"deg_out":0,"compon":3},"geometry":{"type":"Point","coordinates":[-34.921302437562588,-7.270157166331506]}},
{"type":"Feature","properties":{"id_node":"N_A_0155","tipo":"OUTFALL_PROV","cota_m":36.293277740478516,"deg_in":1,"deg_out":0,"compon":3},"geometry":{"type":"Point","coordinates":[-34.920731752273362,-7.270679437180076]}},
{"type":"Feature","properties":{"id_node":"N_A_0156","tipo":"CABECEIRA","cota_m":43.239791870117188,"deg_in":0,"deg_out":1,"compon":11},"geometry":{"type":"Point","coordinates":[-34.919951269578092,-7.270230698689515]}},
{"type":"Feature","properties":{"id_node":"N_A_0157","tipo":"OUTFALL_PROV","cota_m":43.190757751464844,"deg_in":1,"deg_out":0,"compon":11},"geometry":{"type":"Point","coordinates":[-34.919913300087636,-7.27005004132053]}},
{"type":"Feature","properties":{"id_node":"N_A_0158","tipo":"CABECEIRA","cota_m":42.988147735595703,"deg_in":0,"deg_out":1,"compon":3},"geometry":{"type":"Point","coordinates":[-34.919903807722598,-7.270004876976331]}},
{"type":"Feature","properties":{"id_node":"N_A_0159","tipo":"JUNCAO","cota_m":42.040752410888672,"deg_in":2,"deg_out":2,"compon":3},"geometry":{"type":"Point","coordinates":[-34.919466829687842,-7.267925734153736]}},
{"type":"Feature","properties":{"id_node":"N_A_0160","tipo":"CABECEIRA","cota_m":47.120780944824219,"deg_in":0,"deg_out":1,"compon":3},"geometry":{"type":"Point","coordinates":[-34.919310629315341,-7.270549843967684]}},
{"type":"Feature","properties":{"id_node":"N_A_0161","tipo":"JUNCAO","cota_m":46.579673767089844,"deg_in":1,"deg_out":1,"compon":3},"geometry":{"type":"Point","coordinates":[-34.919268782130473,-7.270325065960928]}},
{"type":"Feature","properties":{"id_node":"N_A_0162","tipo":"OUTFALL_PROV","cota_m":49.256107330322266,"deg_in":1,"deg_out":0,"compon":3},"geometry":{"type":"Point","coordinates":[-34.918704585421608,-7.270778432937571]}},
{"type":"Feature","properties":{"id_node":"N_A_0163","tipo":"CABECEIRA","cota_m":54.474021911621094,"deg_in":0,"deg_out":1,"compon":3},"geometry":{"type":"Point","coordinates":[-34.917947986062202,-7.270239180207499]}},
{"type":"Feature","properties":{"id_node":"N_A_0164","tipo":"CABECEIRA","cota_m":56.054256439208984,"deg_in":0,"deg_out":1,"compon":3},"geometry":{"type":"Point","coordinates":[-34.917220529108604,-7.270219655619486]}},
{"type":"Feature","properties":{"id_node":"N_A_0165","tipo":"OUTFALL_PROV","cota_m":62.057304382324219,"deg_in":1,"deg_out":0,"compon":12},"geometry":{"type":"Point","coordinates":[-34.91648923781964,-7.269702895016297]}},
{"type":"Feature","properties":{"id_node":"N_A_0166","tipo":"CABECEIRA","cota_m":62.236557006835938,"deg_in":0,"deg_out":1,"compon":12},"geometry":{"type":"Point","coordinates":[-34.916475251915514,-7.269612544867337]}},
{"type":"Feature","properties":{"id_node":"N_A_0167","tipo":"CABECEIRA","cota_m":62.374935150146484,"deg_in":0,"deg_out":1,"compon":3},"geometry":{"type":"Point","coordinates":[-34.916468258967278,-7.269567369792023]}},
{"type":"Feature","properties":{"id_node":"N_A_0168","tipo":"OUTFALL_PROV","cota_m":72.596511840820312,"deg_in":1,"deg_out":0,"compon":13},"geometry":{"type":"Point","coordinates":[-34.915749531298026,-7.269027952042073]}},
{"type":"Feature","properties":{"id_node":"N_A_0169","tipo":"CABECEIRA","cota_m":72.791282653808594,"deg_in":0,"deg_out":1,"compon":13},"geometry":{"type":"Point","coordinates":[-34.91574169927749,-7.268982780479461]}},
{"type":"Feature","properties":{"id_node":"N_A_0170","tipo":"CABECEIRA","cota_m":73.232978820800781,"deg_in":0,"deg_out":1,"compon":3},"geometry":{"type":"Point","coordinates":[-34.915733867259661,-7.268937608916217]}},
{"type":"Feature","properties":{"id_node":"N_A_0171","tipo":"CABECEIRA","cota_m":85.417755126953125,"deg_in":0,"deg_out":1,"compon":3},"geometry":{"type":"Point","coordinates":[-34.915058251949091,-7.268940463542899]}},
{"type":"Feature","properties":{"id_node":"N_A_0172","tipo":"OUTFALL_PROV","cota_m":94.993682861328125,"deg_in":1,"deg_out":0,"compon":14},"geometry":{"type":"Point","coordinates":[-34.914471915767635,-7.268626507270388]}},
{"type":"Feature","properties":{"id_node":"N_A_0173","tipo":"CABECEIRA","cota_m":95.080963134765625,"deg_in":0,"deg_out":1,"compon":14},"geometry":{"type":"Point","coordinates":[-34.914463008646308,-7.26861044326747]}},
{"type":"Feature","properties":{"id_node":"N_A_0174","tipo":"OUTFALL_PROV","cota_m":95.080963134765625,"deg_in":1,"deg_out":0,"compon":3},"geometry":{"type":"Point","coordinates":[-34.914446909356606,-7.268581408176855]}},
{"type":"Feature","properties":{"id_node":"N_A_0175","tipo":"CABECEIRA","cota_m":53.734844207763672,"deg_in":0,"deg_out":1,"compon":2},"geometry":{"type":"Point","coordinates":[-34.917055384054919,-7.261211828490485]}},
{"type":"Feature","properties":{"id_node":"N_A_0176","tipo":"JUNCAO","cota_m":47.805496215820312,"deg_in":2,"deg_out":1,"compon":2},"geometry":{"type":"Point","coordinates":[-34.917090540266287,-7.26242061511051]}},
{"type":"Feature","properties":{"id_node":"N_A_0177","tipo":"CABECEIRA","cota_m":55.130966186523438,"deg_in":0,"deg_out":1,"compon":2},"geometry":{"type":"Point","coordinates":[-34.916384463503412,-7.261171604768867]}},
{"type":"Feature","properties":{"id_node":"N_A_0178","tipo":"JUNCAO","cota_m":50.836784362792969,"deg_in":2,"deg_out":1,"compon":2},"geometry":{"type":"Point","coordinates":[-34.916405783733005,-7.26235749235172]}},
{"type":"Feature","properties":{"id_node":"N_A_0179","tipo":"CABECEIRA","cota_m":57.794136047363281,"deg_in":0,"deg_out":1,"compon":2},"geometry":{"type":"Point","coordinates":[-34.915766446240028,-7.261178998398489]}},
{"type":"Feature","properties":{"id_node":"N_A_0180","tipo":"JUNCAO","cota_m":57.549419403076172,"deg_in":2,"deg_out":1,"compon":2},"geometry":{"type":"Point","coordinates":[-34.91575249933782,-7.261423598160713]}},
{"type":"Feature","properties":{"id_node":"N_A_0181","tipo":"CABECEIRA","cota_m":61.401542663574219,"deg_in":0,"deg_out":1,"compon":2},"geometry":{"type":"Point","coordinates":[-34.915225975575126,-7.261396567500518]}},
{"type":"Feature","properties":{"id_node":"N_A_0182","tipo":"CABECEIRA","cota_m":62.731834411621094,"deg_in":0,"deg_out":1,"compon":2},"geometry":{"type":"Point","coordinates":[-34.915085963618338,-7.261143597251423]}},
{"type":"Feature","properties":{"id_node":"N_A_0183","tipo":"JUNCAO","cota_m":59.161708831787109,"deg_in":2,"deg_out":1,"compon":2},"geometry":{"type":"Point","coordinates":[-34.915088337959453,-7.26223377053438]}},
{"type":"Feature","properties":{"id_node":"N_A_0184","tipo":"CABECEIRA","cota_m":78.703262329101562,"deg_in":0,"deg_out":1,"compon":2},"geometry":{"type":"Point","coordinates":[-34.913771986055536,-7.26108120517299]}},
{"type":"Feature","properties":{"id_node":"N_A_0185","tipo":"JUNCAO","cota_m":74.71807861328125,"deg_in":2,"deg_out":1,"compon":2},"geometry":{"type":"Point","coordinates":[-34.913786205299076,-7.261895675143288]}},
{"type":"Feature","properties":{"id_node":"N_A_0186","tipo":"CABECEIRA","cota_m":97.1483154296875,"deg_in":0,"deg_out":1,"compon":2},"geometry":{"type":"Point","coordinates":[-34.911420244215158,-7.260977174104602]}},
{"type":"Feature","properties":{"id_node":"N_A_0187","tipo":"JUNCAO","cota_m":96.6446533203125,"deg_in":2,"deg_out":1,"compon":2},"geometry":{"type":"Point","coordinates":[-34.911427601845013,-7.26112892071673]}},
{"type":"Feature","properties":{"id_node":"N_A_0188","tipo":"CABECEIRA","cota_m":90.766799926757812,"deg_in":0,"deg_out":1,"compon":2},"geometry":{"type":"Point","coordinates":[-34.912110709055675,-7.261031754694825]}},
{"type":"Feature","properties":{"id_node":"N_A_0189","tipo":"CABECEIRA","cota_m":47.504230499267578,"deg_in":0,"deg_out":1,"compon":15},"geometry":{"type":"Point","coordinates":[-34.917150041302506,-7.262406991946381]}},
{"type":"Feature","properties":{"id_node":"N_A_0190","tipo":"OUTFALL_PROV","cota_m":44.277423858642578,"deg_in":2,"deg_out":0,"compon":15},"geometry":{"type":"Point","coordinates":[-34.917718781687185,-7.262397149352467]}},
{"type":"Feature","properties":{"id_node":"N_A_0191","tipo":"JUNCAO","cota_m":46.413650512695312,"deg_in":2,"deg_out":1,"compon":2},"geometry":{"type":"Point","coordinates":[-34.917453469359472,-7.263450287749166]}},
{"type":"Feature","properties":{"id_node":"N_A_0192","tipo":"CABECEIRA","cota_m":103.52889251708984,"deg_in":0,"deg_out":1,"compon":3},"geometry":{"type":"Point","coordinates":[-34.913330989188758,-7.268550939410228]}},
{"type":"Feature","properties":{"id_node":"N_A_0193","tipo":"OUTFALL_PROV","cota_m":25.919466018676758,"deg_in":1,"deg_out":0,"compon":3},"geometry":{"type":"Point","coordinates":[-34.922161600192588,-7.267890777278128]}},
{"type":"Feature","properties":{"id_node":"N_A_0194","tipo":"CABECEIRA","cota_m":106.56615447998047,"deg_in":0,"deg_out":1,"compon":2},"geometry":{"type":"Point","coordinates":[-34.910267242641943,-7.261304973788293]}},
{"type":"Feature","properties":{"id_node":"N_A_0195","tipo":"OUTFALL_PROV","cota_m":13.17209529876709,"deg_in":1,"deg_out":0,"compon":9},"geometry":{"type":"Point","coordinates":[-34.923312441540055,-7.263061863229206]}},
{"type":"Feature","properties":{"id_node":"N_A_0196","tipo":"CABECEIRA","cota_m":79.553298950195312,"deg_in":0,"deg_out":1,"compon":3},"geometry":{"type":"Point","coordinates":[-34.914073497804559,-7.266783966682083]}},
{"type":"Feature","properties":{"id_node":"N_A_0197","tipo":"CABECEIRA","cota_m":47.297771453857422,"deg_in":0,"deg_out":1,"compon":2},"geometry":{"type":"Point","coordinates":[-34.91758124403048,-7.26401126198295]}},
{"type":"Feature","properties":{"id_node":"N_A_0198","tipo":"CABECEIRA","cota_m":50.583255767822266,"deg_in":0,"deg_out":1,"compon":15},"geometry":{"type":"Point","coordinates":[-34.917703667211896,-7.261223920275163]}},
{"type":"Feature","properties":{"id_node":"N_A_0199","tipo":"CABECEIRA","cota_m":49.396217346191406,"deg_in":0,"deg_out":1,"compon":16},"geometry":{"type":"Point","coordinates":[-34.918392111044582,-7.261272679408441]}},
{"type":"Feature","properties":{"id_node":"N_A_0200","tipo":"OUTFALL_PROV","cota_m":41.818229675292969,"deg_in":1,"deg_out":0,"compon":16},"geometry":{"type":"Point","coordinates":[-34.918373044665792,-7.262425743463466]}}
]
}
