{
"type": "FeatureCollection",
"name": "rede_nos_B",
"crs": { "type": "name", "properties": { "name": "urn:ogc:def:crs:OGC:1.3:CRS84" } },
"features": [
{"type":"Feature","properties":{"id_node":"N_B_0001","tipo":"CABECEIRA","cota_m":121.68566131591797,"deg_in":0,"deg_out":1,"compon":1.0},"geometry":{"type":"Point","coordinates":[-34.909797731526858,-7.271295927207817]}},
{"type":"Feature","properties":{"id_node":"N_B_0002","tipo":"JUNCAO","cota_m":117.58277893066406,"deg_in":2,"deg_out":2,"compon":1.0},"geometry":{"type":"Point","coordinates":[-34.910412581093169,-7.272051227736367]}},
{"type":"Feature","properties":{"id_node":"N_B_0003","tipo":"JUNCAO","cota_m":112.58860778808594,"deg_in":2,"deg_out":1,"compon":1.0},"geometry":{"type":"Point","coordinates":[-34.911020722227704,-7.27281028423144]}},
{"type":"Feature","properties":{"id_node":"N_B_0004","tipo":"JUNCAO","cota_m":117.33136749267578,"deg_in":1,"deg_out":1,"compon":1.0},"geometry":{"type":"Point","coordinates":[-34.910426255040193,-7.27218313617233]}},
{"type":"Feature","properties":{"id_node":"N_B_0005","tipo":"JUNCAO","cota_m":115.79794311523438,"deg_in":2,"deg_out":1,"compon":1.0},"geometry":{"type":"Point","coordinates":[-34.910476072041725,-7.272777121689312]}},
{"type":"Feature","properties":{"id_node":"N_B_0006","tipo":"CABECEIRA","cota_m":121.73796844482422,"deg_in":0,"deg_out":1,"compon":1.0},"geometry":{"type":"Point","coordinates":[-34.909938783849285,-7.270887720208143]}},
{"type":"Feature","properties":{"id_node":"N_B_0007","tipo":"CABECEIRA","cota_m":119.14454650878906,"deg_in":0,"deg_out":1,"compon":1.0},"geometry":{"type":"Point","coordinates":[-34.910326693718304,-7.270845898135657]}},
{"type":"Feature","properties":{"id_node":"N_B_0008","tipo":"JUNCAO","cota_m":109.52175903320312,"deg_in":2,"deg_out":1,"compon":1.0},"geometry":{"type":"Point","coordinates":[-34.911579164460207,-7.272492190093846]}},
{"type":"Feature","properties":{"id_node":"N_B_0009","tipo":"CABECEIRA","cota_m":116.99341583251953,"deg_in":0,"deg_out":1,"compon":1.0},"geometry":{"type":"Point","coordinates":[-34.911142072995581,-7.269478394563582]}},
{"type":"Feature","properties":{"id_node":"N_B_0010","tipo":"JUNCAO","cota_m":98.531539916992188,"deg_in":2,"deg_out":1,"compon":1.0},"geometry":{"type":"Point","coordinates":[-34.912801917908823,-7.271752055563867]}},
{"type":"Feature","properties":{"id_node":"N_B_0011","tipo":"JUNCAO","cota_m":62.823890686035156,"deg_in":2,"deg_out":1,"compon":1.0},"geometry":{"type":"Point","coordinates":[-34.915155652301131,-7.274800118752059]}},
{"type":"Feature","properties":{"id_node":"N_B_0012","tipo":"CABECEIRA","cota_m":110.01205444335938,"deg_in":0,"deg_out":1,"compon":1.0},"geometry":{"type":"Point","coordinates":[-34.911795652811001,-7.269182304473126]}},
{"type":"Feature","properties":{"id_node":"N_B_0013","tipo":"CABECEIRA","cota_m":107.85828399658203,"deg_in":0,"deg_out":1,"compon":1.0},"geometry":{"type":"Point","coordinates":[-34.91245035121527,-7.268952294388249]}},
{"type":"Feature","properties":{"id_node":"N_B_0014","tipo":"JUNCAO","cota_m":58.916793823242188,"deg_in":2,"deg_out":1,"compon":1.0},"geometry":{"type":"Point","coordinates":[-34.915679180620408,-7.274361417452936]}},
{"type":"Feature","properties":{"id_node":"N_B_0015","tipo":"CABECEIRA","cota_m":105.37587738037109,"deg_in":0,"deg_out":1,"compon":1.0},"geometry":{"type":"Point","coordinates":[-34.913081641936174,-7.268757665610035]}},
{"type":"Feature","properties":{"id_node":"N_B_0016","tipo":"JUNCAO","cota_m":55.190128326416016,"deg_in":2,"deg_out":1,"compon":1.0},"geometry":{"type":"Point","coordinates":[-34.916189229986706,-7.273863901962832]}},
{"type":"Feature","properties":{"id_node":"N_B_0017","tipo":"CABECEIRA","cota_m":100.972900390625,"deg_in":0,"deg_out":1,"compon":1.0},"geometry":{"type":"Point","coordinates":[-34.913824840413831,-7.268886225003871]}},
{"type":"Feature","properties":{"id_node":"N_B_0018","tipo":"JUNCAO","cota_m":52.559803009033203,"deg_in":2,"deg_out":1,"compon":1.0},"geometry":{"type":"Point","coordinates":[-34.916678892966374,-7.273386270538038]}},
{"type":"Feature","properties":{"id_node":"N_B_0019","tipo":"CABECEIRA","cota_m":92.289581298828125,"deg_in":0,"deg_out":1,"compon":1.0},"geometry":{"type":"Point","coordinates":[-34.914650016463121,-7.268957034945656]}},
{"type":"Feature","properties":{"id_node":"N_B_0020","tipo":"JUNCAO","cota_m":70.556640625,"deg_in":2,"deg_out":1,"compon":1.0},"geometry":{"type":"Point","coordinates":[-34.915269462736759,-7.270592610684144]}},
{"type":"Feature","properties":{"id_node":"N_B_0021","tipo":"JUNCAO","cota_m":57.638088226318359,"deg_in":2,"deg_out":1,"compon":1.0},"geometry":{"type":"Point","coordinates":[-34.916130356462027,-7.271678434836341]}},
{"type":"Feature","properties":{"id_node":"N_B_0022","tipo":"JUNCAO","cota_m":49.897239685058594,"deg_in":2,"deg_out":1,"compon":1.0},"geometry":{"type":"Point","coordinates":[-34.917143061369643,-7.272961317976034]}},
{"type":"Feature","properties":{"id_node":"N_B_0023","tipo":"CABECEIRA","cota_m":84.946273803710938,"deg_in":0,"deg_out":1,"compon":1.0},"geometry":{"type":"Point","coordinates":[-34.915068725710753,-7.269012768761316]}},
{"type":"Feature","properties":{"id_node":"N_B_0024","tipo":"CABECEIRA","cota_m":72.570457458496094,"deg_in":0,"deg_out":1,"compon":1.0},"geometry":{"type":"Point","coordinates":[-34.915766739926084,-7.269112200658456]}},
{"type":"Feature","properties":{"id_node":"N_B_0025","tipo":"CABECEIRA","cota_m":61.720058441162109,"deg_in":0,"deg_out":1,"compon":1.0},"geometry":{"type":"Point","coordinates":[-34.916506842845386,-7.269759240620432]}},
{"type":"Feature","properties":{"id_node":"N_B_0026","tipo":"JUNCAO","cota_m":50.771980285644531,"deg_in":2,"deg_out":1,"compon":1.0},"geometry":{"type":"Point","coordinates":[-34.916786981413225,-7.271577628079244]}},
{"type":"Feature","properties":{"id_node":"N_B_0027","tipo":"CABECEIRA","cota_m":55.402122497558594,"deg_in":0,"deg_out":1,"compon":1.0},"geometry":{"type":"Point","coordinates":[-34.91728783693776,-7.270320756328006]}},
{"type":"Feature","properties":{"id_node":"N_B_0028","tipo":"JUNCAO","cota_m":49.7247314453125,"deg_in":2,"deg_out":1,"compon":1.0},"geometry":{"type":"Point","coordinates":[-34.917499131659255,-7.271563745203238]}},
{"type":"Feature","properties":{"id_node":"N_B_0029","tipo":"CABECEIRA","cota_m":53.561653137207031,"deg_in":0,"deg_out":1,"compon":1.0},"geometry":{"type":"Point","coordinates":[-34.917994912447767,-7.270524160835615]}},
{"type":"Feature","properties":{"id_node":"N_B_0030","tipo":"OUTFALL_PROV","cota_m":45.244766235351562,"deg_in":3,"deg_out":0,"compon":1.0},"geometry":{"type":"Point","coordinates":[-34.91821282180625,-7.271517667299189]}},
{"type":"Feature","properties":{"id_node":"N_B_0031","tipo":"CABECEIRA","cota_m":49.035385131835938,"deg_in":0,"deg_out":1,"compon":1.0},"geometry":{"type":"Point","coordinates":[-34.91872608638689,-7.270853111367522]}},
{"type":"Feature","properties":{"id_node":"N_B_0032","tipo":"JUNCAO","cota_m":47.650627136230469,"deg_in":1,"deg_out":2,"compon":1.0},"geometry":{"type":"Point","coordinates":[-34.918453735025288,-7.271525195173072]}},
{"type":"Feature","properties":{"id_node":"N_B_0033","tipo":"CABECEIRA","cota_m":51.967029571533203,"deg_in":0,"deg_out":1,"compon":2.0},"geometry":{"type":"Point","coordinates":[-34.916857922059535,-7.27331720748653]}},
{"type":"Feature","properties":{"id_node":"N_B_0034","tipo":"JUNCAO","cota_m":36.719928741455078,"deg_in":2,"deg_out":1,"compon":2.0},"geometry":{"type":"Point","coordinates":[-34.919081218396606,-7.2750843010752]}},
{"type":"Feature","properties":{"id_node":"N_B_0035","tipo":"CABECEIRA","cota_m":54.973152160644531,"deg_in":0,"deg_out":1,"compon":2.0},"geometry":{"type":"Point","coordinates":[-34.916225213784273,-7.273931300585867]}},
{"type":"Feature","properties":{"id_node":"N_B_0036","tipo":"JUNCAO","cota_m":37.277458190917969,"deg_in":2,"deg_out":1,"compon":2.0},"geometry":{"type":"Point","coordinates":[-34.91806560944304,-7.275730868517529]}},
{"type":"Feature","properties":{"id_node":"N_B_0037","tipo":"CABECEIRA","cota_m":60.706134796142578,"deg_in":0,"deg_out":1,"compon":2.0},"geometry":{"type":"Point","coordinates":[-34.915461770205852,-7.274611943808322]}},
{"type":"Feature","properties":{"id_node":"N_B_0038","tipo":"JUNCAO","cota_m":38.503372192382812,"deg_in":1,"deg_out":1,"compon":2.0},"geometry":{"type":"Point","coordinates":[-34.917196614803387,-7.276295283440997]}},
{"type":"Feature","properties":{"id_node":"N_B_0039","tipo":"CABECEIRA","cota_m":48.641410827636719,"deg_in":0,"deg_out":1,"compon":2.0},"geometry":{"type":"Point","coordinates":[-34.91762281710988,-7.272691710392502]}},
{"type":"Feature","properties":{"id_node":"N_B_0040","tipo":"JUNCAO","cota_m":32.932491302490234,"deg_in":2,"deg_out":1,"compon":2.0},"geometry":{"type":"Point","coordinates":[-34.920078965751621,-7.274501987109537]}},
{"type":"Feature","properties":{"id_node":"N_B_0041","tipo":"CABECEIRA","cota_m":118.57159423828125,"deg_in":0,"deg_out":1,"compon":1.0},"geometry":{"type":"Point","coordinates":[-34.910006933919163,-7.272760296055812]}},
{"type":"Feature","properties":{"id_node":"N_B_0042","tipo":"JUNCAO","cota_m":42.798110961914062,"deg_in":2,"deg_out":1,"compon":1.0},"geometry":{"type":"Point","coordinates":[-34.918105620449019,-7.271950971359833]}},
{"type":"Feature","properties":{"id_node":"N_B_0043","tipo":"JUNCAO","cota_m":40.784214019775391,"deg_in":1,"deg_out":1,"compon":1.0},"geometry":{"type":"Point","coordinates":[-34.918480761697047,-7.272227327096931]}},
{"type":"Feature","properties":{"id_node":"N_B_0044","tipo":"JUNCAO","cota_m":31.093723297119141,"deg_in":1,"deg_out":1,"compon":2.0},"geometry":{"type":"Point","coordinates":[-34.92042420349177,-7.274476259361537]}},
{"type":"Feature","properties":{"id_node":"N_B_0045","tipo":"CABECEIRA","cota_m":56.943119049072266,"deg_in":0,"deg_out":1,"compon":1.0},"geometry":{"type":"Point","coordinates":[-34.91617344217299,-7.271625427455896]}},
{"type":"Feature","properties":{"id_node":"O_B_DISS_01","tipo":"OUTFALL_PROV","cota_m":40.784214019775391,"deg_in":1,"deg_out":0,"compon":null},"geometry":{"type":"Point","coordinates":[-34.918480761697047,-7.272227327096931]}},
{"type":"Feature","properties":{"id_node":"O_B_DISS_02","tipo":"OUTFALL_PROV","cota_m":27.958951950073242,"deg_in":1,"deg_out":0,"compon":null},"geometry":{"type":"Point","coordinates":[-34.920892898015424,-7.274543740855001]}}
]
}
