{
"type": "FeatureCollection",
"name": "rede_linhas_A_nodal",
"crs": { "type": "name", "properties": { "name": "urn:ogc:def:crs:OGC:1.3:CRS84" } },
"features": [
{"type":"Feature","properties":{"id_link":"L_A_0001","node_in":"N_A_0001","node_out":"N_A_0002","classe":"COLETOR","origem":"ColetarA6_F001","comp_m":198.56663836229251,"cota_in":113.26374816894531,"cota_out":107.10474395751953,"decl_pct":3.1017316212950332,"diam_m":0.6,"obs":"DECLIVE_MDE"},"geometry":{"type":"LineString","coordinates":[[-34.909904819337676,-7.263093212724127],[-34.909983035074461,-7.262327413627924],[-34.910104773893863,-7.261657115085747],[-34.910181024103316,-7.26132142805473]]}},
{"type":"Feature","properties":{"id_link":"L_A_0002","node_in":"N_A_0003","node_out":"N_A_0004","classe":"COLETOR","origem":"ColetarA6_F002","comp_m":211.83331851803456,"cota_in":111.07921600341797,"cota_out":103.98895263671875,"decl_pct":3.3470954504711612,"diam_m":0.6,"obs":"DECLIVE_MDE"},"geometry":{"type":"LineString","coordinates":[[-34.910525280605803,-7.263133976898641],[-34.910625566254929,-7.262375739724553],[-34.910771506157616,-7.261536936052204],[-34.910818463889292,-7.261241666452748]]}},
{"type":"Feature","properties":{"id_link":"L_A_0003","node_in":"N_A_0005","node_out":"N_A_0006","classe":"COLETOR","origem":"ColetarA6_F003","comp_m":188.04779122952817,"cota_in":109.44850158691406,"cota_out":96.21295166015625,"decl_pct":7.0383969097529615,"diam_m":0.6,"obs":"DECLIVE_MDE"},"geometry":{"type":"LineString","coordinates":[[-34.91118061183343,-7.263112079975769],[-34.91125118780996,-7.26257978152328],[-34.911359331952056,-7.261867439568634],[-34.911422153733767,-7.261429213920206]]}},
{"type":"Feature","properties":{"id_link":"L_A_0004","node_in":"N_A_0007","node_out":"N_A_0008","classe":"COLETOR","origem":"ColetarA6_F004","comp_m":189.50200738711732,"cota_in":105.00653839111328,"cota_out":88.823944091796875,"decl_pct":8.5395371386533014,"diam_m":0.6,"obs":"DECLIVE_MDE"},"geometry":{"type":"LineString","coordinates":[[-34.911828600618236,-7.263166759962536],[-34.911992489032905,-7.262040829941491],[-34.912064491286309,-7.261469836192386]]}},
{"type":"Feature","properties":{"id_link":"L_A_0005","node_in":"N_A_0009","node_out":"N_A_0008","classe":"COLETOR","origem":"ColetarA6_F004","comp_m":2.9276673597575562,"cota_in":89.016212463378906,"cota_out":88.823944091796875,"decl_pct":6.5672888329073436,"diam_m":0.6,"obs":"DECLIVE_MDE"},"geometry":{"type":"LineString","coordinates":[[-34.912064510669452,-7.261443367529826],[-34.912064491286309,-7.261469836192386]]}},
{"type":"Feature","properties":{"id_link":"L_A_0006","node_in":"N_A_0010","node_out":"N_A_0011","classe":"COLETOR","origem":"ColetarA6_F005","comp_m":178.29054776426744,"cota_in":93.866134643554688,"cota_out":81.775154113769531,"decl_pct":6.7816161212155972,"diam_m":0.6,"obs":"DECLIVE_MDE"},"geometry":{"type":"LineString","coordinates":[[-34.912481222577185,-7.263184102850415],[-34.912592485495409,-7.262303344819896],[-34.912718901786249,-7.261590268138717]]}},
{"type":"Feature","properties":{"id_link":"L_A_0007","node_in":"N_A_0012","node_out":"N_A_0013","classe":"COLETOR","origem":"ColetarA6_F006","comp_m":164.49451943459849,"cota_in":81.200202941894531,"cota_out":79.295501708984375,"decl_pct":1.1579116674871639,"diam_m":0.6,"obs":"DECLIVE_MDE"},"geometry":{"type":"LineString","coordinates":[[-34.91314565004577,-7.263198524494574],[-34.913170572313078,-7.262294209811937],[-34.913188225122255,-7.261711960527489]]}},
{"type":"Feature","properties":{"id_link":"L_A_0008","node_in":"N_A_0013","node_out":"N_A_0014","classe":"COLETOR","origem":"ColetarA6_F006","comp_m":2.0984430741951221,"cota_in":79.295501708984375,"cota_out":79.295501708984375,"decl_pct":0.0,"diam_m":0.6,"obs":"DIRECAO_ORIGINAL_COTA_IGUAL"},"geometry":{"type":"LineString","coordinates":[[-34.913188225122255,-7.261711960527489],[-34.913188800052467,-7.261692997470433]]}},
{"type":"Feature","properties":{"id_link":"L_A_0009","node_in":"N_A_0016","node_out":"N_A_0015","classe":"COLETOR","origem":"ColetarA6_F007","comp_m":149.96938723564205,"cota_in":71.330734252929688,"cota_out":68.918708801269531,"decl_pct":1.6083452070589705,"diam_m":0.6,"obs":"DECLIVE_MDE"},"geometry":{"type":"LineString","coordinates":[[-34.913959458528694,-7.262078656732067],[-34.913935241390895,-7.262296725922503],[-34.914005555574143,-7.262609314392471],[-34.914192894794802,-7.263403653915644]]}},
{"type":"Feature","properties":{"id_link":"L_A_0010","node_in":"N_A_0017","node_out":"N_A_0018","classe":"COLETOR","origem":"ColetarA6_F008","comp_m":171.94885358897102,"cota_in":63.086246490478516,"cota_out":56.698802947998047,"decl_pct":3.7147345906411826,"diam_m":0.6,"obs":"DECLIVE_MDE"},"geometry":{"type":"LineString","coordinates":[[-34.914820955390041,-7.263504341566024],[-34.914751532151513,-7.26294967048308],[-34.914716476446522,-7.262591005419031],[-34.91485519291227,-7.262537794093567],[-34.915209909624885,-7.26257935446105],[-34.915340009091729,-7.26258786635434]]}},
{"type":"Feature","properties":{"id_link":"L_A_0011","node_in":"N_A_0018","node_out":"N_A_0019","classe":"COLETOR","origem":"ColetarA6_F008","comp_m":64.246879477550948,"cota_in":56.698802947998047,"cota_out":54.322368621826172,"decl_pct":3.6989101190544909,"diam_m":0.6,"obs":"DECLIVE_MDE"},"geometry":{"type":"LineString","coordinates":[[-34.915340009091729,-7.26258786635434],[-34.915415983628954,-7.262592837049957],[-34.915631477570663,-7.262568006401391],[-34.915703164651177,-7.262288829079337]]}},
{"type":"Feature","properties":{"id_link":"L_A_0012","node_in":"N_A_0020","node_out":"N_A_0018","classe":"COLETOR","origem":"ColetarA6_F009","comp_m":104.01657534505389,"cota_in":58.663017272949219,"cota_out":56.698802947998047,"decl_pct":1.8883666554443745,"diam_m":0.6,"obs":"DECLIVE_MDE"},"geometry":{"type":"LineString","coordinates":[[-34.915458241526572,-7.263520787904532],[-34.915379073458041,-7.262927884888827],[-34.915340009091729,-7.26258786635434]]}},
{"type":"Feature","properties":{"id_link":"L_A_0013","node_in":"N_A_0021","node_out":"N_A_0022","classe":"COLETOR","origem":"ColetarA6_F010","comp_m":219.60208324401293,"cota_in":56.262020111083984,"cota_out":45.737747192382812,"decl_pct":4.7924285431331839,"diam_m":0.6,"obs":"DECLIVE_MDE"},"geometry":{"type":"LineString","coordinates":[[-34.916130758054898,-7.263484458665801],[-34.916032700699446,-7.262956700475878],[-34.916045736039138,-7.26285626425613],[-34.916216172816711,-7.262837278193581],[-34.916473644036685,-7.262814183498268],[-34.916657703739531,-7.26283349947726],[-34.91666668023273,-7.26291670608166],[-34.916910997159277,-7.262909932872832],[-34.917312227813404,-7.262847956943806]]}},
{"type":"Feature","properties":{"id_link":"L_A_0014","node_in":"N_A_0023","node_out":"N_A_0024","classe":"COLETOR","origem":"ColetorA1_F001","comp_m":40.674419764477598,"cota_in":118.89931488037109,"cota_out":116.56578063964844,"decl_pct":5.7371051738041352,"diam_m":0.6,"obs":"DECLIVE_MDE"},"geometry":{"type":"LineString","coordinates":[[-34.910832892266654,-7.267873378887813],[-34.911176668122977,-7.267741510895167]]}},
{"type":"Feature","properties":{"id_link":"L_A_0015","node_in":"N_A_0024","node_out":"N_A_0025","classe":"COLETOR","origem":"ColetorA1_F001","comp_m":70.66099118775783,"cota_in":116.56578063964844,"cota_out":112.76572418212891,"decl_pct":5.3778702982274318,"diam_m":0.6,"obs":"DECLIVE_MDE"},"geometry":{"type":"LineString","coordinates":[[-34.911176668122977,-7.267741510895167],[-34.911775811719941,-7.267517492875568]]}},
{"type":"Feature","properties":{"id_link":"L_A_0016","node_in":"N_A_0025","node_out":"N_A_0026","classe":"COLETOR","origem":"ColetorA1_F001","comp_m":73.384488245667455,"cota_in":112.76572418212891,"cota_out":107.72267150878906,"decl_pct":6.8720962616204933,"diam_m":0.6,"obs":"DECLIVE_MDE"},"geometry":{"type":"LineString","coordinates":[[-34.911775811719941,-7.267517492875568],[-34.912352384915742,-7.267301912985801],[-34.912398166940456,-7.267285162115834]]}},
{"type":"Feature","properties":{"id_link":"L_A_0017","node_in":"N_A_0026","node_out":"N_A_0027","classe":"COLETOR","origem":"ColetorA1_F001","comp_m":71.716067686827714,"cota_in":107.72267150878906,"cota_out":101.90216827392578,"decl_pct":8.1160379014092943,"diam_m":0.6,"obs":"DECLIVE_MDE"},"geometry":{"type":"LineString","coordinates":[[-34.912398166940456,-7.267285162115834],[-34.913007847259159,-7.267062089866982]]}},
{"type":"Feature","properties":{"id_link":"L_A_0018","node_in":"N_A_0028","node_out":"N_A_0027","classe":"COLETOR","origem":"ColetorA1_F001","comp_m":167.45194642874122,"cota_in":102.05509185791016,"cota_out":101.90216827392578,"decl_pct":0.091323861708261039,"diam_m":0.6,"obs":"DECLIVE_MDE"},"geometry":{"type":"LineString","coordinates":[[-34.913649048732971,-7.268433879595959],[-34.913199249486368,-7.26745741215935],[-34.913007847259166,-7.267062089866982],[-34.913007847259159,-7.267062089866982]]}},
{"type":"Feature","properties":{"id_link":"L_A_0019","node_in":"N_A_0030","node_out":"N_A_0029","classe":"COLETOR","origem":"ColetorA2_F001","comp_m":24.693636653763075,"cota_in":108.54859161376953,"cota_out":107.18984985351562,"decl_pct":5.5023963432573098,"diam_m":0.6,"obs":"DECLIVE_MDE"},"geometry":{"type":"LineString","coordinates":[[-34.912536098128975,-7.267549764228542],[-34.91244311573886,-7.267346735061376]]}},
{"type":"Feature","properties":{"id_link":"L_A_0020","node_in":"N_A_0031","node_out":"N_A_0032","classe":"COLETOR","origem":"ColetorA2_F002","comp_m":28.81844213081057,"cota_in":112.37059783935547,"cota_out":111.36269378662109,"decl_pct":3.4974272660519627,"diam_m":0.6,"obs":"DECLIVE_MDE"},"geometry":{"type":"LineString","coordinates":[[-34.911811328863045,-7.267588611942745],[-34.91192408052455,-7.267823573949912]]}},
{"type":"Feature","properties":{"id_link":"L_A_0021","node_in":"N_A_0033","node_out":"N_A_0034","classe":"COLETOR","origem":"ColetorA2_F003","comp_m":8.9174842287703626,"cota_in":116.55980682373047,"cota_out":116.15007019042969,"decl_pct":4.5947559063671042,"diam_m":0.6,"obs":"DECLIVE_MDE"},"geometry":{"type":"LineString","coordinates":[[-34.911168282847513,-7.267797999590838],[-34.911200721067807,-7.26787182850695]]}},
{"type":"Feature","properties":{"id_link":"L_A_0022","node_in":"N_A_0035","node_out":"N_A_0036","classe":"COLETOR","origem":"ColetorA2_F004","comp_m":36.020649562244792,"cota_in":117.48436737060547,"cota_out":117.38584136962891,"decl_pct":0.27352644156598716,"diam_m":0.6,"obs":"DECLIVE_MDE"},"geometry":{"type":"LineString","coordinates":[[-34.910839450095935,-7.268822651801067],[-34.910979303092155,-7.269116848072525]]}},
{"type":"Feature","properties":{"id_link":"L_A_0023","node_in":"N_A_0037","node_out":"N_A_0038","classe":"COLETOR","origem":"ColetorA4_F001","comp_m":242.07520767050926,"cota_in":123.53831481933594,"cota_out":121.11541748046875,"decl_pct":1.0008861965596307,"diam_m":0.6,"obs":"DECLIVE_MDE"},"geometry":{"type":"LineString","coordinates":[[-34.909294079230612,-7.266497659900068],[-34.909830645976335,-7.266487745740252],[-34.910063430259555,-7.267152723902291],[-34.910357217751276,-7.267740897770554],[-34.910466778612992,-7.268010536138515]]}},
{"type":"Feature","properties":{"id_link":"L_A_0024","node_in":"N_A_0039","node_out":"N_A_0024","classe":"COLETOR","origem":"ColetorA4_F002","comp_m":178.15379374322015,"cota_in":118.15927886962891,"cota_out":116.56578063964844,"decl_pct":0.89445091036188562,"diam_m":0.6,"obs":"DECLIVE_MDE"},"geometry":{"type":"LineString","coordinates":[[-34.910459411207604,-7.266300427711832],[-34.910855512929935,-7.267064228149708],[-34.911097391828719,-7.26761338975843],[-34.911176668122977,-7.267741510895167]]}},
{"type":"Feature","properties":{"id_link":"L_A_0025","node_in":"N_A_0040","node_out":"N_A_0025","classe":"COLETOR","origem":"ColetorA4_F003","comp_m":190.6815235836637,"cota_in":115.66951751708984,"cota_out":112.76572418212891,"decl_pct":1.5228498704998363,"diam_m":0.6,"obs":"DECLIVE_MDE"},"geometry":{"type":"LineString","coordinates":[[-34.911061608483578,-7.265948645013095],[-34.911414570856003,-7.266707842412659],[-34.911695243846211,-7.26736687620643],[-34.911775811719941,-7.267517492875568]]}},
{"type":"Feature","properties":{"id_link":"L_A_0026","node_in":"N_A_0041","node_out":"N_A_0026","classe":"COLETOR","origem":"ColetorA4_F004","comp_m":206.03538824407997,"cota_in":111.72206878662109,"cota_out":107.72267150878906,"decl_pct":1.941121528644459,"diam_m":0.6,"obs":"DECLIVE_MDE"},"geometry":{"type":"LineString","coordinates":[[-34.911592936274303,-7.265606409881965],[-34.911795665091397,-7.2659614984037],[-34.912161315965882,-7.266775181055035],[-34.912398166940456,-7.267285162115834]]}},
{"type":"Feature","properties":{"id_link":"L_A_0027","node_in":"N_A_0027","node_out":"N_A_0042","classe":"COLETOR","origem":"ColetorA4_F005","comp_m":218.66831005072697,"cota_in":101.90216827392578,"cota_out":100.91004180908203,"decl_pct":0.45371296124874938,"diam_m":0.6,"obs":"DECLIVE_MDE"},"geometry":{"type":"LineString","coordinates":[[-34.913007847259159,-7.267062089866982],[-34.912868936405793,-7.266736388121884],[-34.912545363202909,-7.266085437049815],[-34.912156739869026,-7.265277592589273]]}},
{"type":"Feature","properties":{"id_link":"L_A_0028","node_in":"N_A_0044","node_out":"N_A_0043","classe":"COLETOR","origem":"ColetorA4_F006","comp_m":411.23913105418467,"cota_in":96.908012390136719,"cota_out":88.613487243652344,"decl_pct":2.0169591170037493,"diam_m":0.6,"obs":"DECLIVE_MDE"},"geometry":{"type":"LineString","coordinates":[[-34.9142437469173,-7.268215003972741],[-34.914009349727628,-7.267626462682014],[-34.913835413301243,-7.267282736306259],[-34.913632609360512,-7.266910426564617],[-34.913522109865674,-7.26661236029696],[-34.913429417102108,-7.266446262094505],[-34.913075724593099,-7.265741609776755],[-34.912953703131016,-7.265437850776602],[-34.912652289786287,-7.264859279537982]]}},
{"type":"Feature","properties":{"id_link":"L_A_0029","node_in":"N_A_0045","node_out":"N_A_0046","classe":"COLETOR","origem":"ColetorA5_F001","comp_m":485.37920649088142,"cota_in":121.13532257080078,"cota_out":102.44920349121094,"decl_pct":3.8497980197140751,"diam_m":0.6,"obs":"DECLIVE_MDE"},"geometry":{"type":"LineString","coordinates":[[-34.908783704928531,-7.263352003351405],[-34.909349326338692,-7.263188874452593],[-34.909952935256605,-7.263171981133472],[-34.910393729876212,-7.26317490938622],[-34.910810589475176,-7.263182722203426],[-34.91152928394586,-7.264323114101185],[-34.91168346654824,-7.264528184140098],[-34.912084049904458,-7.265147248516365]]}},
{"type":"Feature","properties":{"id_link":"L_A_0030","node_in":"N_A_0047","node_out":"N_A_0048","classe":"COLETOR","origem":"ColetorA5_F002","comp_m":299.10826445413915,"cota_in":113.23907470703125,"cota_out":111.69416809082031,"decl_pct":0.51650415578798248,"diam_m":0.6,"obs":"DECLIVE_MDE"},"geometry":{"type":"LineString","coordinates":[[-34.910071709813224,-7.263243092977658],[-34.91068593641878,-7.264221415190789],[-34.911307760638955,-7.265113437655996],[-34.911554003950997,-7.265505352535708]]}},
{"type":"Feature","properties":{"id_link":"L_A_0031","node_in":"N_A_0049","node_out":"N_A_0050","classe":"COLETOR","origem":"ColetorA5_F003","comp_m":331.63256382976056,"cota_in":117.24396514892578,"cota_out":115.53829956054688,"decl_pct":0.51432391580655767,"diam_m":0.6,"obs":"DECLIVE_MDE"},"geometry":{"type":"LineString","coordinates":[[-34.909436429491159,-7.26331768092948],[-34.909663829573077,-7.263842984349545],[-34.909958001831491,-7.264296243569321],[-34.910377388520054,-7.264902068998343],[-34.910700490546759,-7.265398263155673],[-34.911022984923846,-7.265853361638754]]}},
{"type":"Feature","properties":{"id_link":"L_A_0032","node_in":"N_A_0051","node_out":"N_A_0052","classe":"COLETOR","origem":"ColetorA5_F004","comp_m":358.87698120311535,"cota_in":121.21202850341797,"cota_out":118.15679931640625,"decl_pct":0.85133049680958384,"diam_m":0.6,"obs":"DECLIVE_MDE"},"geometry":{"type":"LineString","coordinates":[[-34.908805456136207,-7.26343515672957],[-34.909215548174515,-7.264336685795448],[-34.909735296344394,-7.265052702190896],[-34.910133452243812,-7.265680048077738],[-34.910407018979924,-7.266244796269857]]}},
{"type":"Feature","properties":{"id_link":"L_A_0033","node_in":"N_A_0053","node_out":"N_A_0054","classe":"COLETOR","origem":"ColetorA5_F005","comp_m":344.74219546877794,"cota_in":110.2110595703125,"cota_out":76.958816528320312,"decl_pct":9.6455390373017806,"diam_m":0.6,"obs":"DECLIVE_MDE"},"geometry":{"type":"LineString","coordinates":[[-34.910895307702269,-7.263200545274589],[-34.911527771341092,-7.263209362912705],[-34.912443827780059,-7.26323309958968],[-34.912784803853008,-7.263852799366613],[-34.913017280852877,-7.263953957705056],[-34.913626719168782,-7.263993183727224]]}},
{"type":"Feature","properties":{"id_link":"L_A_0034","node_in":"N_A_0055","node_out":"N_A_0056","classe":"COLETOR","origem":"ColetorA5_F006","comp_m":197.65923903122018,"cota_in":106.61613464355469,"cota_out":89.775810241699219,"decl_pct":8.5198771807451656,"diam_m":0.6,"obs":"DECLIVE_MDE"},"geometry":{"type":"LineString","coordinates":[[-34.91165266949475,-7.263287297225743],[-34.912241097874599,-7.264212948279038],[-34.91261937663981,-7.264791113022377]]}},
{"type":"Feature","properties":{"id_link":"L_A_0035","node_in":"N_A_0057","node_out":"N_A_0058","classe":"COLETOR","origem":"ColetorA5_F007","comp_m":298.27501370318851,"cota_in":92.401626586914062,"cota_out":60.479644775390625,"decl_pct":10.702197752068093,"diam_m":0.6,"obs":"DECLIVE_MDE"},"geometry":{"type":"LineString","coordinates":[[-34.912547542068673,-7.263262156236743],[-34.913329776392089,-7.263339232063255],[-34.914192694078409,-7.263461894117082],[-34.91481984515859,-7.263574067601076],[-34.915223436570962,-7.263616150244539]]}},
{"type":"Feature","properties":{"id_link":"L_A_0036","node_in":"N_A_0059","node_out":"N_A_0060","classe":"COLETOR","origem":"ColetorA7_F001","comp_m":52.902142487668684,"cota_in":55.210258483886719,"cota_out":54.140972137451172,"decl_pct":2.0212533862589668,"diam_m":0.6,"obs":"DECLIVE_MDE"},"geometry":{"type":"LineString","coordinates":[[-34.917800998652041,-7.265804610020543],[-34.917752211270901,-7.265328817668504]]}},
{"type":"Feature","properties":{"id_link":"L_A_0037","node_in":"N_A_0060","node_out":"N_A_0061","classe":"COLETOR","origem":"ColetorA7_F001","comp_m":139.08283058234858,"cota_in":54.140972137451172,"cota_out":47.143692016601562,"decl_pct":5.0310164752554698,"diam_m":0.6,"obs":"DECLIVE_MDE"},"geometry":{"type":"LineString","coordinates":[[-34.917752211270901,-7.265328817668504],[-34.917671055903121,-7.264537355772949],[-34.917602399526885,-7.264164481132839],[-34.917670280190798,-7.264117098848712]]}},
{"type":"Feature","properties":{"id_link":"L_A_0038","node_in":"N_A_0062","node_out":"N_A_0063","classe":"COLETOR","origem":"ColetorA7_F002","comp_m":40.408422911540853,"cota_in":55.460086822509766,"cota_out":55.438350677490234,"decl_pct":0.053791124358192402,"diam_m":0.6,"obs":"DECLIVE_MDE"},"geometry":{"type":"LineString","coordinates":[[-34.918466282284676,-7.265643918844847],[-34.918410159417668,-7.265282916822579]]}},
{"type":"Feature","properties":{"id_link":"L_A_0039","node_in":"N_A_0063","node_out":"N_A_0064","classe":"COLETOR","origem":"ColetorA7_F002","comp_m":144.39692465135613,"cota_in":55.438350677490234,"cota_out":45.684066772460938,"decl_pct":6.7551881236950484,"diam_m":0.6,"obs":"DECLIVE_MDE"},"geometry":{"type":"LineString","coordinates":[[-34.918410159417668,-7.265282916822579],[-34.918209609264508,-7.263992898804549]]}},
{"type":"Feature","properties":{"id_link":"L_A_0040","node_in":"N_A_0064","node_out":"N_A_0065","classe":"COLETOR","origem":"ColetorA7_F002","comp_m":2.2898805603922945,"cota_in":45.684066772460938,"cota_out":45.684066772460938,"decl_pct":0.0,"diam_m":0.6,"obs":"DIRECAO_ORIGINAL_COTA_IGUAL"},"geometry":{"type":"LineString","coordinates":[[-34.918209609264508,-7.263992898804549],[-34.918206428909592,-7.263972441390232]]}},
{"type":"Feature","properties":{"id_link":"L_A_0041","node_in":"N_A_0066","node_out":"N_A_0067","classe":"COLETOR","origem":"ColetorA7_F003","comp_m":40.730636021822072,"cota_in":54.601333618164062,"cota_out":54.542720794677734,"decl_pct":0.14390353112808107,"diam_m":0.6,"obs":"DECLIVE_MDE"},"geometry":{"type":"LineString","coordinates":[[-34.919084284321073,-7.26563173587525],[-34.919023129244557,-7.26526859562869]]}},
{"type":"Feature","properties":{"id_link":"L_A_0042","node_in":"N_A_0067","node_out":"N_A_0068","classe":"COLETOR","origem":"ColetorA7_F003","comp_m":150.08014030080162,"cota_in":54.542720794677734,"cota_out":45.462467193603516,"decl_pct":6.0502699310347854,"diam_m":0.6,"obs":"DECLIVE_MDE"},"geometry":{"type":"LineString","coordinates":[[-34.919023129244557,-7.26526859562869],[-34.918797792676258,-7.263930532727069]]}},
{"type":"Feature","properties":{"id_link":"L_A_0043","node_in":"N_A_0069","node_out":"N_A_0070","classe":"COLETOR","origem":"ColetorA7_F004","comp_m":213.21900802428411,"cota_in":49.974773406982422,"cota_out":40.939559936523438,"decl_pct":4.237527204624242,"diam_m":0.6,"obs":"DECLIVE_MDE"},"geometry":{"type":"LineString","coordinates":[[-34.91971956507669,-7.265281780715664],[-34.919350522685264,-7.263389654309792]]}},
{"type":"Feature","properties":{"id_link":"L_A_0044","node_in":"N_A_0071","node_out":"N_A_0072","classe":"COLETOR","origem":"ColetorA7_F005","comp_m":218.91392006090865,"cota_in":46.520084381103516,"cota_out":39.0726318359375,"decl_pct":3.4020004498087211,"diam_m":0.6,"obs":"DECLIVE_MDE"},"geometry":{"type":"LineString","coordinates":[[-34.920390257861648,-7.265273615380733],[-34.920031496377831,-7.263327144043281]]}},
{"type":"Feature","properties":{"id_link":"L_A_0045","node_in":"N_A_0073","node_out":"N_A_0074","classe":"COLETOR","origem":"ColetorA7_F006","comp_m":234.20151583401088,"cota_in":46.272987365722656,"cota_out":30.917213439941406,"decl_pct":6.5566501015580858,"diam_m":0.6,"obs":"DECLIVE_MDE"},"geometry":{"type":"LineString","coordinates":[[-34.920458856802398,-7.265293896793314],[-34.921923389776957,-7.265293823288439],[-34.921889603084708,-7.26463972729961]]}},
{"type":"Feature","properties":{"id_link":"L_A_0046","node_in":"N_A_0075","node_out":"N_A_0074","classe":"COLETOR","origem":"ColetorA7_F006","comp_m":70.001954594583054,"cota_in":31.917379379272461,"cota_out":30.917213439941406,"decl_pct":1.428768589567998,"diam_m":0.6,"obs":"DECLIVE_MDE"},"geometry":{"type":"LineString","coordinates":[[-34.92186608244549,-7.264007288121345],[-34.921889603084708,-7.26463972729961]]}},
{"type":"Feature","properties":{"id_link":"L_A_0047","node_in":"N_A_0075","node_out":"N_A_0076","classe":"COLETOR","origem":"ColetorA7_F006","comp_m":72.295853451080362,"cota_in":31.917379379272461,"cota_out":30.389497756958008,"decl_pct":2.1133737958405985,"diam_m":0.6,"obs":"DECLIVE_MDE"},"geometry":{"type":"LineString","coordinates":[[-34.92186608244549,-7.264007288121345],[-34.921841791369857,-7.263354124463449],[-34.921841791369843,-7.263354124463413]]}},
{"type":"Feature","properties":{"id_link":"L_A_0048","node_in":"N_A_0076","node_out":"N_A_0077","classe":"COLETOR","origem":"ColetorA7_F006","comp_m":75.795599453147133,"cota_in":30.389497756958008,"cota_out":29.454181671142578,"decl_pct":1.2339978739710253,"diam_m":0.6,"obs":"DECLIVE_MDE"},"geometry":{"type":"LineString","coordinates":[[-34.921841791369843,-7.263354124463413],[-34.921819007359822,-7.262862984042241],[-34.921753559331563,-7.262680761627062]]}},
{"type":"Feature","properties":{"id_link":"L_A_0049","node_in":"N_A_0078","node_out":"N_A_0071","classe":"COLETOR","origem":"ColetorA7_F007","comp_m":66.492187249506699,"cota_in":49.632591247558594,"cota_out":46.520084381103516,"decl_pct":4.6810114017991937,"diam_m":0.6,"obs":"DECLIVE_MDE"},"geometry":{"type":"LineString","coordinates":[[-34.919788260033258,-7.265278492227607],[-34.920390257861648,-7.265273615380733]]}},
{"type":"Feature","properties":{"id_link":"L_A_0050","node_in":"N_A_0079","node_out":"N_A_0069","classe":"COLETOR","origem":"ColetorA7_F008","comp_m":68.615550607260175,"cota_in":54.403026580810547,"cota_out":49.974773406982422,"decl_pct":6.4537165914100729,"diam_m":0.6,"obs":"DECLIVE_MDE"},"geometry":{"type":"LineString","coordinates":[[-34.91909833655108,-7.265277584706411],[-34.91971956507669,-7.265281780715664]]}},
{"type":"Feature","properties":{"id_link":"L_A_0051","node_in":"N_A_0080","node_out":"N_A_0067","classe":"COLETOR","origem":"ColetorA7_F009","comp_m":58.384830794666847,"cota_in":55.375591278076172,"cota_out":54.542720794677734,"decl_pct":1.4265186214678829,"diam_m":0.6,"obs":"DECLIVE_MDE"},"geometry":{"type":"LineString","coordinates":[[-34.918495523350892,-7.265301185312748],[-34.919023129244557,-7.26526859562869]]}},
{"type":"Feature","properties":{"id_link":"L_A_0052","node_in":"N_A_0063","node_out":"N_A_0081","classe":"COLETOR","origem":"ColetorA7_F010","comp_m":66.124910371392474,"cota_in":55.438350677490234,"cota_out":54.652225494384766,"decl_pct":1.1888487692311021,"diam_m":0.6,"obs":"DECLIVE_MDE"},"geometry":{"type":"LineString","coordinates":[[-34.918410159417668,-7.265282916822579],[-34.917813394808775,-7.265330861522243]]}},
{"type":"Feature","properties":{"id_link":"L_A_0053","node_in":"N_A_0060","node_out":"N_A_0082","classe":"COLETOR","origem":"ColetorA7_F011","comp_m":64.08993085694101,"cota_in":54.140972137451172,"cota_out":50.984340667724609,"decl_pct":4.9253157672656398,"diam_m":0.6,"obs":"DECLIVE_MDE"},"geometry":{"type":"LineString","coordinates":[[-34.917752211270901,-7.265328817668504],[-34.917172856103385,-7.265361317757256]]}},
{"type":"Feature","properties":{"id_link":"L_A_0054","node_in":"N_A_0083","node_out":"N_A_0084","classe":"COLETOR","origem":"ColetorA7_F012","comp_m":202.89486071492863,"cota_in":52.860866546630859,"cota_out":51.343353271484375,"decl_pct":0.74793085926341973,"diam_m":0.6,"obs":"DECLIVE_MDE"},"geometry":{"type":"LineString","coordinates":[[-34.916490714003714,-7.265431049881349],[-34.917097658098207,-7.265383280112111],[-34.916908507661873,-7.264205637786259],[-34.916908484378936,-7.264171932497844]]}},
{"type":"Feature","properties":{"id_link":"L_A_0055","node_in":"N_A_0085","node_out":"N_A_0084","classe":"COLETOR","origem":"ColetorA7_F012","comp_m":69.690667099223845,"cota_in":53.278118133544922,"cota_out":51.343353271484375,"decl_pct":2.7762180254436029,"diam_m":0.6,"obs":"DECLIVE_MDE"},"geometry":{"type":"LineString","coordinates":[[-34.916807767056675,-7.263549948300236],[-34.916908484378936,-7.264171932497844]]}},
{"type":"Feature","properties":{"id_link":"L_A_0056","node_in":"N_A_0087","node_out":"N_A_0086","classe":"COLETOR","origem":"ColetorA7_F013","comp_m":262.89785392353321,"cota_in":56.732429504394531,"cota_out":55.689315795898438,"decl_pct":0.3967752847459512,"diam_m":0.6,"obs":"DECLIVE_MDE"},"geometry":{"type":"LineString","coordinates":[[-34.916250021148279,-7.26423762102077],[-34.916652820124852,-7.266580161429696]]}},
{"type":"Feature","properties":{"id_link":"L_A_0057","node_in":"N_A_0087","node_out":"N_A_0088","classe":"COLETOR","origem":"ColetorA7_F013","comp_m":70.315161009905083,"cota_in":56.732429504394531,"cota_out":56.701618194580078,"decl_pct":0.04381887116793038,"diam_m":0.6,"obs":"DECLIVE_MDE"},"geometry":{"type":"LineString","coordinates":[[-34.916250021148279,-7.26423762102077],[-34.916151225200679,-7.263609613562193]]}},
{"type":"Feature","properties":{"id_link":"L_A_0058","node_in":"N_A_0089","node_out":"N_A_0090","classe":"COLETOR","origem":"ColetorA7_F014","comp_m":339.5456691976035,"cota_in":60.392959594726562,"cota_out":58.61834716796875,"decl_pct":0.52264322232455018,"diam_m":0.6,"obs":"DECLIVE_MDE"},"geometry":{"type":"LineString","coordinates":[[-34.915971283520506,-7.26665377034468],[-34.915855288321389,-7.265758421811616],[-34.915749309077562,-7.265170416569497],[-34.915508835725205,-7.26380782959467],[-34.91550106663481,-7.263622054282552]]}},
{"type":"Feature","properties":{"id_link":"L_A_0059","node_in":"N_A_0091","node_out":"N_A_0087","classe":"COLETOR","origem":"ColetorA7_F015","comp_m":63.535120824290871,"cota_in":59.308200836181641,"cota_out":56.732429504394531,"decl_pct":4.0540905539638725,"diam_m":0.6,"obs":"DECLIVE_MDE"},"geometry":{"type":"LineString","coordinates":[[-34.915676557212954,-7.264282781810548],[-34.916250021148279,-7.26423762102077]]}},
{"type":"Feature","properties":{"id_link":"L_A_0060","node_in":"N_A_0092","node_out":"N_A_0084","classe":"COLETOR","origem":"ColetorA7_F016","comp_m":67.95709806891341,"cota_in":56.379844665527344,"cota_out":51.343353271484375,"decl_pct":7.4112808480073751,"diam_m":0.6,"obs":"DECLIVE_MDE"},"geometry":{"type":"LineString","coordinates":[[-34.916297315521334,-7.264242843284352],[-34.916908484378936,-7.264171932497844]]}},
{"type":"Feature","properties":{"id_link":"L_A_0061","node_in":"N_A_0084","node_out":"N_A_0093","classe":"COLETOR","origem":"ColetorA7_F017","comp_m":75.244289318594042,"cota_in":51.343353271484375,"cota_out":47.357082366943359,"decl_pct":5.2977720178373007,"diam_m":0.6,"obs":"DECLIVE_MDE"},"geometry":{"type":"LineString","coordinates":[[-34.916908484378936,-7.264171932497844],[-34.917585168925953,-7.264093238013415]]}},
{"type":"Feature","properties":{"id_link":"L_A_0062","node_in":"N_A_0094","node_out":"N_A_0095","classe":"COLETOR","origem":"ColetorA7_F018","comp_m":325.85453458095975,"cota_in":64.650238037109375,"cota_out":63.461761474609375,"decl_pct":0.36472610823978535,"diam_m":0.6,"obs":"DECLIVE_MDE"},"geometry":{"type":"LineString","coordinates":[[-34.91533750839325,-7.266656447725427],[-34.915165912315665,-7.26566106524279],[-34.915030264027969,-7.264855026617306],[-34.914867423878896,-7.263906773444286],[-34.914841744523521,-7.263752340755221]]}},
{"type":"Feature","properties":{"id_link":"L_A_0063","node_in":"N_A_0096","node_out":"N_A_0097","classe":"COLETOR","origem":"ColetorA7_F019","comp_m":313.33746852887697,"cota_in":70.337326049804688,"cota_out":70.120803833007812,"decl_pct":0.069101923179966093,"diam_m":0.6,"obs":"DECLIVE_MDE"},"geometry":{"type":"LineString","coordinates":[[-34.914670246743768,-7.2666738146371],[-34.914549974422052,-7.265878236016182],[-34.9144910398064,-7.265537851654743],[-34.914390521154701,-7.264926475801976],[-34.914206150030012,-7.263879282931044]]}},
{"type":"Feature","properties":{"id_link":"L_A_0064","node_in":"N_A_0097","node_out":"N_A_0098","classe":"COLETOR","origem":"ColetorA7_F019","comp_m":2.3285857358383444,"cota_in":70.120803833007812,"cota_out":70.120803833007812,"decl_pct":0.0,"diam_m":0.6,"obs":"DIRECAO_ORIGINAL_COTA_IGUAL"},"geometry":{"type":"LineString","coordinates":[[-34.914206150030012,-7.263879282931044],[-34.914202499495417,-7.263858548502048]]}},
{"type":"Feature","properties":{"id_link":"L_A_0065","node_in":"N_A_0100","node_out":"N_A_0099","classe":"COLETOR","origem":"ColetorA7_F020","comp_m":276.18161174113771,"cota_in":82.656761169433594,"cota_out":79.110260009765625,"decl_pct":1.2841192204324121,"diam_m":0.6,"obs":"DECLIVE_MDE"},"geometry":{"type":"LineString","coordinates":[[-34.913158143050396,-7.264443061002408],[-34.913337232758245,-7.264848951323117],[-34.913691325419265,-7.265648328527164],[-34.913886008614554,-7.26598450554169],[-34.914005651079542,-7.266447203171041],[-34.91407654662806,-7.266752181436286]]}},
{"type":"Feature","properties":{"id_link":"L_A_0066","node_in":"N_A_0102","node_out":"N_A_0101","classe":"COLETOR","origem":"ColetorA7_F021","comp_m":184.64794944994986,"cota_in":77.195121765136719,"cota_out":76.513107299804688,"decl_pct":0.36935934970504297,"diam_m":0.6,"obs":"DECLIVE_MDE"},"geometry":{"type":"LineString","coordinates":[[-34.913601989190305,-7.264263115591629],[-34.91371365180791,-7.26467429601945],[-34.91380809175228,-7.265389490331738],[-34.913902254326523,-7.265902913396798]]}},
{"type":"Feature","properties":{"id_link":"L_A_0067","node_in":"N_A_0103","node_out":"N_A_0076","classe":"COLETOR","origem":"ColetorA8_F001","comp_m":186.71695960915923,"cota_in":38.669918060302734,"cota_out":30.389497756958008,"decl_pct":4.4347446106007276,"diam_m":0.6,"obs":"DECLIVE_MDE"},"geometry":{"type":"LineString","coordinates":[[-34.920151336032447,-7.263368881375809],[-34.921841791369843,-7.263354124463413]]}},
{"type":"Feature","properties":{"id_link":"L_A_0068","node_in":"N_A_0104","node_out":"N_A_0075","classe":"COLETOR","origem":"ColetorA8_F002","comp_m":184.19354274606889,"cota_in":42.338443756103516,"cota_out":31.917379379272461,"decl_pct":5.6576708507081825,"diam_m":0.6,"obs":"DECLIVE_MDE"},"geometry":{"type":"LineString","coordinates":[[-34.920198745739846,-7.264040854961884],[-34.92186608244549,-7.264007288121345]]}},
{"type":"Feature","properties":{"id_link":"L_A_0069","node_in":"N_A_0075","node_out":"N_A_0105","classe":"COLETOR","origem":"ColetorA8_F002","comp_m":2.2537884687925263,"cota_in":31.917379379272461,"cota_out":30.911811828613281,"decl_pct":44.616767038386499,"diam_m":0.6,"obs":"DECLIVE_MDE"},"geometry":{"type":"LineString","coordinates":[[-34.92186608244549,-7.264007288121345],[-34.921886483932234,-7.264006877360588]]}},
{"type":"Feature","properties":{"id_link":"L_A_0070","node_in":"N_A_0106","node_out":"N_A_0074","classe":"COLETOR","origem":"ColetorA8_F003","comp_m":171.51890924771456,"cota_in":45.611049652099609,"cota_out":30.917213439941406,"decl_pct":8.5668899578511013,"diam_m":0.6,"obs":"DECLIVE_MDE"},"geometry":{"type":"LineString","coordinates":[[-34.920337012455157,-7.264671778493274],[-34.921889603084708,-7.26463972729961]]}},
{"type":"Feature","properties":{"id_link":"L_A_0071","node_in":"N_A_0107","node_out":"N_A_0108","classe":"COLETOR","origem":"ColetorA8_F004","comp_m":69.408169209906447,"cota_in":46.785980224609375,"cota_out":45.454902648925781,"decl_pct":1.9177534731655372,"diam_m":0.6,"obs":"DECLIVE_MDE"},"geometry":{"type":"LineString","coordinates":[[-34.920364329572692,-7.26532804927456],[-34.920463741291563,-7.265947655126639]]}},
{"type":"Feature","properties":{"id_link":"L_A_0072","node_in":"N_A_0108","node_out":"N_A_0109","classe":"COLETOR","origem":"ColetorA8_F004","comp_m":163.884918904047,"cota_in":45.454902648925781,"cota_out":31.622295379638672,"decl_pct":8.4404394021062821,"diam_m":0.6,"obs":"DECLIVE_MDE"},"geometry":{"type":"LineString","coordinates":[[-34.920463741291563,-7.265947655126639],[-34.920463741291563,-7.265947655126653],[-34.921947550068289,-7.265948067019142]]}},
{"type":"Feature","properties":{"id_link":"L_A_0073","node_in":"N_A_0110","node_out":"N_A_0108","classe":"COLETOR","origem":"ColetorA8_F005","comp_m":171.74867901754698,"cota_in":54.602622985839844,"cota_out":45.454902648925781,"decl_pct":5.3262245679219875,"diam_m":0.6,"obs":"DECLIVE_MDE"},"geometry":{"type":"LineString","coordinates":[[-34.919088575866489,-7.265694653354253],[-34.919137085830336,-7.265917109909111],[-34.920463741291563,-7.265947655126639]]}},
{"type":"Feature","properties":{"id_link":"L_A_0074","node_in":"N_A_0111","node_out":"N_A_0112","classe":"COLETOR","origem":"ColetorA8_F006","comp_m":65.016379057895833,"cota_in":54.234375,"cota_out":50.735774993896484,"decl_pct":5.3811055872368403,"diam_m":0.6,"obs":"DECLIVE_MDE"},"geometry":{"type":"LineString","coordinates":[[-34.919149763960519,-7.265978190852187],[-34.919232061620818,-7.266560220324258]]}},
{"type":"Feature","properties":{"id_link":"L_A_0075","node_in":"N_A_0113","node_out":"N_A_0114","classe":"COLETOR","origem":"ColetorA8_F007","comp_m":64.784697404800994,"cota_in":45.100105285644531,"cota_out":43.956615447998047,"decl_pct":1.7650616325356856,"diam_m":0.6,"obs":"DECLIVE_MDE"},"geometry":{"type":"LineString","coordinates":[[-34.920486006361216,-7.266000856351023],[-34.920568672535978,-7.266580717654489]]}},
{"type":"Feature","properties":{"id_link":"L_A_0076","node_in":"N_A_0115","node_out":"N_A_0109","classe":"COLETOR","origem":"ColetorA8_F008","comp_m":66.732119674579039,"cota_in":32.645336151123047,"cota_out":31.622295379638672,"decl_pct":1.5330560103189597,"diam_m":0.6,"obs":"DECLIVE_MDE"},"geometry":{"type":"LineString","coordinates":[[-34.921907141938966,-7.26534610472507],[-34.921947550068289,-7.265948067019142]]}},
{"type":"Feature","properties":{"id_link":"L_A_0077","node_in":"N_A_0116","node_out":"N_A_0109","classe":"COLETOR","origem":"ColetorA8_F008","comp_m":72.324119302288636,"cota_in":36.072437286376953,"cota_out":31.622295379638672,"decl_pct":6.1530537110839871,"diam_m":0.6,"obs":"DECLIVE_MDE"},"geometry":{"type":"LineString","coordinates":[[-34.921962657744466,-7.266601762296536],[-34.921947550068289,-7.265948067019142]]}},
{"type":"Feature","properties":{"id_link":"L_A_0078","node_in":"N_A_0117","node_out":"N_A_0118","classe":"COLETOR","origem":"ColetorA8_F009","comp_m":213.50739170942094,"cota_in":44.748062133789062,"cota_out":33.01202392578125,"decl_pct":5.4967830921658738,"diam_m":0.6,"obs":"DECLIVE_MDE"},"geometry":{"type":"LineString","coordinates":[[-34.920580279885968,-7.266634273021154],[-34.92069458148282,-7.267279575418212],[-34.921971270776766,-7.267261201082722]]}},
{"type":"Feature","properties":{"id_link":"L_A_0079","node_in":"N_A_0119","node_out":"N_A_0120","classe":"COLETOR","origem":"ColetorA8_F010","comp_m":63.362494545413121,"cota_in":40.287742614746094,"cota_out":37.494678497314453,"decl_pct":4.4080715847287202,"diam_m":0.6,"obs":"DECLIVE_MDE"},"geometry":{"type":"LineString","coordinates":[[-34.920691934491394,-7.267333169182066],[-34.920772534846421,-7.267900336496054]]}},
{"type":"Feature","properties":{"id_link":"L_A_0080","node_in":"N_A_0120","node_out":"N_A_0121","classe":"COLETOR","origem":"ColetorA8_F010","comp_m":2.1930451203399439,"cota_in":37.494678497314453,"cota_out":37.494678497314453,"decl_pct":0.0,"diam_m":0.6,"obs":"DIRECAO_ORIGINAL_COTA_IGUAL"},"geometry":{"type":"LineString","coordinates":[[-34.920772534846421,-7.267900336496054],[-34.920775324519617,-7.267919966774623]]}},
{"type":"Feature","properties":{"id_link":"L_A_0081","node_in":"N_A_0122","node_out":"N_A_0123","classe":"COLETOR","origem":"ColetorA8_F011","comp_m":147.5584743293287,"cota_in":47.393653869628906,"cota_out":39.380046844482422,"decl_pct":5.4308009496366152,"diam_m":0.6,"obs":"DECLIVE_MDE"},"geometry":{"type":"LineString","coordinates":[[-34.919903030416762,-7.266589224724123],[-34.920141461093351,-7.267901858787499]]}},
{"type":"Feature","properties":{"id_link":"L_A_0082","node_in":"N_A_0124","node_out":"N_A_0125","classe":"COLETOR","origem":"ColetorA8_F012","comp_m":145.58230691205034,"cota_in":50.390205383300781,"cota_out":42.040752410888672,"decl_pct":5.7352113381856276,"diam_m":0.6,"obs":"DECLIVE_MDE"},"geometry":{"type":"LineString","coordinates":[[-34.919264913160305,-7.266603407943607],[-34.9194624160967,-7.267904734109243]]}},
{"type":"Feature","properties":{"id_link":"L_A_0083","node_in":"N_A_0126","node_out":"N_A_0127","classe":"COLETOR","origem":"ColetorA8_F013","comp_m":148.64194906498153,"cota_in":51.374828338623047,"cota_out":45.812713623046875,"decl_pct":3.7419549128386311,"diam_m":0.6,"obs":"DECLIVE_MDE"},"geometry":{"type":"LineString","coordinates":[[-34.918607968465842,-7.266640633911344],[-34.918829509640666,-7.267966148301547]]}},
{"type":"Feature","properties":{"id_link":"L_A_0084","node_in":"N_A_0128","node_out":"N_A_0129","classe":"COLETOR","origem":"ColetorA8_F014","comp_m":150.75640723849509,"cota_in":53.586463928222656,"cota_out":49.535263061523438,"decl_pct":2.6872495444192035,"diam_m":0.6,"obs":"DECLIVE_MDE"},"geometry":{"type":"LineString","coordinates":[[-34.91795550184645,-7.266660617022806],[-34.918167379078099,-7.268007060801364]]}},
{"type":"Feature","properties":{"id_link":"L_A_0085","node_in":"N_A_0130","node_out":"N_A_0131","classe":"COLETOR","origem":"ColetorA8_F015","comp_m":146.70019034838558,"cota_in":53.165458679199219,"cota_out":51.665386199951172,"decl_pct":1.0225429671806523,"diam_m":0.6,"obs":"DECLIVE_MDE"},"geometry":{"type":"LineString","coordinates":[[-34.917330498051889,-7.266716842749648],[-34.917557367893266,-7.26802364567326]]}},
{"type":"Feature","properties":{"id_link":"L_A_0086","node_in":"N_A_0132","node_out":"N_A_0131","classe":"COLETOR","origem":"ColetorA8_F015","comp_m":2.7778850103784092,"cota_in":51.704093933105469,"cota_out":51.665386199951172,"decl_pct":1.3934246021588932,"diam_m":0.6,"obs":"DECLIVE_MDE"},"geometry":{"type":"LineString","coordinates":[[-34.917561663876441,-7.268048391022923],[-34.917557367893266,-7.26802364567326]]}},
{"type":"Feature","properties":{"id_link":"L_A_0087","node_in":"N_A_0133","node_out":"N_A_0134","classe":"COLETOR","origem":"ColetorA8_F016","comp_m":144.47449399160928,"cota_in":55.444015502929688,"cota_out":54.984043121337891,"decl_pct":0.31837618453158312,"diam_m":0.6,"obs":"DECLIVE_MDE"},"geometry":{"type":"LineString","coordinates":[[-34.91668100275745,-7.266759775506704],[-34.916875527663912,-7.268051423541178]]}},
{"type":"Feature","properties":{"id_link":"L_A_0088","node_in":"N_A_0134","node_out":"N_A_0135","classe":"COLETOR","origem":"ColetorA8_F016","comp_m":3.0459747129136092,"cota_in":54.984043121337891,"cota_out":53.671772003173828,"decl_pct":43.082140918655796,"diam_m":0.6,"obs":"DECLIVE_MDE"},"geometry":{"type":"LineString","coordinates":[[-34.916875527663912,-7.268051423541178],[-34.916881423452054,-7.268078325076945]]}},
{"type":"Feature","properties":{"id_link":"L_A_0089","node_in":"N_A_0136","node_out":"N_A_0135","classe":"COLETOR","origem":"ColetorA8_F016","comp_m":5.2432671474634018,"cota_in":55.702465057373047,"cota_out":53.671772003173828,"decl_pct":38.729536319384977,"diam_m":0.6,"obs":"DECLIVE_MDE"},"geometry":{"type":"LineString","coordinates":[[-34.916890396773695,-7.268124874107394],[-34.916881423452054,-7.268078325076945]]}},
{"type":"Feature","properties":{"id_link":"L_A_0090","node_in":"N_A_0137","node_out":"N_A_0138","classe":"COLETOR","origem":"ColetorA8_F017","comp_m":153.42034742871758,"cota_in":60.202003479003906,"cota_out":58.254493713378906,"decl_pct":1.2693947043301119,"diam_m":0.6,"obs":"DECLIVE_MDE"},"geometry":{"type":"LineString","coordinates":[[-34.916048549804273,-7.26675754765481],[-34.916246079489198,-7.268130502148892]]}},
{"type":"Feature","properties":{"id_link":"L_A_0091","node_in":"N_A_0138","node_out":"N_A_0139","classe":"COLETOR","origem":"ColetorA8_F017","comp_m":2.469575675747997,"cota_in":58.254493713378906,"cota_out":58.254493713378906,"decl_pct":0.0,"diam_m":0.6,"obs":"DIRECAO_ORIGINAL_COTA_IGUAL"},"geometry":{"type":"LineString","coordinates":[[-34.916246079489198,-7.268130502148892],[-34.916249259102358,-7.268152602310177]]}},
{"type":"Feature","properties":{"id_link":"L_A_0092","node_in":"N_A_0141","node_out":"N_A_0140","classe":"COLETOR","origem":"ColetorA8_F018","comp_m":156.99656466527571,"cota_in":70.903800964355469,"cota_out":65.1036376953125,"decl_pct":3.6944523476734652,"diam_m":0.6,"obs":"DECLIVE_MDE"},"geometry":{"type":"LineString","coordinates":[[-34.91560178912097,-7.268175975443592],[-34.915383274572363,-7.266773464114346]]}},
{"type":"Feature","properties":{"id_link":"L_A_0093","node_in":"N_A_0143","node_out":"N_A_0142","classe":"COLETOR","origem":"ColetorA8_F019","comp_m":157.46900508565847,"cota_in":84.388076782226562,"cota_out":70.572288513183594,"decl_pct":8.7736556546652391,"diam_m":0.6,"obs":"DECLIVE_MDE"},"geometry":{"type":"LineString","coordinates":[[-34.914937123406439,-7.268199280998443],[-34.914704307306529,-7.266794735872242]]}},
{"type":"Feature","properties":{"id_link":"L_A_0094","node_in":"N_A_0144","node_out":"N_A_0145","classe":"COLETOR","origem":"ColetorA8_F020","comp_m":83.978028522852313,"cota_in":55.242034912109375,"cota_out":53.805240631103516,"decl_pct":1.7109168984776479,"diam_m":0.6,"obs":"DECLIVE_MDE"},"geometry":{"type":"LineString","coordinates":[[-34.917816567354386,-7.265871817510322],[-34.917958877976368,-7.266617632311712]]}},
{"type":"Feature","properties":{"id_link":"L_A_0095","node_in":"N_A_0146","node_out":"N_A_0147","classe":"COLETOR","origem":"ColetorA8_F021","comp_m":97.300724169535187,"cota_in":55.388656616210938,"cota_out":51.713390350341797,"decl_pct":3.7772239592640817,"diam_m":0.6,"obs":"DECLIVE_MDE"},"geometry":{"type":"LineString","coordinates":[[-34.918477120927683,-7.265725498785262],[-34.918605350105587,-7.266595810221857]]}},
{"type":"Feature","properties":{"id_link":"L_A_0096","node_in":"N_A_0149","node_out":"N_A_0148","classe":"COLETOR","origem":"ColetorA8_F022","comp_m":93.503568226361949,"cota_in":21.870588302612305,"cota_out":18.441564559936523,"decl_pct":3.6672651190962982,"diam_m":0.6,"obs":"DECLIVE_MDE"},"geometry":{"type":"LineString","coordinates":[[-34.922043050335297,-7.269331631375687],[-34.922006730258673,-7.270176201804994]]}},
{"type":"Feature","properties":{"id_link":"L_A_0097","node_in":"N_A_0150","node_out":"N_A_0149","classe":"COLETOR","origem":"ColetorA8_F022","comp_m":69.125631432962876,"cota_in":30.225093841552734,"cota_out":21.870588302612305,"decl_pct":12.085973561113173,"diam_m":0.6,"obs":"DECLIVE_MDE"},"geometry":{"type":"LineString","coordinates":[[-34.922016651418524,-7.268707437563024],[-34.922044963407004,-7.269249928236889],[-34.922043050335297,-7.269331631375687]]}},
{"type":"Feature","properties":{"id_link":"L_A_0098","node_in":"N_A_0150","node_out":"N_A_0151","classe":"COLETOR","origem":"ColetorA8_F022","comp_m":90.052923049683244,"cota_in":30.225093841552734,"cota_out":27.665307998657227,"decl_pct":2.8425349852144657,"diam_m":0.6,"obs":"DECLIVE_MDE"},"geometry":{"type":"LineString","coordinates":[[-34.922016651418524,-7.268707437563024],[-34.921978614146383,-7.267894171854705]]}},
{"type":"Feature","properties":{"id_link":"L_A_0099","node_in":"N_A_0152","node_out":"N_A_0150","classe":"COLETOR","origem":"ColetorA8_F023","comp_m":114.13366127243947,"cota_in":38.036991119384766,"cota_out":30.225093841552734,"decl_pct":6.8445164999875603,"diam_m":0.6,"obs":"DECLIVE_MDE"},"geometry":{"type":"LineString","coordinates":[[-34.920985808183438,-7.268647824990772],[-34.921610744244191,-7.268664110522904],[-34.922016651418524,-7.268707437563024]]}},
{"type":"Feature","properties":{"id_link":"L_A_0100","node_in":"N_A_0153","node_out":"N_A_0149","classe":"COLETOR","origem":"ColetorA8_F024","comp_m":99.094267001578686,"cota_in":35.423969268798828,"cota_out":21.870588302612305,"decl_pct":13.677260427155288,"diam_m":0.6,"obs":"DECLIVE_MDE"},"geometry":{"type":"LineString","coordinates":[[-34.921148194298027,-7.269396388469024],[-34.922043050335297,-7.269331631375687]]}},
{"type":"Feature","properties":{"id_link":"L_A_0101","node_in":"N_A_0121","node_out":"N_A_0154","classe":"COLETOR","origem":"ColetorA8_F025","comp_m":254.24079878134899,"cota_in":37.494678497314453,"cota_out":31.364458084106445,"decl_pct":2.4111867342267486,"diam_m":0.6,"obs":"DECLIVE_MDE"},"geometry":{"type":"LineString","coordinates":[[-34.920775324519617,-7.267919966774623],[-34.920913929819811,-7.268577458570354],[-34.921302437562588,-7.270157166331506]]}},
{"type":"Feature","properties":{"id_link":"L_A_0102","node_in":"N_A_0123","node_out":"N_A_0155","classe":"COLETOR","origem":"ColetorA8_F026","comp_m":314.09939227525138,"cota_in":39.380046844482422,"cota_out":36.293277740478516,"decl_pct":0.98273641398799993,"diam_m":0.6,"obs":"DECLIVE_MDE"},"geometry":{"type":"LineString","coordinates":[[-34.920141461093351,-7.267901858787499],[-34.920465219514504,-7.269521230678883],[-34.920731752273362,-7.270679437180076]]}},
{"type":"Feature","properties":{"id_link":"L_A_0103","node_in":"N_A_0156","node_out":"N_A_0157","classe":"COLETOR","origem":"ColetorA8_F027","comp_m":20.417701926343785,"cota_in":43.239791870117188,"cota_out":43.190757751464844,"decl_pct":0.24015493432724597,"diam_m":0.6,"obs":"DECLIVE_MDE"},"geometry":{"type":"LineString","coordinates":[[-34.919951269578092,-7.270230698689515],[-34.919913300087636,-7.27005004132053]]}},
{"type":"Feature","properties":{"id_link":"L_A_0104","node_in":"N_A_0158","node_out":"N_A_0159","classe":"COLETOR","origem":"ColetorA8_F027","comp_m":234.9823844271132,"cota_in":42.988147735595703,"cota_out":42.040752410888672,"decl_pct":0.4031771687978995,"diam_m":0.6,"obs":"DECLIVE_MDE"},"geometry":{"type":"LineString","coordinates":[[-34.919903807722598,-7.270004876976331],[-34.919466829687842,-7.267925734153736]]}},
{"type":"Feature","properties":{"id_link":"L_A_0105","node_in":"N_A_0159","node_out":"N_A_0125","classe":"COLETOR","origem":"ColetorA8_F027","comp_m":2.3734004666464643,"cota_in":42.040752410888672,"cota_out":42.040752410888672,"decl_pct":0.0,"diam_m":0.6,"obs":"DIRECAO_ORIGINAL_COTA_IGUAL"},"geometry":{"type":"LineString","coordinates":[[-34.919466829687842,-7.267925734153736],[-34.9194624160967,-7.267904734109243]]}},
{"type":"Feature","properties":{"id_link":"L_A_0106","node_in":"N_A_0160","node_out":"N_A_0161","classe":"COLETOR","origem":"ColetorA8_F028","comp_m":25.288491507874536,"cota_in":47.120780944824219,"cota_out":46.579673767089844,"decl_pct":2.1397368742452691,"diam_m":0.6,"obs":"DECLIVE_MDE"},"geometry":{"type":"LineString","coordinates":[[-34.919310629315341,-7.270549843967684],[-34.919268782130473,-7.270325065960928]]}},
{"type":"Feature","properties":{"id_link":"L_A_0107","node_in":"N_A_0161","node_out":"N_A_0127","classe":"COLETOR","origem":"ColetorA8_F028","comp_m":265.39056756100257,"cota_in":46.579673767089844,"cota_out":45.812713623046875,"decl_pct":0.28899299289025243,"diam_m":0.6,"obs":"DECLIVE_MDE"},"geometry":{"type":"LineString","coordinates":[[-34.919268782130473,-7.270325065960928],[-34.918829509640666,-7.267966148301547]]}},
{"type":"Feature","properties":{"id_link":"L_A_0108","node_in":"N_A_0129","node_out":"N_A_0162","classe":"COLETOR","origem":"ColetorA8_F029","comp_m":312.22875723755129,"cota_in":49.535263061523438,"cota_out":49.256107330322266,"decl_pct":0.089407437569494388,"diam_m":0.6,"obs":"DECLIVE_MDE"},"geometry":{"type":"LineString","coordinates":[[-34.918167379078099,-7.268007060801364],[-34.918704585421608,-7.270778432937571]]}},
{"type":"Feature","properties":{"id_link":"L_A_0109","node_in":"N_A_0163","node_out":"N_A_0132","classe":"COLETOR","origem":"ColetorA8_F030","comp_m":246.04929866147179,"cota_in":54.474021911621094,"cota_out":51.704093933105469,"decl_pct":1.1257613793594448,"diam_m":0.6,"obs":"DECLIVE_MDE"},"geometry":{"type":"LineString","coordinates":[[-34.917947986062202,-7.270239180207499],[-34.917561663876441,-7.268048391022923]]}},
{"type":"Feature","properties":{"id_link":"L_A_0110","node_in":"N_A_0164","node_out":"N_A_0136","classe":"COLETOR","origem":"ColetorA8_F031","comp_m":234.55342982964899,"cota_in":56.054256439208984,"cota_out":55.702465057373047,"decl_pct":0.14998347374047605,"diam_m":0.6,"obs":"DECLIVE_MDE"},"geometry":{"type":"LineString","coordinates":[[-34.917220529108604,-7.270219655619486],[-34.916890396773695,-7.268124874107394]]}},
{"type":"Feature","properties":{"id_link":"L_A_0111","node_in":"N_A_0136","node_out":"N_A_0135","classe":"COLETOR","origem":"ColetorA8_F031","comp_m":5.2432671474634018,"cota_in":55.702465057373047,"cota_out":53.671772003173828,"decl_pct":38.729536319384977,"diam_m":0.6,"obs":"DECLIVE_MDE"},"geometry":{"type":"LineString","coordinates":[[-34.916890396773695,-7.268124874107394],[-34.916881423452054,-7.268078325076945]]}},
{"type":"Feature","properties":{"id_link":"L_A_0112","node_in":"N_A_0134","node_out":"N_A_0135","classe":"COLETOR","origem":"ColetorA8_F031","comp_m":3.0459747129136092,"cota_in":54.984043121337891,"cota_out":53.671772003173828,"decl_pct":43.082140918655796,"diam_m":0.6,"obs":"DECLIVE_MDE"},"geometry":{"type":"LineString","coordinates":[[-34.916875527663912,-7.268051423541178],[-34.916881423452054,-7.268078325076945]]}},
{"type":"Feature","properties":{"id_link":"L_A_0113","node_in":"N_A_0166","node_out":"N_A_0165","classe":"COLETOR","origem":"ColetorA8_F032","comp_m":10.112227718143426,"cota_in":62.236557006835938,"cota_out":62.057304382324219,"decl_pct":1.7726323962236581,"diam_m":0.6,"obs":"DECLIVE_MDE"},"geometry":{"type":"LineString","coordinates":[[-34.916475251915514,-7.269612544867337],[-34.91648923781964,-7.269702895016297]]}},
{"type":"Feature","properties":{"id_link":"L_A_0114","node_in":"N_A_0167","node_out":"N_A_0139","classe":"COLETOR","origem":"ColetorA8_F032","comp_m":158.34448518582582,"cota_in":62.374935150146484,"cota_out":58.254493713378906,"decl_pct":2.6022007851628159,"diam_m":0.6,"obs":"DECLIVE_MDE"},"geometry":{"type":"LineString","coordinates":[[-34.916468258967278,-7.269567369792023],[-34.916249259102358,-7.268152602310177]]}},
{"type":"Feature","properties":{"id_link":"L_A_0115","node_in":"N_A_0169","node_out":"N_A_0168","classe":"COLETOR","origem":"ColetorA8_F033","comp_m":5.0707125529363575,"cota_in":72.791282653808594,"cota_out":72.596511840820312,"decl_pct":3.8410935535182924,"diam_m":0.6,"obs":"DECLIVE_MDE"},"geometry":{"type":"LineString","coordinates":[[-34.91574169927749,-7.268982780479461],[-34.915749531298026,-7.269027952042073]]}},
{"type":"Feature","properties":{"id_link":"L_A_0116","node_in":"N_A_0170","node_out":"N_A_0141","classe":"COLETOR","origem":"ColetorA8_F033","comp_m":85.497241676239454,"cota_in":73.232978820800781,"cota_out":70.903800964355469,"decl_pct":2.724272515440243,"diam_m":0.6,"obs":"DECLIVE_MDE"},"geometry":{"type":"LineString","coordinates":[[-34.915733867259661,-7.268937608916217],[-34.91560178912097,-7.268175975443592]]}},
{"type":"Feature","properties":{"id_link":"L_A_0117","node_in":"N_A_0171","node_out":"N_A_0143","classe":"COLETOR","origem":"ColetorA8_F034","comp_m":83.065885040592548,"cota_in":85.417755126953125,"cota_out":84.388076782226562,"decl_pct":1.2395923359191086,"diam_m":0.6,"obs":"DECLIVE_MDE"},"geometry":{"type":"LineString","coordinates":[[-34.915058251949091,-7.268940463542899],[-34.914937123406439,-7.268199280998443]]}},
{"type":"Feature","properties":{"id_link":"L_A_0118","node_in":"N_A_0173","node_out":"N_A_0172","classe":"COLETOR","origem":"ColetorA8_F035","comp_m":2.0309862851852114,"cota_in":95.080963134765625,"cota_out":94.993682861328125,"decl_pct":4.2974329306975436,"diam_m":0.6,"obs":"DECLIVE_MDE"},"geometry":{"type":"LineString","coordinates":[[-34.914463008646308,-7.26861044326747],[-34.914471915767635,-7.268626507270388]]}},
{"type":"Feature","properties":{"id_link":"L_A_0119","node_in":"N_A_0044","node_out":"N_A_0174","classe":"COLETOR","origem":"ColetorA8_F035","comp_m":46.324798006313344,"cota_in":96.908012390136719,"cota_out":95.080963134765625,"decl_pct":3.9439983205584528,"diam_m":0.6,"obs":"DECLIVE_MDE"},"geometry":{"type":"LineString","coordinates":[[-34.9142437469173,-7.268215003972741],[-34.914446909356606,-7.268581408176855]]}},
{"type":"Feature","properties":{"id_link":"L_A_0120","node_in":"N_A_0175","node_out":"N_A_0176","classe":"COLETOR","origem":"ColetorA9_F001","comp_m":133.75917986028881,"cota_in":53.734844207763672,"cota_out":47.805496215820312,"decl_pct":4.4328531306311474,"diam_m":0.6,"obs":"DECLIVE_MDE"},"geometry":{"type":"LineString","coordinates":[[-34.917055384054919,-7.261211828490485],[-34.917090540266287,-7.26242061511051]]}},
{"type":"Feature","properties":{"id_link":"L_A_0121","node_in":"N_A_0177","node_out":"N_A_0178","classe":"COLETOR","origem":"ColetorA9_F002","comp_m":131.19104874917156,"cota_in":55.130966186523438,"cota_out":50.836784362792969,"decl_pct":3.2732277580467053,"diam_m":0.6,"obs":"DECLIVE_MDE"},"geometry":{"type":"LineString","coordinates":[[-34.916384463503412,-7.261171604768867],[-34.916405783733005,-7.26235749235172]]}},
{"type":"Feature","properties":{"id_link":"L_A_0122","node_in":"N_A_0179","node_out":"N_A_0180","classe":"COLETOR","origem":"ColetorA9_F003","comp_m":27.098758130430696,"cota_in":57.794136047363281,"cota_out":57.549419403076172,"decl_pct":0.90305483044370027,"diam_m":0.6,"obs":"DECLIVE_MDE"},"geometry":{"type":"LineString","coordinates":[[-34.915766446240028,-7.261178998398489],[-34.91575249933782,-7.261423598160713]]}},
{"type":"Feature","properties":{"id_link":"L_A_0123","node_in":"N_A_0180","node_out":"N_A_0019","classe":"COLETOR","origem":"ColetorA9_F003","comp_m":95.857342429203868,"cota_in":57.549419403076172,"cota_out":54.322368621826172,"decl_pct":3.3665139252461138,"diam_m":0.6,"obs":"DECLIVE_MDE"},"geometry":{"type":"LineString","coordinates":[[-34.91575249933782,-7.261423598160713],[-34.915703164651177,-7.262288829079337]]}},
{"type":"Feature","properties":{"id_link":"L_A_0124","node_in":"N_A_0181","node_out":"N_A_0180","classe":"COLETOR","origem":"ColetorA9_F004","comp_m":58.23112006350005,"cota_in":61.401542663574219,"cota_out":57.549419403076172,"decl_pct":6.6152312651677851,"diam_m":0.6,"obs":"DECLIVE_MDE"},"geometry":{"type":"LineString","coordinates":[[-34.915225975575126,-7.261396567500518],[-34.91575249933782,-7.261423598160713]]}},
{"type":"Feature","properties":{"id_link":"L_A_0125","node_in":"N_A_0182","node_out":"N_A_0183","classe":"COLETOR","origem":"ColetorA9_F005","comp_m":120.58323790861429,"cota_in":62.731834411621094,"cota_out":59.161708831787109,"decl_pct":2.9607146413995404,"diam_m":0.6,"obs":"DECLIVE_MDE"},"geometry":{"type":"LineString","coordinates":[[-34.915085963618338,-7.261143597251423],[-34.915088337959453,-7.26223377053438]]}},
{"type":"Feature","properties":{"id_link":"L_A_0126","node_in":"N_A_0184","node_out":"N_A_0185","classe":"COLETOR","origem":"ColetorA9_F006","comp_m":91.333841258725414,"cota_in":78.703262329101562,"cota_out":74.71807861328125,"decl_pct":4.3633155694517507,"diam_m":0.6,"obs":"DECLIVE_MDE"},"geometry":{"type":"LineString","coordinates":[[-34.913771986055536,-7.26108120517299],[-34.913843436965337,-7.261662659663173],[-34.913786205299076,-7.261895675143288]]}},
{"type":"Feature","properties":{"id_link":"L_A_0127","node_in":"N_A_0186","node_out":"N_A_0187","classe":"COLETOR","origem":"ColetorA9_F007","comp_m":16.804162926559659,"cota_in":97.1483154296875,"cota_out":96.6446533203125,"decl_pct":2.9972460489474408,"diam_m":0.6,"obs":"DECLIVE_MDE"},"geometry":{"type":"LineString","coordinates":[[-34.911420244215158,-7.260977174104602],[-34.911427601845013,-7.26112892071673]]}},
{"type":"Feature","properties":{"id_link":"L_A_0128","node_in":"N_A_0188","node_out":"N_A_0009","classe":"COLETOR","origem":"ColetorA9_F009","comp_m":45.813040828093129,"cota_in":90.766799926757812,"cota_out":89.016212463378906,"decl_pct":3.8211553560649572,"diam_m":0.6,"obs":"DECLIVE_MDE"},"geometry":{"type":"LineString","coordinates":[[-34.912110709055675,-7.261031754694825],[-34.912064510669452,-7.261443367529826]]}},
{"type":"Feature","properties":{"id_link":"L_A_0129","node_in":"N_A_0009","node_out":"N_A_0008","classe":"COLETOR","origem":"ColetorA9_F009","comp_m":2.9276673597575562,"cota_in":89.016212463378906,"cota_out":88.823944091796875,"decl_pct":6.5672888329073436,"diam_m":0.6,"obs":"DECLIVE_MDE"},"geometry":{"type":"LineString","coordinates":[[-34.912064510669452,-7.261443367529826],[-34.912064491286309,-7.261469836192386]]}},
{"type":"Feature","properties":{"id_link":"L_A_0130","node_in":"N_A_0189","node_out":"N_A_0190","classe":"COLETOR","origem":"ColetorA9_F010","comp_m":62.826487082442604,"cota_in":47.504230499267578,"cota_out":44.277423858642578,"decl_pct":5.1360609043614005,"diam_m":0.6,"obs":"DECLIVE_MDE"},"geometry":{"type":"LineString","coordinates":[[-34.917150041302506,-7.262406991946381],[-34.917718781687185,-7.262397149352467]]}},
{"type":"Feature","properties":{"id_link":"L_A_0131","node_in":"N_A_0052","node_out":"N_A_0050","classe":"TRONCO","origem":"TroncoA1_F001","comp_m":80.640818022331118,"cota_in":118.15679931640625,"cota_out":115.53829956054688,"decl_pct":3.2471145755667536,"diam_m":0.8,"obs":"DECLIVE_MDE"},"geometry":{"type":"LineString","coordinates":[[-34.910407018979924,-7.266244796269857],[-34.911022984923846,-7.265853361638754]]}},
{"type":"Feature","properties":{"id_link":"L_A_0132","node_in":"N_A_0050","node_out":"N_A_0048","classe":"TRONCO","origem":"TroncoA1_F001","comp_m":70.232800554618649,"cota_in":115.53829956054688,"cota_out":111.69416809082031,"decl_pct":5.4734133330438075,"diam_m":0.8,"obs":"DECLIVE_MDE"},"geometry":{"type":"LineString","coordinates":[[-34.911022984923846,-7.265853361638754],[-34.911109411847747,-7.265794037268086],[-34.91146781853184,-7.265574368119897],[-34.911554003950997,-7.265505352535708]]}},
{"type":"Feature","properties":{"id_link":"L_A_0133","node_in":"N_A_0048","node_out":"N_A_0046","classe":"TRONCO","origem":"TroncoA1_F001","comp_m":70.690335630809457,"cota_in":111.69416809082031,"cota_out":102.44920349121094,"decl_pct":13.078116714415597,"diam_m":0.8,"obs":"DECLIVE_MDE"},"geometry":{"type":"LineString","coordinates":[[-34.911554003950997,-7.265505352535708],[-34.911777331894754,-7.265349163856102],[-34.912084049904458,-7.265147248516365]]}},
{"type":"Feature","properties":{"id_link":"L_A_0134","node_in":"N_A_0046","node_out":"N_A_0056","classe":"TRONCO","origem":"TroncoA1_F001","comp_m":71.051094573814936,"cota_in":102.44920349121094,"cota_out":89.775810241699219,"decl_pct":17.837013385269298,"diam_m":0.8,"obs":"DECLIVE_MDE"},"geometry":{"type":"LineString","coordinates":[[-34.912084049904458,-7.265147248516365],[-34.91213280251187,-7.265115154186928],[-34.912408013903196,-7.26493602238182],[-34.91261937663981,-7.264791113022377]]}},
{"type":"Feature","properties":{"id_link":"L_A_0135","node_in":"N_A_0056","node_out":"N_A_0100","classe":"TRONCO","origem":"TroncoA1_F001","comp_m":70.934569535905894,"cota_in":89.775810241699219,"cota_out":82.656761169433594,"decl_pct":10.036078485909583,"diam_m":0.8,"obs":"DECLIVE_MDE"},"geometry":{"type":"LineString","coordinates":[[-34.91261937663981,-7.264791113022377],[-34.912987974434323,-7.264538403603178],[-34.913158143050396,-7.264443061002408]]}},
{"type":"Feature","properties":{"id_link":"L_A_0136","node_in":"N_A_0100","node_out":"N_A_0102","classe":"TRONCO","origem":"TroncoA1_F001","comp_m":52.997526758292594,"cota_in":82.656761169433594,"cota_out":77.195121765136719,"decl_pct":10.305460911800541,"diam_m":0.8,"obs":"DECLIVE_MDE"},"geometry":{"type":"LineString","coordinates":[[-34.913158143050396,-7.264443061002408],[-34.913194461349825,-7.264422712460863],[-34.913512985358928,-7.264289325608168],[-34.913601989190305,-7.264263115591629]]}},
{"type":"Feature","properties":{"id_link":"L_A_0137","node_in":"N_A_0102","node_out":"N_A_0054","classe":"TRONCO","origem":"TroncoA1_F001","comp_m":29.981543102208445,"cota_in":77.195121765136719,"cota_out":76.958816528320312,"decl_pct":0.7881690278943646,"diam_m":0.8,"obs":"DECLIVE_MDE"},"geometry":{"type":"LineString","coordinates":[[-34.913601989190305,-7.264263115591629],[-34.913601989190312,-7.264263115591629],[-34.913626719168782,-7.263993183727224]]}},
{"type":"Feature","properties":{"id_link":"L_A_0138","node_in":"N_A_0054","node_out":"N_A_0097","classe":"TRONCO","origem":"TroncoA1_F001","comp_m":65.229776929322327,"cota_in":76.958816528320312,"cota_out":70.120803833007812,"decl_pct":10.48296194960411,"diam_m":0.8,"obs":"DECLIVE_MDE"},"geometry":{"type":"LineString","coordinates":[[-34.913626719168782,-7.263993183727224],[-34.914074782518348,-7.263902307691379],[-34.914206150030012,-7.263879282931044]]}},
{"type":"Feature","properties":{"id_link":"L_A_0139","node_in":"N_A_0097","node_out":"N_A_0095","classe":"TRONCO","origem":"TroncoA1_F001","comp_m":71.683809030896271,"cota_in":70.120803833007812,"cota_out":63.461761474609375,"decl_pct":9.2894650108901704,"diam_m":0.8,"obs":"DECLIVE_MDE"},"geometry":{"type":"LineString","coordinates":[[-34.914206150030012,-7.263879282931044],[-34.914393633794546,-7.263846422618141],[-34.914775665643063,-7.263775918144848],[-34.914841744523521,-7.263752340755221]]}},
{"type":"Feature","properties":{"id_link":"L_A_0140","node_in":"N_A_0095","node_out":"N_A_0058","classe":"TRONCO","origem":"TroncoA1_F001","comp_m":44.768014106196205,"cota_in":63.461761474609375,"cota_out":60.479644775390625,"decl_pct":6.6612664393482763,"diam_m":0.8,"obs":"DECLIVE_MDE"},"geometry":{"type":"LineString","coordinates":[[-34.914841744523521,-7.263752340755221],[-34.915223436570962,-7.263616150244539]]}},
{"type":"Feature","properties":{"id_link":"L_A_0141","node_in":"N_A_0058","node_out":"N_A_0090","classe":"TRONCO","origem":"TroncoA1_F001","comp_m":30.670917220378531,"cota_in":60.479644775390625,"cota_out":58.61834716796875,"decl_pct":6.0686075804253479,"diam_m":0.8,"obs":"DECLIVE_MDE"},"geometry":{"type":"LineString","coordinates":[[-34.915223436570962,-7.263616150244539],[-34.915223436570962,-7.263616150244539],[-34.91550106663481,-7.263622054282552]]}},
{"type":"Feature","properties":{"id_link":"L_A_0142","node_in":"N_A_0090","node_out":"N_A_0088","classe":"TRONCO","origem":"TroncoA1_F001","comp_m":71.844137497170408,"cota_in":58.61834716796875,"cota_out":56.701618194580078,"decl_pct":2.6678989269850479,"diam_m":0.8,"obs":"DECLIVE_MDE"},"geometry":{"type":"LineString","coordinates":[[-34.91550106663481,-7.263622054282552],[-34.915655153726476,-7.263625331000974],[-34.915928221333225,-7.263619393645737],[-34.916151225200679,-7.263609613562193]]}},
{"type":"Feature","properties":{"id_link":"L_A_0143","node_in":"N_A_0088","node_out":"N_A_0085","classe":"TRONCO","origem":"TroncoA1_F001","comp_m":72.831595031913537,"cota_in":56.701618194580078,"cota_out":53.278118133544922,"decl_pct":4.7005699374495888,"diam_m":0.8,"obs":"DECLIVE_MDE"},"geometry":{"type":"LineString","coordinates":[[-34.916151225200679,-7.263609613562193],[-34.916230004573308,-7.263606158578848],[-34.916701747060891,-7.263563500250745],[-34.916807767056675,-7.263549948300236]]}},
{"type":"Feature","properties":{"id_link":"L_A_0144","node_in":"N_A_0085","node_out":"N_A_0191","classe":"TRONCO","origem":"TroncoA1_F001","comp_m":72.194427945758576,"cota_in":53.278118133544922,"cota_out":46.413650512695312,"decl_pct":9.5083066881658098,"diam_m":0.8,"obs":"DECLIVE_MDE"},"geometry":{"type":"LineString","coordinates":[[-34.916807767056675,-7.263549948300236],[-34.917166231849073,-7.263504127542117],[-34.917453469359472,-7.263450287749166]]}},
{"type":"Feature","properties":{"id_link":"L_A_0145","node_in":"N_A_0192","node_out":"N_A_0028","classe":"TRONCO","origem":"TroncoA2_F001","comp_m":37.439146378786923,"cota_in":103.52889251708984,"cota_out":102.05509185791016,"decl_pct":3.9365231361544746,"diam_m":0.8,"obs":"DECLIVE_MDE"},"geometry":{"type":"LineString","coordinates":[[-34.913330989188758,-7.268550939410228],[-34.913649048732971,-7.268433879595959]]}},
{"type":"Feature","properties":{"id_link":"L_A_0146","node_in":"N_A_0028","node_out":"N_A_0044","classe":"TRONCO","origem":"TroncoA2_F001","comp_m":70.002659595246499,"cota_in":102.05509185791016,"cota_out":96.908012390136719,"decl_pct":7.3526913084927248,"diam_m":0.8,"obs":"DECLIVE_MDE"},"geometry":{"type":"LineString","coordinates":[[-34.913649048732971,-7.268433879595959],[-34.9142437469173,-7.268215003972741]]}},
{"type":"Feature","properties":{"id_link":"L_A_0147","node_in":"N_A_0044","node_out":"N_A_0143","classe":"TRONCO","origem":"TroncoA2_F001","comp_m":76.601675473318721,"cota_in":96.908012390136719,"cota_out":84.388076782226562,"decl_pct":16.344205959660766,"diam_m":0.8,"obs":"DECLIVE_MDE"},"geometry":{"type":"LineString","coordinates":[[-34.9142437469173,-7.268215003972741],[-34.914937123406439,-7.268199280998443]]}},
{"type":"Feature","properties":{"id_link":"L_A_0148","node_in":"N_A_0143","node_out":"N_A_0141","classe":"TRONCO","origem":"TroncoA2_F001","comp_m":73.480666203004048,"cota_in":84.388076782226562,"cota_out":70.903800964355469,"decl_pct":18.35078057215522,"diam_m":0.8,"obs":"DECLIVE_MDE"},"geometry":{"type":"LineString","coordinates":[[-34.914937123406439,-7.268199280998443],[-34.915344019698892,-7.268193379142982],[-34.91560178912097,-7.268175975443592]]}},
{"type":"Feature","properties":{"id_link":"L_A_0149","node_in":"N_A_0141","node_out":"N_A_0138","classe":"TRONCO","origem":"TroncoA2_F001","comp_m":71.339873698235152,"cota_in":70.903800964355469,"cota_out":58.254493713378906,"decl_pct":17.731048003368542,"diam_m":0.8,"obs":"DECLIVE_MDE"},"geometry":{"type":"LineString","coordinates":[[-34.91560178912097,-7.268175975443592],[-34.91606814496766,-7.268145114708735],[-34.916246079489198,-7.268130502148892]]}},
{"type":"Feature","properties":{"id_link":"L_A_0150","node_in":"N_A_0138","node_out":"N_A_0135","classe":"TRONCO","origem":"TroncoA2_F001","comp_m":70.409386093388392,"cota_in":58.254493713378906,"cota_out":53.671772003173828,"decl_pct":6.5086801128001968,"diam_m":0.8,"obs":"DECLIVE_MDE"},"geometry":{"type":"LineString","coordinates":[[-34.916246079489198,-7.268130502148892],[-34.916881423452054,-7.268078325076945]]}},
{"type":"Feature","properties":{"id_link":"L_A_0151","node_in":"N_A_0135","node_out":"N_A_0131","classe":"TRONCO","origem":"TroncoA2_F001","comp_m":74.903780146665753,"cota_in":53.671772003173828,"cota_out":51.665386199951172,"decl_pct":2.67861755347199,"diam_m":0.8,"obs":"DECLIVE_MDE"},"geometry":{"type":"LineString","coordinates":[[-34.916881423452054,-7.268078325076945],[-34.917542207164281,-7.268024057849967],[-34.917557367893266,-7.26802364567326]]}},
{"type":"Feature","properties":{"id_link":"L_A_0152","node_in":"N_A_0131","node_out":"N_A_0129","classe":"TRONCO","origem":"TroncoA2_F001","comp_m":67.399539113428176,"cota_in":51.665386199951172,"cota_out":49.535263061523438,"decl_pct":3.1604416980402532,"diam_m":0.8,"obs":"DECLIVE_MDE"},"geometry":{"type":"LineString","coordinates":[[-34.917557367893266,-7.26802364567326],[-34.918167379078099,-7.268007060801364]]}},
{"type":"Feature","properties":{"id_link":"L_A_0153","node_in":"N_A_0129","node_out":"N_A_0127","classe":"TRONCO","origem":"TroncoA2_F001","comp_m":73.279346938339074,"cota_in":49.535263061523438,"cota_out":45.812713623046875,"decl_pct":5.0799435229804963,"diam_m":0.8,"obs":"DECLIVE_MDE"},"geometry":{"type":"LineString","coordinates":[[-34.918167379078099,-7.268007060801364],[-34.918167379078106,-7.268007060801364],[-34.918584119594293,-7.267986160811128],[-34.918829509640666,-7.267966148301547]]}},
{"type":"Feature","properties":{"id_link":"L_A_0154","node_in":"N_A_0127","node_out":"N_A_0159","classe":"TRONCO","origem":"TroncoA2_F001","comp_m":70.532653523194142,"cota_in":45.812713623046875,"cota_out":42.040752410888672,"decl_pct":5.3478226378053693,"diam_m":0.8,"obs":"DECLIVE_MDE"},"geometry":{"type":"LineString","coordinates":[[-34.918829509640666,-7.267966148301547],[-34.919055180860013,-7.267951662580331],[-34.919466829687842,-7.267925734153736]]}},
{"type":"Feature","properties":{"id_link":"L_A_0155","node_in":"N_A_0159","node_out":"N_A_0123","classe":"TRONCO","origem":"TroncoA2_F001","comp_m":74.590697992734846,"cota_in":42.040752410888672,"cota_out":39.380046844482422,"decl_pct":3.5670742304427869,"diam_m":0.8,"obs":"DECLIVE_MDE"},"geometry":{"type":"LineString","coordinates":[[-34.919466829687842,-7.267925734153736],[-34.91982457346257,-7.267903200730687],[-34.920141461093351,-7.267901858787499]]}},
{"type":"Feature","properties":{"id_link":"L_A_0156","node_in":"N_A_0123","node_out":"N_A_0120","classe":"TRONCO","origem":"TroncoA2_F001","comp_m":69.701225353287086,"cota_in":39.380046844482422,"cota_out":37.494678497314453,"decl_pct":2.7049285541420618,"diam_m":0.8,"obs":"DECLIVE_MDE"},"geometry":{"type":"LineString","coordinates":[[-34.920141461093351,-7.267901858787499],[-34.920186730749982,-7.267901667063273],[-34.920772534846421,-7.267900336496054]]}},
{"type":"Feature","properties":{"id_link":"L_A_0157","node_in":"N_A_0120","node_out":"N_A_0151","classe":"TRONCO","origem":"TroncoA2_F001","comp_m":133.21291190140047,"cota_in":37.494678497314453,"cota_out":27.665307998657227,"decl_pct":7.3786920189332559,"diam_m":0.8,"obs":"DECLIVE_MDE"},"geometry":{"type":"LineString","coordinates":[[-34.920772534846421,-7.267900336496054],[-34.921671473154959,-7.267898293218692],[-34.921879647518388,-7.267895100996291],[-34.921978614146383,-7.267894171854705]]}},
{"type":"Feature","properties":{"id_link":"L_A_0158","node_in":"N_A_0151","node_out":"N_A_0193","classe":"TRONCO","origem":"TroncoA2_F001","comp_m":20.214522928489433,"cota_in":27.665307998657227,"cota_out":25.919466018676758,"decl_pct":8.6365727559167773,"diam_m":0.8,"obs":"DECLIVE_MDE"},"geometry":{"type":"LineString","coordinates":[[-34.921978614146383,-7.267894171854705],[-34.921997516009625,-7.267893994393363],[-34.92204366484652,-7.26789258582702],[-34.922086713005292,-7.267891925683269],[-34.922127046701924,-7.267891307162075],[-34.922161600192588,-7.267890777278128]]}},
{"type":"Feature","properties":{"id_link":"L_A_0159","node_in":"N_A_0194","node_out":"N_A_0004","classe":"TRONCO","origem":"TroncoA3_F001","comp_m":61.303648780516738,"cota_in":106.56615447998047,"cota_out":103.98895263671875,"decl_pct":4.2039942067539613,"diam_m":0.8,"obs":"DECLIVE_MDE"},"geometry":{"type":"LineString","coordinates":[[-34.910267242641943,-7.261304973788293],[-34.910776526582424,-7.261250310375224],[-34.910818463889292,-7.261241666452748]]}},
{"type":"Feature","properties":{"id_link":"L_A_0160","node_in":"N_A_0004","node_out":"N_A_0187","classe":"TRONCO","origem":"TroncoA3_F001","comp_m":68.442476707985833,"cota_in":103.98895263671875,"cota_out":96.6446533203125,"decl_pct":10.730615941531703,"diam_m":0.8,"obs":"DECLIVE_MDE"},"geometry":{"type":"LineString","coordinates":[[-34.910818463889292,-7.261241666452748],[-34.911155650773566,-7.261172166916472],[-34.911427601845013,-7.26112892071673]]}},
{"type":"Feature","properties":{"id_link":"L_A_0161","node_in":"N_A_0187","node_out":"N_A_0006","classe":"TRONCO","origem":"TroncoA3_F001","comp_m":33.220503806479101,"cota_in":96.6446533203125,"cota_out":96.21295166015625,"decl_pct":1.2995036519345435,"diam_m":0.8,"obs":"DECLIVE_MDE"},"geometry":{"type":"LineString","coordinates":[[-34.911427601845013,-7.26112892071673],[-34.91142760184502,-7.26112892071673],[-34.911422153733767,-7.261429213920206]]}},
{"type":"Feature","properties":{"id_link":"L_A_0162","node_in":"N_A_0006","node_out":"N_A_0008","classe":"TRONCO","origem":"TroncoA3_F001","comp_m":71.08787556764905,"cota_in":96.21295166015625,"cota_out":88.823944091796875,"decl_pct":10.394188192229496,"diam_m":0.8,"obs":"DECLIVE_MDE"},"geometry":{"type":"LineString","coordinates":[[-34.911422153733767,-7.261429213920206],[-34.911422153733767,-7.261429213920223],[-34.912064491286309,-7.261469836192386]]}},
{"type":"Feature","properties":{"id_link":"L_A_0163","node_in":"N_A_0008","node_out":"N_A_0011","classe":"TRONCO","origem":"TroncoA3_F001","comp_m":73.803606669984859,"cota_in":88.823944091796875,"cota_out":81.775154113769531,"decl_pct":9.5507391793821537,"diam_m":0.8,"obs":"DECLIVE_MDE"},"geometry":{"type":"LineString","coordinates":[[-34.912064491286309,-7.261469836192386],[-34.912101383246096,-7.261471557135802],[-34.912404686962468,-7.261501789261457],[-34.912718901786249,-7.261590268138717]]}},
{"type":"Feature","properties":{"id_link":"L_A_0164","node_in":"N_A_0011","node_out":"N_A_0013","classe":"TRONCO","origem":"TroncoA3_F001","comp_m":53.556521443799006,"cota_in":81.775154113769531,"cota_out":79.295501708984375,"decl_pct":4.6299728547292727,"diam_m":0.8,"obs":"DECLIVE_MDE"},"geometry":{"type":"LineString","coordinates":[[-34.912718901786249,-7.261590268138717],[-34.912755352452969,-7.261600532162974],[-34.913188225122255,-7.261711960527489]]}},
{"type":"Feature","properties":{"id_link":"L_A_0165","node_in":"N_A_0013","node_out":"N_A_0185","classe":"TRONCO","origem":"TroncoA3_F001","comp_m":69.126561019266944,"cota_in":79.295501708984375,"cota_out":74.71807861328125,"decl_pct":6.6218006916723455,"diam_m":0.8,"obs":"DECLIVE_MDE"},"geometry":{"type":"LineString","coordinates":[[-34.913188225122255,-7.261711960527489],[-34.913340502024688,-7.261751158924836],[-34.913786205299076,-7.261895675143288]]}},
{"type":"Feature","properties":{"id_link":"L_A_0166","node_in":"N_A_0185","node_out":"N_A_0016","classe":"TRONCO","origem":"TroncoA3_F001","comp_m":27.853330199404489,"cota_in":74.71807861328125,"cota_out":71.330734252929688,"decl_pct":12.161362164241261,"diam_m":0.8,"obs":"DECLIVE_MDE"},"geometry":{"type":"LineString","coordinates":[[-34.913786205299076,-7.261895675143288],[-34.913959458528694,-7.262078656732067]]}},
{"type":"Feature","properties":{"id_link":"L_A_0167","node_in":"N_A_0016","node_out":"N_A_0183","classe":"TRONCO","origem":"TroncoA3_F001","comp_m":125.8633307516084,"cota_in":71.330734252929688,"cota_out":59.161708831787109,"decl_pct":9.668443817968063,"diam_m":0.8,"obs":"DECLIVE_MDE"},"geometry":{"type":"LineString","coordinates":[[-34.913959458528694,-7.262078656732067],[-34.914928794584732,-7.262215221573917],[-34.915088337959453,-7.26223377053438]]}},
{"type":"Feature","properties":{"id_link":"L_A_0168","node_in":"N_A_0183","node_out":"N_A_0019","classe":"TRONCO","origem":"TroncoA3_F001","comp_m":68.220287687838578,"cota_in":59.161708831787109,"cota_out":54.322368621826172,"decl_pct":7.0936965732315898,"diam_m":0.8,"obs":"DECLIVE_MDE"},"geometry":{"type":"LineString","coordinates":[[-34.915088337959453,-7.26223377053438],[-34.915474384734011,-7.262278653169927],[-34.915703164651177,-7.262288829079337]]}},
{"type":"Feature","properties":{"id_link":"L_A_0169","node_in":"N_A_0019","node_out":"N_A_0178","classe":"TRONCO","origem":"TroncoA3_F001","comp_m":78.204944468238963,"cota_in":54.322368621826172,"cota_out":50.836784362792969,"decl_pct":4.4569870648636396,"diam_m":0.8,"obs":"DECLIVE_MDE"},"geometry":{"type":"LineString","coordinates":[[-34.915703164651177,-7.262288829079337],[-34.916181682356772,-7.262310112704887],[-34.916405783733005,-7.26235749235172]]}},
{"type":"Feature","properties":{"id_link":"L_A_0170","node_in":"N_A_0178","node_out":"N_A_0176","classe":"TRONCO","origem":"TroncoA3_F001","comp_m":77.162013762163653,"cota_in":50.836784362792969,"cota_out":47.805496215820312,"decl_pct":3.9284720540290601,"diam_m":0.8,"obs":"DECLIVE_MDE"},"geometry":{"type":"LineString","coordinates":[[-34.916405783733005,-7.26235749235172],[-34.916405783733019,-7.26235749235172],[-34.916584637057255,-7.262428971818126],[-34.917090540266287,-7.26242061511051]]}},
{"type":"Feature","properties":{"id_link":"L_A_0171","node_in":"N_A_0061","node_out":"N_A_0064","classe":"TRONCO","origem":"TroncoA4_F001","comp_m":61.240409445779804,"cota_in":47.143692016601562,"cota_out":45.684066772460938,"decl_pct":2.3834348224482858,"diam_m":0.8,"obs":"DECLIVE_MDE"},"geometry":{"type":"LineString","coordinates":[[-34.917670280190798,-7.264117098848712],[-34.917926416909587,-7.264072958477833],[-34.918103451109019,-7.2640171920492],[-34.918209609264508,-7.263992898804549]]}},
{"type":"Feature","properties":{"id_link":"L_A_0172","node_in":"N_A_0064","node_out":"N_A_0068","classe":"TRONCO","origem":"TroncoA4_F001","comp_m":65.651917622444188,"cota_in":45.684066772460938,"cota_out":45.462467193603516,"decl_pct":0.33753710003082138,"diam_m":0.8,"obs":"DECLIVE_MDE"},"geometry":{"type":"LineString","coordinates":[[-34.918209609264508,-7.263992898804549],[-34.918316448271369,-7.263968449727622],[-34.918603908954374,-7.263967234010978],[-34.918797792676258,-7.263930532727069]]}},
{"type":"Feature","properties":{"id_link":"L_A_0173","node_in":"N_A_0068","node_out":"N_A_0070","classe":"TRONCO","origem":"TroncoA4_F001","comp_m":112.06744541871379,"cota_in":45.462467193603516,"cota_out":40.939559936523438,"decl_pct":4.0358796795816065,"diam_m":0.8,"obs":"DECLIVE_MDE"},"geometry":{"type":"LineString","coordinates":[[-34.918797792676258,-7.263930532727069],[-34.918797792676266,-7.263930532727069],[-34.918767291195216,-7.263516831706462],[-34.919013693092388,-7.263436850796051],[-34.919346475009561,-7.263389993453814],[-34.919350522685264,-7.263389654309792]]}},
{"type":"Feature","properties":{"id_link":"L_A_0174","node_in":"N_A_0070","node_out":"N_A_0077","classe":"TRONCO","origem":"TroncoA4_F001","comp_m":339.92506894167451,"cota_in":40.939559936523438,"cota_out":29.454181671142578,"decl_pct":3.3787970687597508,"diam_m":0.8,"obs":"DECLIVE_MDE"},"geometry":{"type":"LineString","coordinates":[[-34.919350522685264,-7.263389654309792],[-34.919442661842787,-7.263325478747126],[-34.919747284257305,-7.263304096329122],[-34.92004914164329,-7.263308559873815],[-34.919963414790622,-7.262752046561625],[-34.920213407202276,-7.262728024618656],[-34.920874515396576,-7.262713744140159],[-34.921717558945723,-7.262669987208203],[-34.921753559331563,-7.262680761627062]]}},
{"type":"Feature","properties":{"id_link":"L_A_0175","node_in":"N_A_0077","node_out":"N_A_0195","classe":"TRONCO","origem":"TroncoA4_F001","comp_m":177.5085466580542,"cota_in":29.454181671142578,"cota_out":13.17209529876709,"decl_pct":9.1725647462714495,"diam_m":0.8,"obs":"DECLIVE_MDE"},"geometry":{"type":"LineString","coordinates":[[-34.921753559331563,-7.262680761627062],[-34.921827893939522,-7.262703008938317],[-34.922283393528673,-7.262784801949723],[-34.922556733968236,-7.262843445647888],[-34.923000002811712,-7.262978393770997],[-34.923195731381661,-7.263037844406092],[-34.923312441540055,-7.263061863229206]]}},
{"type":"Feature","properties":{"id_link":"L_A_0176","node_in":"N_A_0196","node_out":"N_A_0145","classe":"TRONCO","origem":"TroncoA5_F001","comp_m":429.74227402471388,"cota_in":79.553298950195312,"cota_out":53.805240631103516,"decl_pct":5.9915116281092375,"diam_m":0.8,"obs":"DECLIVE_MDE"},"geometry":{"type":"LineString","coordinates":[[-34.914073497804559,-7.266783966682083],[-34.914327342601936,-7.266763758416487],[-34.914679724793125,-7.266728745886411],[-34.914971566828015,-7.266720372820586],[-34.915297368353642,-7.266721388920698],[-34.915718938423225,-7.266709641098978],[-34.915994890609717,-7.266705604706564],[-34.916210512055699,-7.266710434597514],[-34.916667444006606,-7.26667692797967],[-34.916811151016361,-7.266670579543615],[-34.917958877976368,-7.266617632311712]]}},
{"type":"Feature","properties":{"id_link":"L_A_0177","node_in":"N_A_0145","node_out":"N_A_0147","classe":"TRONCO","origem":"TroncoA5_F001","comp_m":71.450442411733746,"cota_in":53.805240631103516,"cota_out":51.713390350341797,"decl_pct":2.9276939514347786,"diam_m":0.8,"obs":"DECLIVE_MDE"},"geometry":{"type":"LineString","coordinates":[[-34.917958877976368,-7.266617632311712],[-34.918338742877779,-7.266600107652208],[-34.918605350105587,-7.266595810221857]]}},
{"type":"Feature","properties":{"id_link":"L_A_0178","node_in":"N_A_0147","node_out":"N_A_0112","classe":"TRONCO","origem":"TroncoA5_F001","comp_m":69.361334833689966,"cota_in":51.713390350341797,"cota_out":50.735774993896484,"decl_pct":1.4094529160797931,"diam_m":0.8,"obs":"DECLIVE_MDE"},"geometry":{"type":"LineString","coordinates":[[-34.918605350105587,-7.266595810221857],[-34.91882165523689,-7.266592323493972],[-34.919232061620818,-7.266560220324258]]}},
{"type":"Feature","properties":{"id_link":"L_A_0179","node_in":"N_A_0112","node_out":"N_A_0114","classe":"TRONCO","origem":"TroncoA5_F001","comp_m":147.80244663148085,"cota_in":50.735774993896484,"cota_out":43.956615447998047,"decl_pct":4.5866355398033889,"diam_m":0.8,"obs":"DECLIVE_MDE"},"geometry":{"type":"LineString","coordinates":[[-34.919232061620818,-7.266560220324258],[-34.919287197867646,-7.266555907380098],[-34.919809131112707,-7.266545660632731],[-34.920269111033249,-7.266553281342361],[-34.920568672535978,-7.266580717654489]]}},
{"type":"Feature","properties":{"id_link":"L_A_0180","node_in":"N_A_0114","node_out":"N_A_0116","classe":"TRONCO","origem":"TroncoA5_F001","comp_m":154.51379958882674,"cota_in":43.956615447998047,"cota_out":36.072437286376953,"decl_pct":5.1025721861746369,"diam_m":0.8,"obs":"DECLIVE_MDE"},"geometry":{"type":"LineString","coordinates":[[-34.920568672535978,-7.266580717654489],[-34.920568672535985,-7.266580717654507],[-34.920647846511571,-7.266609087261778],[-34.921215594011358,-7.266609074294966],[-34.921553351537959,-7.266605251100173],[-34.921962657744466,-7.266601762296536]]}},
{"type":"Feature","properties":{"id_link":"L_A_0181","node_in":"N_A_0116","node_out":"N_A_0118","classe":"TRONCO","origem":"TroncoA5_F001","comp_m":72.946359924847542,"cota_in":36.072437286376953,"cota_out":33.01202392578125,"decl_pct":4.1954298524952742,"diam_m":0.8,"obs":"DECLIVE_MDE"},"geometry":{"type":"LineString","coordinates":[[-34.921962657744466,-7.266601762296536],[-34.921962657744473,-7.266601762296536],[-34.921971270776766,-7.267261201082722]]}},
{"type":"Feature","properties":{"id_link":"L_A_0182","node_in":"N_A_0118","node_out":"N_A_0151","classe":"TRONCO","origem":"TroncoA5_F001","comp_m":70.025662847604437,"cota_in":33.01202392578125,"cota_out":27.665307998657227,"decl_pct":7.6353663924038582,"diam_m":0.8,"obs":"DECLIVE_MDE"},"geometry":{"type":"LineString","coordinates":[[-34.921971270776766,-7.267261201082722],[-34.921979019446788,-7.267637519458113],[-34.921976760237932,-7.267827364217057],[-34.921978614146383,-7.267894171854705]]}},
{"type":"Feature","properties":{"id_link":"L_A_0183","node_in":"N_A_0176","node_out":"N_A_0022","classe":"TRONCO","origem":"TroncoA6_F001","comp_m":53.23330588350057,"cota_in":47.805496215820312,"cota_out":45.737747192382812,"decl_pct":3.8843145078434622,"diam_m":0.8,"obs":"DECLIVE_MDE"},"geometry":{"type":"LineString","coordinates":[[-34.917090540266287,-7.26242061511051],[-34.917248080094836,-7.262724772607716],[-34.917312227813404,-7.262847956943806]]}},
{"type":"Feature","properties":{"id_link":"L_A_0184","node_in":"N_A_0191","node_out":"N_A_0022","classe":"TRONCO","origem":"TroncoA6_F001","comp_m":68.425310538986096,"cota_in":46.413650512695312,"cota_out":45.737747192382812,"decl_pct":0.98779722735404529,"diam_m":0.8,"obs":"DECLIVE_MDE"},"geometry":{"type":"LineString","coordinates":[[-34.917453469359472,-7.263450287749166],[-34.917312227813404,-7.262847956943806]]}},
{"type":"Feature","properties":{"id_link":"L_A_0185","node_in":"N_A_0197","node_out":"N_A_0191","classe":"TRONCO","origem":"TroncoA6_F002","comp_m":63.633551449073508,"cota_in":47.297771453857422,"cota_out":46.413650512695312,"decl_pct":1.389394306979203,"diam_m":0.8,"obs":"DECLIVE_MDE"},"geometry":{"type":"LineString","coordinates":[[-34.91758124403048,-7.26401126198295],[-34.917453469359472,-7.263450287749166]]}},
{"type":"Feature","properties":{"id_link":"L_A_0186","node_in":"N_A_0198","node_out":"N_A_0190","classe":"TRONCO","origem":"TroncoA7_F001","comp_m":129.79648293006247,"cota_in":50.583255767822266,"cota_out":44.277423858642578,"decl_pct":4.8582455909667637,"diam_m":0.8,"obs":"DECLIVE_MDE"},"geometry":{"type":"LineString","coordinates":[[-34.917703667211896,-7.261223920275163],[-34.917710961436136,-7.261588442868312],[-34.917710690477477,-7.26220273086373],[-34.917718781687185,-7.262397149352467]]}},
{"type":"Feature","properties":{"id_link":"L_A_0187","node_in":"N_A_0199","node_out":"N_A_0200","classe":"TRONCO","origem":"TroncoA7_F002","comp_m":127.55686522844591,"cota_in":49.396217346191406,"cota_out":41.818229675292969,"decl_pct":5.9408701031706626,"diam_m":0.8,"obs":"DECLIVE_MDE"},"geometry":{"type":"LineString","coordinates":[[-34.918392111044582,-7.261272679408441],[-34.918373044665792,-7.262425743463466]]}}
]
}
