{
"type": "FeatureCollection",
"name": "trechos_dissipacao_B",
"crs": { "type": "name", "properties": { "name": "urn:ogc:def:crs:OGC:1.3:CRS84" } },
"features": [
{"type":"Feature","properties":{"Id":0},"geometry":{"type":"LineString","coordinates":[[-34.918480761697047,-7.272227327096931],[-34.91880049524584,-7.271940986268724]]}},
{"type":"Feature","properties":{"Id":0},"geometry":{"type":"LineString","coordinates":[[-34.920424203491756,-7.27447625936152],[-34.920892898015424,-7.274543740855001]]}}
]
}
