{
"type": "FeatureCollection",
"name": "pontos_suscetibilidade_e_metas",
"crs": { "type": "name", "properties": { "name": "urn:ogc:def:crs:EPSG::31985" } },
"features": [
{"type":"Feature","properties":{"tipo_ponto":"META_ORIGINAL","nome_original":"1i","classe_original":"Conde","bacia_recorte":"Bacia B","dentro_escopo_A_B":"SIM","coincide_suscetibilidade":"NAO","classes_suscetibilidade":"SEM_COINCIDENCIA_DIRETA","distancia_min_suscetibilidade_m":25.85},"geometry":{"type":"Point","coordinates":[288757.730377269850578,9196030.493057761341333]}},
{"type":"Feature","properties":{"tipo_ponto":"META_ORIGINAL","nome_original":"1f","classe_original":"Conde","bacia_recorte":"Bacia B","dentro_escopo_A_B":"SIM","coincide_suscetibilidade":"NAO","classes_suscetibilidade":"SEM_COINCIDENCIA_DIRETA","distancia_min_suscetibilidade_m":584.8},"geometry":{"type":"Point","coordinates":[288240.421921547618695,9195319.292265804484487]}},
{"type":"Feature","properties":{"tipo_ponto":"META_ORIGINAL","nome_original":"2f","classe_original":"Conde","bacia_recorte":"Bacia B","dentro_escopo_A_B":"SIM","coincide_suscetibilidade":"NAO","classes_suscetibilidade":"SEM_COINCIDENCIA_DIRETA","distancia_min_suscetibilidade_m":390.38},"geometry":{"type":"Point","coordinates":[288563.331735899671912,9195432.487474700435996]}},
{"type":"Feature","properties":{"tipo_ponto":"META_ORIGINAL","nome_original":"2i - foto?","classe_original":"Conde","bacia_recorte":"Bacia B","dentro_escopo_A_B":"SIM","coincide_suscetibilidade":"NAO","classes_suscetibilidade":"SEM_COINCIDENCIA_DIRETA","distancia_min_suscetibilidade_m":133.04},"geometry":{"type":"Point","coordinates":[288813.791304058395326,9195760.168247990310192]}},
{"type":"Feature","properties":{"tipo_ponto":"META_ORIGINAL","nome_original":"4i","classe_original":"Conde","bacia_recorte":"FORA_DO_ESCOPO_A_B","dentro_escopo_A_B":"NAO","coincide_suscetibilidade":"NAO","classes_suscetibilidade":"SEM_COINCIDENCIA_DIRETA","distancia_min_suscetibilidade_m":10109.09},"geometry":{"type":"Point","coordinates":[299320.050154401513282,9196363.695027461275458]}},
{"type":"Feature","properties":{"tipo_ponto":"META_ORIGINAL","nome_original":"4f","classe_original":"Conde","bacia_recorte":"FORA_DO_ESCOPO_A_B","dentro_escopo_A_B":"NAO","coincide_suscetibilidade":"NAO","classes_suscetibilidade":"SEM_COINCIDENCIA_DIRETA","distancia_min_suscetibilidade_m":10109.23},"geometry":{"type":"Point","coordinates":[299304.588158852653578,9196130.433756874874234]}},
{"type":"Feature","properties":{"tipo_ponto":"META_ORIGINAL","nome_original":"3i","classe_original":"Conde","bacia_recorte":"Bacia A","dentro_escopo_A_B":"SIM","coincide_suscetibilidade":"SIM","classes_suscetibilidade":"Suscetibilidade MEDIA","distancia_min_suscetibilidade_m":0.0},"geometry":{"type":"Point","coordinates":[288222.27236659952905,9196187.616092292591929]}},
{"type":"Feature","properties":{"tipo_ponto":"META_ORIGINAL","nome_original":"3f","classe_original":"Conde","bacia_recorte":"Bacia A","dentro_escopo_A_B":"SIM","coincide_suscetibilidade":"SIM","classes_suscetibilidade":"Suscetibilidade ALTA + Suscetibilidade MEDIA","distancia_min_suscetibilidade_m":0.0},"geometry":{"type":"Point","coordinates":[287802.023243664647453,9196203.054503912106156]}},
{"type":"Feature","properties":{"tipo_ponto":"META_ORIGINAL","nome_original":"5i","classe_original":"Conde","bacia_recorte":"Bacia A","dentro_escopo_A_B":"SIM","coincide_suscetibilidade":"NAO","classes_suscetibilidade":"SEM_COINCIDENCIA_DIRETA","distancia_min_suscetibilidade_m":41.41},"geometry":{"type":"Point","coordinates":[287950.2143267596839,9196869.923963256180286]}},
{"type":"Feature","properties":{"tipo_ponto":"META_ORIGINAL","nome_original":"5f","classe_original":"Conde","bacia_recorte":"Bacia A","dentro_escopo_A_B":"SIM","coincide_suscetibilidade":"NAO","classes_suscetibilidade":"SEM_COINCIDENCIA_DIRETA","distancia_min_suscetibilidade_m":26.08},"geometry":{"type":"Point","coordinates":[288020.42011345422361,9197009.922277953475714]}},
{"type":"Feature","properties":{"tipo_ponto":"META_ORIGINAL","nome_original":"6f","classe_original":"Conde","bacia_recorte":"Bacia A","dentro_escopo_A_B":"SIM","coincide_suscetibilidade":"SIM","classes_suscetibilidade":"Suscetibilidade ALTA","distancia_min_suscetibilidade_m":0.0},"geometry":{"type":"Point","coordinates":[288321.600269323273096,9196770.182793125510216]}},
{"type":"Feature","properties":{"tipo_ponto":"META_ORIGINAL","nome_original":"6i","classe_original":"Conde","bacia_recorte":"Bacia A","dentro_escopo_A_B":"SIM","coincide_suscetibilidade":"SIM","classes_suscetibilidade":"Suscetibilidade ALTA","distancia_min_suscetibilidade_m":0.0},"geometry":{"type":"Point","coordinates":[288338.580503365607001,9196805.425970355048776]}},
{"type":"Feature","properties":{"tipo_ponto":"EROSAO_FOTOGRAFIA","nome_original":"P01 - WA0029","classe_original":"e","bacia_recorte":"FORA_DO_ESCOPO_A_B","dentro_escopo_A_B":"NAO","coincide_suscetibilidade":"NAO","classes_suscetibilidade":"SEM_COINCIDENCIA_DIRETA","distancia_min_suscetibilidade_m":10111.65},"geometry":{"type":"Point","coordinates":[299314.606716111651622,9196234.045489858835936]}},
{"type":"Feature","properties":{"tipo_ponto":"EROSAO_FOTOGRAFIA","nome_original":"P02 - WA0030","classe_original":"e","bacia_recorte":"FORA_DO_ESCOPO_A_B","dentro_escopo_A_B":"NAO","coincide_suscetibilidade":"NAO","classes_suscetibilidade":"SEM_COINCIDENCIA_DIRETA","distancia_min_suscetibilidade_m":10109.09},"geometry":{"type":"Point","coordinates":[299320.050154401513282,9196363.695027461275458]}},
{"type":"Feature","properties":{"tipo_ponto":"EROSAO_FOTOGRAFIA","nome_original":"P03 - WA0050","classe_original":"e","bacia_recorte":"FORA_DO_ESCOPO_A_B","dentro_escopo_A_B":"NAO","coincide_suscetibilidade":"NAO","classes_suscetibilidade":"SEM_COINCIDENCIA_DIRETA","distancia_min_suscetibilidade_m":6843.09},"geometry":{"type":"Point","coordinates":[295994.332672104239464,9195910.46623363904655]}},
{"type":"Feature","properties":{"tipo_ponto":"EROSAO_FOTOGRAFIA","nome_original":"P04 - WA0038","classe_original":"e","bacia_recorte":"FORA_DO_ESCOPO_A_B","dentro_escopo_A_B":"NAO","coincide_suscetibilidade":"NAO","classes_suscetibilidade":"SEM_COINCIDENCIA_DIRETA","distancia_min_suscetibilidade_m":7338.27},"geometry":{"type":"Point","coordinates":[296391.940587085904554,9195339.040948366746306]}},
{"type":"Feature","properties":{"tipo_ponto":"EROSAO_FOTOGRAFIA","nome_original":"P05 - WA0039","classe_original":"e","bacia_recorte":"FORA_DO_ESCOPO_A_B","dentro_escopo_A_B":"NAO","coincide_suscetibilidade":"NAO","classes_suscetibilidade":"SEM_COINCIDENCIA_DIRETA","distancia_min_suscetibilidade_m":7378.18},"geometry":{"type":"Point","coordinates":[296422.066622623708099,9195290.939792480319738]}},
{"type":"Feature","properties":{"tipo_ponto":"EROSAO_FOTOGRAFIA","nome_original":"P06 - WA0037","classe_original":"e","bacia_recorte":"FORA_DO_ESCOPO_A_B","dentro_escopo_A_B":"NAO","coincide_suscetibilidade":"NAO","classes_suscetibilidade":"SEM_COINCIDENCIA_DIRETA","distancia_min_suscetibilidade_m":7404.76},"geometry":{"type":"Point","coordinates":[296443.378074775915593,9195264.813185416162014]}},
{"type":"Feature","properties":{"tipo_ponto":"EROSAO_FOTOGRAFIA","nome_original":"P07 - WA0051","classe_original":"e","bacia_recorte":"FORA_DO_ESCOPO_A_B","dentro_escopo_A_B":"NAO","coincide_suscetibilidade":"NAO","classes_suscetibilidade":"SEM_COINCIDENCIA_DIRETA","distancia_min_suscetibilidade_m":7401.46},"geometry":{"type":"Point","coordinates":[296440.388967460021377,9195266.570685837417841]}},
{"type":"Feature","properties":{"tipo_ponto":"EROSAO_FOTOGRAFIA","nome_original":"P08 - WA0054","classe_original":"e","bacia_recorte":"Bacia A","dentro_escopo_A_B":"SIM","coincide_suscetibilidade":"SIM","classes_suscetibilidade":"Pontos de erosao observados (fotos) + Suscetibilidade MEDIA","distancia_min_suscetibilidade_m":0.0},"geometry":{"type":"Point","coordinates":[288225.080877106520347,9196176.456361945718527]}},
{"type":"Feature","properties":{"tipo_ponto":"EROSAO_FOTOGRAFIA","nome_original":"P09 - WA0055","classe_original":"e","bacia_recorte":"Bacia A","dentro_escopo_A_B":"SIM","coincide_suscetibilidade":"SIM","classes_suscetibilidade":"Pontos de erosao observados (fotos) + Suscetibilidade MEDIA","distancia_min_suscetibilidade_m":0.0},"geometry":{"type":"Point","coordinates":[288053.428622010280378,9196179.821375332772732]}}
]
}
